{"type":"FeatureCollection","features":[{"type":"Feature","geometry":{"type":"Point","coordinates":[7.0955,50.7332]},"properties":{"id":"bonn-1","name":"Bonn Kontext 1","year":2023,"ukategorie":"2","utyp1":"3","uart":"0","umonat":"03","ustunde":"7","uwochentag":"2","strzustand":"0","ulichtverh":"0","istrad":"1","istfuss":"0","istpkw":"0","istkrad":"0","istgkfz":"0","istsonstig":"0"}},{"type":"Feature","geometry":{"type":"Point","coordinates":[7.097,50.7345]},"properties":{"id":"bonn-2","name":"Bonn Kontext 2","year":2023,"ukategorie":"3","utyp1":"2","uart":"0","umonat":"10","ustunde":"16","uwochentag":"6","strzustand":"1","ulichtverh":"0","istrad":"0","istfuss":"1","istpkw":"1","istkrad":"0","istgkfz":"0","istsonstig":"0"}}]}