{"type":"FeatureCollection","features":[{"type":"Feature","geometry":{"type":"Point","coordinates":[7.626,51.96]},"properties":{"id":"muenster-1","name":"Unfall 1 (2023) Kat:2","year":2023,"ukategorie":"2","utyp1":"3","uart":"0","umonat":"05","ustunde":"5","uwochentag":"2","strzustand":"0","ulichtverh":"0","strasse":"","istrad":"1","istfuss":"0","istpkw":"1","istkrad":"0","istgkfz":"0","istsonstig":"0"}},{"type":"Feature","geometry":{"type":"Point","coordinates":[7.627000000000001,51.961]},"properties":{"id":"muenster-2","name":"Unfall 2 (2023) Kat:3","year":2023,"ukategorie":"3","utyp1":"2","uart":"0","umonat":"09","ustunde":"17","uwochentag":"5","strzustand":"0","ulichtverh":"0","strasse":"","istrad":"0","istfuss":"1","istpkw":"1","istkrad":"0","istgkfz":"0","istsonstig":"0"}}]}