{"type":"FeatureCollection","features":[{"type":"Feature","geometry":{"type":"Point","coordinates":[9.732,52.376]},"properties":{"id":"hannover-1","name":"Unfall 1 (2023) Kat:2","year":2023,"ukategorie":"2","utyp1":"3","uart":"0","umonat":"05","ustunde":"5","uwochentag":"2","strzustand":"0","ulichtverh":"0","strasse":"","istrad":"1","istfuss":"0","istpkw":"0","istkrad":"0","istgkfz":"0","istsonstig":"0"}},{"type":"Feature","geometry":{"type":"Point","coordinates":[9.733,52.377]},"properties":{"id":"hannover-2","name":"Unfall 2 (2023) Kat:3","year":2023,"ukategorie":"3","utyp1":"2","uart":"0","umonat":"09","ustunde":"17","uwochentag":"7","strzustand":"0","ulichtverh":"0","strasse":"","istrad":"0","istfuss":"1","istpkw":"1","istkrad":"0","istgkfz":"0","istsonstig":"0"}},{"type":"Feature","geometry":{"type":"Point","coordinates":[9.734,52.378]},"properties":{"id":"hannover-3","name":"Unfall 3 (2023) Kat:1","year":2023,"ukategorie":"1","utyp1":"1","uart":"0","umonat":"12","ustunde":"22","uwochentag":"5","strzustand":"2","ulichtverh":"1","strasse":"","istrad":"0","istfuss":"0","istpkw":"0","istkrad":"1","istgkfz":"0","istsonstig":"0"}}]}