{"type":"FeatureCollection","features":[{"type":"Feature","geometry":{"type":"Point","coordinates":[13.401,52.5208]},"properties":{"id":"berlin-1","name":"Berlin Kontext 1","year":2023,"ukategorie":"2","utyp1":"3","uart":"0","umonat":"04","ustunde":"8","uwochentag":"2","strzustand":"0","ulichtverh":"0","istrad":"1","istfuss":"0","istpkw":"0","istkrad":"0","istgkfz":"0","istsonstig":"0"}},{"type":"Feature","geometry":{"type":"Point","coordinates":[13.4035,52.5215]},"properties":{"id":"berlin-2","name":"Berlin Kontext 2","year":2023,"ukategorie":"3","utyp1":"2","uart":"0","umonat":"09","ustunde":"18","uwochentag":"5","strzustand":"1","ulichtverh":"0","istrad":"0","istfuss":"1","istpkw":"1","istkrad":"0","istgkfz":"0","istsonstig":"0"}}]}