{"type": "FeatureCollection", "features": [{"type": "Feature", "geometry": {"type": "Point", "coordinates": [9.1810387, 49.1383819]}, "properties": {"id": "osm:node:168325804", "type": "school", "name": "Andreas-Schneider-Schule", "source": "OpenStreetMap/Overpass"}}, {"type": "Feature", "geometry": {"type": "Point", "coordinates": [9.227593, 49.1567867]}, "properties": {"id": "osm:node:543524948", "type": "kindergarten", "name": "Becker-Franck-Stiftung Kindergarten", "source": "OpenStreetMap/Overpass"}}, {"type": "Feature", "geometry": {"type": "Point", "coordinates": [9.1795401, 49.1454251]}, "properties": {"id": "osm:node:600002734", "type": "school", "name": "Elly-Heuss-Knapp Gymnasium", "source": "OpenStreetMap/Overpass"}}, {"type": "Feature", "geometry": {"type": "Point", "coordinates": [9.1993934, 49.1692477]}, "properties": {"id": "osm:node:618680912", "type": "kindergarten", "name": "Städischer Kindergarten", "source": "OpenStreetMap/Overpass"}}, {"type": "Feature", "geometry": {"type": "Point", "coordinates": [9.2209699, 49.1303518]}, "properties": {"id": "osm:node:1260897940", "type": "kindergarten", "name": "Katholischer Kindergarten Maria Immaculata", "source": "OpenStreetMap/Overpass"}}, {"type": "Feature", "geometry": {"type": "Point", "coordinates": [9.1803947, 49.1385632]}, "properties": {"id": "osm:node:1550761621", "type": "school", "name": "Christiane-Herzog-Schule", "source": "OpenStreetMap/Overpass"}}, {"type": "Feature", "geometry": {"type": "Point", "coordinates": [9.2051297, 49.1294807]}, "properties": {"id": "osm:node:1563487018", "type": "kindergarten", "name": "", "source": "OpenStreetMap/Overpass"}}, {"type": "Feature", "geometry": {"type": "Point", "coordinates": [9.0467184, 49.1046949]}, "properties": {"id": "osm:node:2154563436", "type": "kindergarten", "name": "Evangelische Kindertagesstätte", "source": "OpenStreetMap/Overpass"}}, {"type": "Feature", "geometry": {"type": "Point", "coordinates": [9.2229623, 49.1388955]}, "properties": {"id": "osm:node:3430944412", "type": "kindergarten", "name": "Kita Uhlandstraße", "source": "OpenStreetMap/Overpass"}}, {"type": "Feature", "geometry": {"type": "Point", "coordinates": [9.2179273, 49.1909738]}, "properties": {"id": "osm:node:3842426964", "type": "school", "name": "Audi Akademie", "source": "OpenStreetMap/Overpass"}}, {"type": "Feature", "geometry": {"type": "Point", "coordinates": [9.222439, 49.1491585]}, "properties": {"id": "osm:node:3925802319", "type": "school", "name": "Johann-Jakob-Widmann-Schule", "source": "OpenStreetMap/Overpass"}}, {"type": "Feature", "geometry": {"type": "Point", "coordinates": [9.2228534, 49.148908]}, "properties": {"id": "osm:node:3925802320", "type": "school", "name": "Wilhelm-Maybach-Schule", "source": "OpenStreetMap/Overpass"}}, {"type": "Feature", "geometry": {"type": "Point", "coordinates": [9.2180215, 49.1366513]}, "properties": {"id": "osm:node:6731664124", "type": "kindergarten", "name": "Evangelische Kinderkrippe", "source": "OpenStreetMap/Overpass"}}, {"type": "Feature", "geometry": {"type": "Point", "coordinates": [9.1010611, 49.1052418]}, "properties": {"id": "osm:node:7388268544", "type": "kindergarten", "name": "Wurzelzwerge", "source": "OpenStreetMap/Overpass"}}, {"type": "Feature", "geometry": {"type": "Point", "coordinates": [9.2753655, 49.1507762]}, "properties": {"id": "osm:node:11066293208", "type": "kindergarten", "name": "KiTa Heilbronner Fußweg", "source": "OpenStreetMap/Overpass"}}, {"type": "Feature", "geometry": {"type": "Point", "coordinates": [9.1095966, 49.1805259]}, "properties": {"id": "osm:node:11541645614", "type": "school", "name": "St. Franziskus", "source": "OpenStreetMap/Overpass"}}, {"type": "Feature", "geometry": {"type": "Point", "coordinates": [9.2049377, 49.1195818]}, "properties": {"id": "osm:node:13075326437", "type": "childcare", "name": "Elffeen", "source": "OpenStreetMap/Overpass"}}, {"type": "Feature", "geometry": {"type": "Point", "coordinates": [9.2736711, 49.1864336]}, "properties": {"id": "osm:node:13695495583", "type": "childcare", "name": "Waldkindergarten Erlenbach", "source": "OpenStreetMap/Overpass"}}, {"type": "Feature", "geometry": {"type": "Point", "coordinates": [9.1955235, 49.169151]}, "properties": {"id": "osm:node:13822006655", "type": "kindergarten", "name": "KIGA", "source": "OpenStreetMap/Overpass"}}, {"type": "Feature", "geometry": {"type": "Point", "coordinates": [9.1808337, 49.1389485]}, "properties": {"id": "osm:way:16359408", "type": "school", "name": "", "source": "OpenStreetMap/Overpass"}}, {"type": "Feature", "geometry": {"type": "Point", "coordinates": [9.1908462, 49.1344835]}, "properties": {"id": "osm:way:24034288", "type": "school", "name": "Grundschule Alt-Böckingen", "source": "OpenStreetMap/Overpass"}}, {"type": "Feature", "geometry": {"type": "Point", "coordinates": [9.1547461, 49.1211741]}, "properties": {"id": "osm:way:24365785", "type": "school", "name": "Grundschule Klingenberg", "source": "OpenStreetMap/Overpass"}}, {"type": "Feature", "geometry": {"type": "Point", "coordinates": [9.1549769, 49.1213258]}, "properties": {"id": "osm:way:24366308", "type": "school", "name": "", "source": "OpenStreetMap/Overpass"}}, {"type": "Feature", "geometry": {"type": "Point", "coordinates": [9.1853676, 49.1363398]}, "properties": {"id": "osm:way:26270111", "type": "kindergarten", "name": "AWO-Kindertagesstätte Marie Juchacz", "source": "OpenStreetMap/Overpass"}}, {"type": "Feature", "geometry": {"type": "Point", "coordinates": [9.2268046, 49.1396174]}, "properties": {"id": "osm:way:29010336", "type": "school", "name": "", "source": "OpenStreetMap/Overpass"}}, {"type": "Feature", "geometry": {"type": "Point", "coordinates": [9.1794554, 49.144904]}, "properties": {"id": "osm:way:35766217", "type": "school", "name": "Elly-Heuss-Knapp Grund-und Werkrealschule", "source": "OpenStreetMap/Overpass"}}, {"type": "Feature", "geometry": {"type": "Point", "coordinates": [9.2093026, 49.1393458]}, "properties": {"id": "osm:way:36828996", "type": "kindergarten", "name": "", "source": "OpenStreetMap/Overpass"}}, {"type": "Feature", "geometry": {"type": "Point", "coordinates": [9.2120773, 49.1425145]}, "properties": {"id": "osm:way:37299062", "type": "school", "name": "Kolping Bildungskolleg - Schule für Gestaltung", "source": "OpenStreetMap/Overpass"}}, {"type": "Feature", "geometry": {"type": "Point", "coordinates": [9.1919695, 49.1152949]}, "properties": {"id": "osm:way:40947811", "type": "kindergarten", "name": "Kripper Bärenhöhle", "source": "OpenStreetMap/Overpass"}}, {"type": "Feature", "geometry": {"type": "Point", "coordinates": [9.1917715, 49.1155922]}, "properties": {"id": "osm:way:40947813", "type": "kindergarten", "name": "Erwin-Römmele-Bewegungskindergarten", "source": "OpenStreetMap/Overpass"}}, {"type": "Feature", "geometry": {"type": "Point", "coordinates": [9.1888184, 49.1168181]}, "properties": {"id": "osm:way:41013441", "type": "kindergarten", "name": "Kindergarten Ackermannstift", "source": "OpenStreetMap/Overpass"}}, {"type": "Feature", "geometry": {"type": "Point", "coordinates": [9.2803137, 49.1491233]}, "properties": {"id": "osm:way:41131024", "type": "kindergarten", "name": "Kindergarten Rossäcker", "source": "OpenStreetMap/Overpass"}}, {"type": "Feature", "geometry": {"type": "Point", "coordinates": [9.2791157, 49.1481569]}, "properties": {"id": "osm:way:41131028", "type": "school", "name": "Bildungszentrum Rossäcker", "source": "OpenStreetMap/Overpass"}}, {"type": "Feature", "geometry": {"type": "Point", "coordinates": [9.2783617, 49.1477589]}, "properties": {"id": "osm:way:41131029", "type": "school", "name": "Grundschule Weinsberg", "source": "OpenStreetMap/Overpass"}}, {"type": "Feature", "geometry": {"type": "Point", "coordinates": [9.2793653, 49.1475149]}, "properties": {"id": "osm:way:41131035", "type": "school", "name": "Weibertreuschule", "source": "OpenStreetMap/Overpass"}}, {"type": "Feature", "geometry": {"type": "Point", "coordinates": [9.2802227, 49.1480665]}, "properties": {"id": "osm:way:41131038", "type": "school", "name": "Justinus-Kerner-Gymnasium", "source": "OpenStreetMap/Overpass"}}, {"type": "Feature", "geometry": {"type": "Point", "coordinates": [9.2783617, 49.1477589]}, "properties": {"id": "osm:way:41689421", "type": "school", "name": "Grundschule Rossäcker", "source": "OpenStreetMap/Overpass"}}, {"type": "Feature", "geometry": {"type": "Point", "coordinates": [9.2913631, 49.1821975]}, "properties": {"id": "osm:way:43248641", "type": "school", "name": "Grundschule/Kindergarten", "source": "OpenStreetMap/Overpass"}}, {"type": "Feature", "geometry": {"type": "Point", "coordinates": [9.292242, 49.1651763]}, "properties": {"id": "osm:way:43336895", "type": "kindergarten", "name": "Kita \"Villa Zauberbaum\"", "source": "OpenStreetMap/Overpass"}}, {"type": "Feature", "geometry": {"type": "Point", "coordinates": [9.2920642, 49.1650536]}, "properties": {"id": "osm:way:43336901", "type": "kindergarten", "name": "Kita Villa Zauberbaum", "source": "OpenStreetMap/Overpass"}}, {"type": "Feature", "geometry": {"type": "Point", "coordinates": [9.2938321, 49.166222]}, "properties": {"id": "osm:way:43336971", "type": "school", "name": "Schule für Kranke", "source": "OpenStreetMap/Overpass"}}, {"type": "Feature", "geometry": {"type": "Point", "coordinates": [9.2941278, 49.1658595]}, "properties": {"id": "osm:way:43336972", "type": "school", "name": "Pflegefachschule", "source": "OpenStreetMap/Overpass"}}, {"type": "Feature", "geometry": {"type": "Point", "coordinates": [9.2952803, 49.1642279]}, "properties": {"id": "osm:way:43343612", "type": "school", "name": "KJ 51 52 53 54", "source": "OpenStreetMap/Overpass"}}, {"type": "Feature", "geometry": {"type": "Point", "coordinates": [9.230534, 49.1931981]}, "properties": {"id": "osm:way:46365579", "type": "school", "name": "Albert-Schweitzer-Gymnasium", "source": "OpenStreetMap/Overpass"}}, {"type": "Feature", "geometry": {"type": "Point", "coordinates": [9.2410127, 49.2013858]}, "properties": {"id": "osm:way:46582713", "type": "kindergarten", "name": "KiTa Danziger Straße", "source": "OpenStreetMap/Overpass"}}, {"type": "Feature", "geometry": {"type": "Point", "coordinates": [9.2169566, 49.1365905]}, "properties": {"id": "osm:way:51733610", "type": "kindergarten", "name": "Kath. Kindergarten St. Georg", "source": "OpenStreetMap/Overpass"}}, {"type": "Feature", "geometry": {"type": "Point", "coordinates": [9.2213293, 49.1856454]}, "properties": {"id": "osm:way:52255226", "type": "school", "name": "Christian-Schmidt-Schule", "source": "OpenStreetMap/Overpass"}}, {"type": "Feature", "geometry": {"type": "Point", "coordinates": [9.22188, 49.1835312]}, "properties": {"id": "osm:way:52298456", "type": "school", "name": "Christian-Schmidt-Schule", "source": "OpenStreetMap/Overpass"}}, {"type": "Feature", "geometry": {"type": "Point", "coordinates": [9.2302714, 49.199852]}, "properties": {"id": "osm:way:52525887", "type": "school", "name": "Hermann-Greiner-Realschule", "source": "OpenStreetMap/Overpass"}}, {"type": "Feature", "geometry": {"type": "Point", "coordinates": [9.2392639, 49.1999602]}, "properties": {"id": "osm:way:52720992", "type": "school", "name": "Neubergschule", "source": "OpenStreetMap/Overpass"}}, {"type": "Feature", "geometry": {"type": "Point", "coordinates": [9.240204, 49.2003426]}, "properties": {"id": "osm:way:52720994", "type": "school", "name": "Astrid-Lindgren-Schule", "source": "OpenStreetMap/Overpass"}}, {"type": "Feature", "geometry": {"type": "Point", "coordinates": [9.2469062, 49.2036399]}, "properties": {"id": "osm:way:53308926", "type": "kindergarten", "name": "KiTa Harzstraße", "source": "OpenStreetMap/Overpass"}}, {"type": "Feature", "geometry": {"type": "Point", "coordinates": [9.2252447, 49.1247279]}, "properties": {"id": "osm:way:53376087", "type": "school", "name": "Luise-Bronner-Realschule", "source": "OpenStreetMap/Overpass"}}, {"type": "Feature", "geometry": {"type": "Point", "coordinates": [9.2246801, 49.1249148]}, "properties": {"id": "osm:way:53376089", "type": "school", "name": "Luise-Bronner-Realschule", "source": "OpenStreetMap/Overpass"}}, {"type": "Feature", "geometry": {"type": "Point", "coordinates": [9.219786, 49.1470411]}, "properties": {"id": "osm:way:54277552", "type": "school", "name": "Dammschule", "source": "OpenStreetMap/Overpass"}}, {"type": "Feature", "geometry": {"type": "Point", "coordinates": [9.2273932, 49.1525537]}, "properties": {"id": "osm:way:55275581", "type": "school", "name": "Wartbergschule", "source": "OpenStreetMap/Overpass"}}, {"type": "Feature", "geometry": {"type": "Point", "coordinates": [9.230036, 49.1513968]}, "properties": {"id": "osm:way:55275582", "type": "school", "name": "Lindenparkschule", "source": "OpenStreetMap/Overpass"}}, {"type": "Feature", "geometry": {"type": "Point", "coordinates": [9.1924953, 49.115211]}, "properties": {"id": "osm:way:58132849", "type": "school", "name": "Alice-Salomon-Schule", "source": "OpenStreetMap/Overpass"}}, {"type": "Feature", "geometry": {"type": "Point", "coordinates": [9.2244523, 49.1890479]}, "properties": {"id": "osm:way:59492110", "type": "school", "name": "Fachschule für Sozialpädagogik", "source": "OpenStreetMap/Overpass"}}, {"type": "Feature", "geometry": {"type": "Point", "coordinates": [9.226192, 49.1891742]}, "properties": {"id": "osm:way:59492112", "type": "school", "name": "Johannes-Häußler-Schule", "source": "OpenStreetMap/Overpass"}}, {"type": "Feature", "geometry": {"type": "Point", "coordinates": [9.2177699, 49.1186914]}, "properties": {"id": "osm:way:60232302", "type": "kindergarten", "name": "Traumland", "source": "OpenStreetMap/Overpass"}}, {"type": "Feature", "geometry": {"type": "Point", "coordinates": [9.1550246, 49.1222518]}, "properties": {"id": "osm:way:60321980", "type": "kindergarten", "name": "", "source": "OpenStreetMap/Overpass"}}, {"type": "Feature", "geometry": {"type": "Point", "coordinates": [9.2346535, 49.1416847]}, "properties": {"id": "osm:way:60761796", "type": "school", "name": "Fritz-Ulrich-Schule", "source": "OpenStreetMap/Overpass"}}, {"type": "Feature", "geometry": {"type": "Point", "coordinates": [9.1764544, 49.1371852]}, "properties": {"id": "osm:way:67726112", "type": "kindergarten", "name": "Kindergarten Helmholtzstrasse", "source": "OpenStreetMap/Overpass"}}, {"type": "Feature", "geometry": {"type": "Point", "coordinates": [9.2309927, 49.1505536]}, "properties": {"id": "osm:way:69157920", "type": "kindergarten", "name": "", "source": "OpenStreetMap/Overpass"}}, {"type": "Feature", "geometry": {"type": "Point", "coordinates": [9.2086874, 49.1083771]}, "properties": {"id": "osm:way:69597602", "type": "kindergarten", "name": "Naturkindergarten am Sandberg", "source": "OpenStreetMap/Overpass"}}, {"type": "Feature", "geometry": {"type": "Point", "coordinates": [9.1898542, 49.1697674]}, "properties": {"id": "osm:way:78325868", "type": "kindergarten", "name": "AWO Kindertagesstätte Helene Simon", "source": "OpenStreetMap/Overpass"}}, {"type": "Feature", "geometry": {"type": "Point", "coordinates": [9.2007246, 49.1701926]}, "properties": {"id": "osm:way:78627358", "type": "kindergarten", "name": "Evangelischer Kindergarten Zückwolfstraße", "source": "OpenStreetMap/Overpass"}}, {"type": "Feature", "geometry": {"type": "Point", "coordinates": [9.2232625, 49.1490124]}, "properties": {"id": "osm:way:83869865", "type": "school", "name": "Technisches Schulzentrum", "source": "OpenStreetMap/Overpass"}}, {"type": "Feature", "geometry": {"type": "Point", "coordinates": [9.2242647, 49.1479915]}, "properties": {"id": "osm:way:83871799", "type": "kindergarten", "name": "Olgakrippe", "source": "OpenStreetMap/Overpass"}}, {"type": "Feature", "geometry": {"type": "Point", "coordinates": [9.2244079, 49.144673]}, "properties": {"id": "osm:way:83912584", "type": "school", "name": "Gebrüder-Grimm-Schule", "source": "OpenStreetMap/Overpass"}}, {"type": "Feature", "geometry": {"type": "Point", "coordinates": [9.2245963, 49.1473006]}, "properties": {"id": "osm:way:83912787", "type": "kindergarten", "name": "Christliche KITA Fidelis", "source": "OpenStreetMap/Overpass"}}, {"type": "Feature", "geometry": {"type": "Point", "coordinates": [9.2019005, 49.1644723]}, "properties": {"id": "osm:way:87291165", "type": "school", "name": "Albrecht-Dürer-Schule", "source": "OpenStreetMap/Overpass"}}, {"type": "Feature", "geometry": {"type": "Point", "coordinates": [9.2018611, 49.1642427]}, "properties": {"id": "osm:way:87291170", "type": "school", "name": "Albrecht-Dürer-Schule", "source": "OpenStreetMap/Overpass"}}, {"type": "Feature", "geometry": {"type": "Point", "coordinates": [9.2213486, 49.1567342]}, "properties": {"id": "osm:way:88358677", "type": "kindergarten", "name": "Becker-Franck-Kindergarten", "source": "OpenStreetMap/Overpass"}}, {"type": "Feature", "geometry": {"type": "Point", "coordinates": [9.2230288, 49.1506967]}, "properties": {"id": "osm:way:88542269", "type": "school", "name": "", "source": "OpenStreetMap/Overpass"}}, {"type": "Feature", "geometry": {"type": "Point", "coordinates": [9.2234915, 49.1501907]}, "properties": {"id": "osm:way:88542288", "type": "school", "name": "Gewerbliche Schulen Heilbronn Gebäudeteil P", "source": "OpenStreetMap/Overpass"}}, {"type": "Feature", "geometry": {"type": "Point", "coordinates": [9.1768606, 49.1628862]}, "properties": {"id": "osm:way:89773165", "type": "school", "name": "Grundschule Frankenbach", "source": "OpenStreetMap/Overpass"}}, {"type": "Feature", "geometry": {"type": "Point", "coordinates": [9.2575813, 49.1736364]}, "properties": {"id": "osm:way:89839527", "type": "kindergarten", "name": "Gemeinde-Kindergarten Binswangen", "source": "OpenStreetMap/Overpass"}}, {"type": "Feature", "geometry": {"type": "Point", "coordinates": [9.2643674, 49.1727467]}, "properties": {"id": "osm:way:90088025", "type": "school", "name": "Kaybergschule Erlenbach", "source": "OpenStreetMap/Overpass"}}, {"type": "Feature", "geometry": {"type": "Point", "coordinates": [9.2669776, 49.1713178]}, "properties": {"id": "osm:way:90088707", "type": "school", "name": "Grundschule", "source": "OpenStreetMap/Overpass"}}, {"type": "Feature", "geometry": {"type": "Point", "coordinates": [9.1702811, 49.1591692]}, "properties": {"id": "osm:way:91203008", "type": "kindergarten", "name": "Kindergarten \"Friede von Cotta\"", "source": "OpenStreetMap/Overpass"}}, {"type": "Feature", "geometry": {"type": "Point", "coordinates": [9.1999767, 49.1982106]}, "properties": {"id": "osm:way:91799214", "type": "school", "name": "Wilhelm-Maier-Schule", "source": "OpenStreetMap/Overpass"}}, {"type": "Feature", "geometry": {"type": "Point", "coordinates": [9.0497356, 49.1448061]}, "properties": {"id": "osm:way:93909140", "type": "kindergarten", "name": "Waldorf-Kindergarten", "source": "OpenStreetMap/Overpass"}}, {"type": "Feature", "geometry": {"type": "Point", "coordinates": [9.0569982, 49.1454695]}, "properties": {"id": "osm:way:94170982", "type": "kindergarten", "name": "Evangelischer Kindergarten", "source": "OpenStreetMap/Overpass"}}, {"type": "Feature", "geometry": {"type": "Point", "coordinates": [9.1975992, 49.2092096]}, "properties": {"id": "osm:way:94422730", "type": "kindergarten", "name": "Kindergarten Hölderlinstraße", "source": "OpenStreetMap/Overpass"}}, {"type": "Feature", "geometry": {"type": "Point", "coordinates": [9.1826794, 49.1852906]}, "properties": {"id": "osm:way:95100603", "type": "kindergarten", "name": "Kinder in Bewegung", "source": "OpenStreetMap/Overpass"}}, {"type": "Feature", "geometry": {"type": "Point", "coordinates": [9.1018582, 49.1502555]}, "properties": {"id": "osm:way:95868120", "type": "kindergarten", "name": "Kindergarten Trautenbusch", "source": "OpenStreetMap/Overpass"}}, {"type": "Feature", "geometry": {"type": "Point", "coordinates": [9.172609, 49.1568379]}, "properties": {"id": "osm:way:96954583", "type": "kindergarten", "name": "katholischer Kindergarten St. Johannes", "source": "OpenStreetMap/Overpass"}}, {"type": "Feature", "geometry": {"type": "Point", "coordinates": [9.109623, 49.1441841]}, "properties": {"id": "osm:way:97717831", "type": "kindergarten", "name": "", "source": "OpenStreetMap/Overpass"}}, {"type": "Feature", "geometry": {"type": "Point", "coordinates": [9.1095834, 49.1441217]}, "properties": {"id": "osm:way:97999605", "type": "kindergarten", "name": "Kindergarten Eichbott", "source": "OpenStreetMap/Overpass"}}, {"type": "Feature", "geometry": {"type": "Point", "coordinates": [9.1101881, 49.1438831]}, "properties": {"id": "osm:way:98034295", "type": "school", "name": "Eichbottschule", "source": "OpenStreetMap/Overpass"}}, {"type": "Feature", "geometry": {"type": "Point", "coordinates": [9.2098016, 49.1452936]}, "properties": {"id": "osm:way:98634259", "type": "school", "name": "Josef-Schwarz-Schule", "source": "OpenStreetMap/Overpass"}}, {"type": "Feature", "geometry": {"type": "Point", "coordinates": [9.1152598, 49.1416701]}, "properties": {"id": "osm:way:98711492", "type": "kindergarten", "name": "Kindergarten Lutzelfeld", "source": "OpenStreetMap/Overpass"}}, {"type": "Feature", "geometry": {"type": "Point", "coordinates": [9.1224637, 49.1422365]}, "properties": {"id": "osm:way:98944429", "type": "school", "name": "Gartenschule", "source": "OpenStreetMap/Overpass"}}, {"type": "Feature", "geometry": {"type": "Point", "coordinates": [9.1039386, 49.1424975]}, "properties": {"id": "osm:way:100422523", "type": "kindergarten", "name": "Kindertagesstätte Akazienrain", "source": "OpenStreetMap/Overpass"}}, {"type": "Feature", "geometry": {"type": "Point", "coordinates": [9.1124405, 49.1494442]}, "properties": {"id": "osm:way:100422648", "type": "kindergarten", "name": "Kindergarten Augelbaum", "source": "OpenStreetMap/Overpass"}}, {"type": "Feature", "geometry": {"type": "Point", "coordinates": [9.1289142, 49.1429952]}, "properties": {"id": "osm:way:100423700", "type": "kindergarten", "name": "Ev. Kindergarten Hafnerstraße", "source": "OpenStreetMap/Overpass"}}, {"type": "Feature", "geometry": {"type": "Point", "coordinates": [9.1231012, 49.1421783]}, "properties": {"id": "osm:way:100426067", "type": "school", "name": "Hans-Sauter-Schule", "source": "OpenStreetMap/Overpass"}}, {"type": "Feature", "geometry": {"type": "Point", "coordinates": [9.121994, 49.1422213]}, "properties": {"id": "osm:way:100426068", "type": "kindergarten", "name": "Kindergarten Kelterstraße", "source": "OpenStreetMap/Overpass"}}, {"type": "Feature", "geometry": {"type": "Point", "coordinates": [9.2869854, 49.1523719]}, "properties": {"id": "osm:way:102269946", "type": "kindergarten", "name": "Kindertagesstätte Am Grasigen Hag", "source": "OpenStreetMap/Overpass"}}, {"type": "Feature", "geometry": {"type": "Point", "coordinates": [9.2891939, 49.1530863]}, "properties": {"id": "osm:way:103321260", "type": "kindergarten", "name": "Hermann-Striebel-Kindergarten", "source": "OpenStreetMap/Overpass"}}, {"type": "Feature", "geometry": {"type": "Point", "coordinates": [9.2866528, 49.1533647]}, "properties": {"id": "osm:way:103323392", "type": "kindergarten", "name": "Karoline-Gutmann-Kindergarten", "source": "OpenStreetMap/Overpass"}}, {"type": "Feature", "geometry": {"type": "Point", "coordinates": [9.2943427, 49.1442006]}, "properties": {"id": "osm:way:104183807", "type": "kindergarten", "name": "Erich-Weismann-Kindergarten", "source": "OpenStreetMap/Overpass"}}, {"type": "Feature", "geometry": {"type": "Point", "coordinates": [9.284197, 49.1482084]}, "properties": {"id": "osm:way:104399048", "type": "kindergarten", "name": "Eugen-Diez-Kindergarten", "source": "OpenStreetMap/Overpass"}}, {"type": "Feature", "geometry": {"type": "Point", "coordinates": [9.2983651, 49.144825]}, "properties": {"id": "osm:way:104421813", "type": "kindergarten", "name": "Kindergarten Stadtseebachtal", "source": "OpenStreetMap/Overpass"}}, {"type": "Feature", "geometry": {"type": "Point", "coordinates": [9.2337432, 49.1402264]}, "properties": {"id": "osm:way:104481868", "type": "kindergarten", "name": "Kindergarten Albert", "source": "OpenStreetMap/Overpass"}}, {"type": "Feature", "geometry": {"type": "Point", "coordinates": [9.2242427, 49.1234708]}, "properties": {"id": "osm:way:105197990", "type": "kindergarten", "name": "Hort Herbert-Hoover-Straße", "source": "OpenStreetMap/Overpass"}}, {"type": "Feature", "geometry": {"type": "Point", "coordinates": [9.2287722, 49.1483432]}, "properties": {"id": "osm:way:105464422", "type": "kindergarten", "name": "Kindergarten Wartbergstraße", "source": "OpenStreetMap/Overpass"}}, {"type": "Feature", "geometry": {"type": "Point", "coordinates": [9.226777, 49.1396234]}, "properties": {"id": "osm:way:105484315", "type": "school", "name": "Robert-Mayer-Gymnasium", "source": "OpenStreetMap/Overpass"}}, {"type": "Feature", "geometry": {"type": "Point", "coordinates": [9.2316497, 49.1469397]}, "properties": {"id": "osm:way:105675670", "type": "kindergarten", "name": "Katholischer Kindergarten St.Augustinus", "source": "OpenStreetMap/Overpass"}}, {"type": "Feature", "geometry": {"type": "Point", "coordinates": [9.2187986, 49.1550429]}, "properties": {"id": "osm:way:105705342", "type": "kindergarten", "name": "Aukindergarten", "source": "OpenStreetMap/Overpass"}}, {"type": "Feature", "geometry": {"type": "Point", "coordinates": [9.2291264, 49.1440332]}, "properties": {"id": "osm:way:106507644", "type": "kindergarten", "name": "Ev. Kinderkrippe", "source": "OpenStreetMap/Overpass"}}, {"type": "Feature", "geometry": {"type": "Point", "coordinates": [9.2271716, 49.1422286]}, "properties": {"id": "osm:way:106519396", "type": "school", "name": "Theodor-Heuss-Gymnasium", "source": "OpenStreetMap/Overpass"}}, {"type": "Feature", "geometry": {"type": "Point", "coordinates": [9.2277094, 49.1415511]}, "properties": {"id": "osm:way:106523461", "type": "kindergarten", "name": "Städtischer Kindergarten Moltkestraße", "source": "OpenStreetMap/Overpass"}}, {"type": "Feature", "geometry": {"type": "Point", "coordinates": [9.2293564, 49.1333583]}, "properties": {"id": "osm:way:107341138", "type": "school", "name": "Silcherschule", "source": "OpenStreetMap/Overpass"}}, {"type": "Feature", "geometry": {"type": "Point", "coordinates": [9.2273907, 49.1345869]}, "properties": {"id": "osm:way:107342185", "type": "kindergarten", "name": "Städtischer Kindergarten Roseggerstraße", "source": "OpenStreetMap/Overpass"}}, {"type": "Feature", "geometry": {"type": "Point", "coordinates": [9.2236944, 49.1338645]}, "properties": {"id": "osm:way:107603447", "type": "kindergarten", "name": "Südkindergarten", "source": "OpenStreetMap/Overpass"}}, {"type": "Feature", "geometry": {"type": "Point", "coordinates": [9.2249282, 49.1249205]}, "properties": {"id": "osm:way:107889213", "type": "school", "name": "", "source": "OpenStreetMap/Overpass"}}, {"type": "Feature", "geometry": {"type": "Point", "coordinates": [9.2213504, 49.1248854]}, "properties": {"id": "osm:way:107889224", "type": "school", "name": "Katholisches Freies Bildungszentrum St. Kilian", "source": "OpenStreetMap/Overpass"}}, {"type": "Feature", "geometry": {"type": "Point", "coordinates": [9.2258359, 49.1258492]}, "properties": {"id": "osm:way:107998146", "type": "kindergarten", "name": "Städtischer Kindergarten Kohlpfad", "source": "OpenStreetMap/Overpass"}}, {"type": "Feature", "geometry": {"type": "Point", "coordinates": [9.243393, 49.1323139]}, "properties": {"id": "osm:way:107999735", "type": "kindergarten", "name": "Evangelischer Johannes-Kindergarten", "source": "OpenStreetMap/Overpass"}}, {"type": "Feature", "geometry": {"type": "Point", "coordinates": [9.2496675, 49.1344893]}, "properties": {"id": "osm:way:107999738", "type": "kindergarten", "name": "Städtischer Kindergarten Becker-Frank-Stiftung III", "source": "OpenStreetMap/Overpass"}}, {"type": "Feature", "geometry": {"type": "Point", "coordinates": [9.2160111, 49.1267819]}, "properties": {"id": "osm:way:111250240", "type": "school", "name": "Wilhelm-Hauff-Schule", "source": "OpenStreetMap/Overpass"}}, {"type": "Feature", "geometry": {"type": "Point", "coordinates": [9.2162532, 49.1261487]}, "properties": {"id": "osm:way:111394768", "type": "kindergarten", "name": "Städtisches Tagheim Charlottenstraße", "source": "OpenStreetMap/Overpass"}}, {"type": "Feature", "geometry": {"type": "Point", "coordinates": [9.145292, 49.1958398]}, "properties": {"id": "osm:way:111547865", "type": "school", "name": "Grund- und Hauptschule Heilbronn Biberach", "source": "OpenStreetMap/Overpass"}}, {"type": "Feature", "geometry": {"type": "Point", "coordinates": [9.2767927, 49.0945949]}, "properties": {"id": "osm:way:112263876", "type": "school", "name": "Grund- und Werkrealschule - Stettenfelsschule", "source": "OpenStreetMap/Overpass"}}, {"type": "Feature", "geometry": {"type": "Point", "coordinates": [9.2141867, 49.1290011]}, "properties": {"id": "osm:way:112587151", "type": "kindergarten", "name": "Montessori Kinderhaus", "source": "OpenStreetMap/Overpass"}}, {"type": "Feature", "geometry": {"type": "Point", "coordinates": [9.1841499, 49.1275448]}, "properties": {"id": "osm:way:115189923", "type": "kindergarten", "name": "Kindergarten Hofstattstraße", "source": "OpenStreetMap/Overpass"}}, {"type": "Feature", "geometry": {"type": "Point", "coordinates": [9.2152258, 49.127516]}, "properties": {"id": "osm:way:117183321", "type": "kindergarten", "name": "Evangelischer Martin-Luther-Kindergarten", "source": "OpenStreetMap/Overpass"}}, {"type": "Feature", "geometry": {"type": "Point", "coordinates": [9.1864947, 49.1485793]}, "properties": {"id": "osm:way:119942086", "type": "school", "name": "Heinrich-von-Kleist-Realschule", "source": "OpenStreetMap/Overpass"}}, {"type": "Feature", "geometry": {"type": "Point", "coordinates": [9.2103623, 49.1205975]}, "properties": {"id": "osm:way:121562634", "type": "school", "name": "Freie Waldorfschule Heilbronn", "source": "OpenStreetMap/Overpass"}}, {"type": "Feature", "geometry": {"type": "Point", "coordinates": [9.2125449, 49.1205878]}, "properties": {"id": "osm:way:121564839", "type": "school", "name": "Justinus-Kerner-Gymnasium", "source": "OpenStreetMap/Overpass"}}, {"type": "Feature", "geometry": {"type": "Point", "coordinates": [9.2133986, 49.1189289]}, "properties": {"id": "osm:way:121568857", "type": "school", "name": "Mörike-Realschule Uhlandschule", "source": "OpenStreetMap/Overpass"}}, {"type": "Feature", "geometry": {"type": "Point", "coordinates": [9.2069369, 49.1195082]}, "properties": {"id": "osm:way:122576510", "type": "kindergarten", "name": "Evangelischer Dietrich-Bonhoeffer-Kindergarten", "source": "OpenStreetMap/Overpass"}}, {"type": "Feature", "geometry": {"type": "Point", "coordinates": [9.2077658, 49.1196069]}, "properties": {"id": "osm:way:123129732", "type": "kindergarten", "name": "Katholischer Kindergarten Maximilian Kolbe", "source": "OpenStreetMap/Overpass"}}, {"type": "Feature", "geometry": {"type": "Point", "coordinates": [9.0495293, 49.177527]}, "properties": {"id": "osm:way:124432644", "type": "kindergarten", "name": "Katholischer Kindergarten", "source": "OpenStreetMap/Overpass"}}, {"type": "Feature", "geometry": {"type": "Point", "coordinates": [9.0470423, 49.1776751]}, "properties": {"id": "osm:way:124451206", "type": "school", "name": "Lindenhof-Schule", "source": "OpenStreetMap/Overpass"}}, {"type": "Feature", "geometry": {"type": "Point", "coordinates": [9.0457946, 49.1731467]}, "properties": {"id": "osm:way:124451568", "type": "kindergarten", "name": "Regenbogen", "source": "OpenStreetMap/Overpass"}}, {"type": "Feature", "geometry": {"type": "Point", "coordinates": [9.196314, 49.1223603]}, "properties": {"id": "osm:way:124648441", "type": "kindergarten", "name": "Kinder in Bewegung", "source": "OpenStreetMap/Overpass"}}, {"type": "Feature", "geometry": {"type": "Point", "coordinates": [9.2094593, 49.0982336]}, "properties": {"id": "osm:way:124988546", "type": "kindergarten", "name": "Kindergarten Höhenweg", "source": "OpenStreetMap/Overpass"}}, {"type": "Feature", "geometry": {"type": "Point", "coordinates": [9.2237403, 49.1930055]}, "properties": {"id": "osm:way:127573405", "type": "kindergarten", "name": "KiTa Grabenstraße", "source": "OpenStreetMap/Overpass"}}, {"type": "Feature", "geometry": {"type": "Point", "coordinates": [9.1420604, 49.1919463]}, "properties": {"id": "osm:way:127988394", "type": "kindergarten", "name": "Kindergarten Maustal", "source": "OpenStreetMap/Overpass"}}, {"type": "Feature", "geometry": {"type": "Point", "coordinates": [9.1992138, 49.1981454]}, "properties": {"id": "osm:way:128186915", "type": "kindergarten", "name": "Kindertageseinrichtung Lessingstraße", "source": "OpenStreetMap/Overpass"}}, {"type": "Feature", "geometry": {"type": "Point", "coordinates": [9.1965976, 49.1182603]}, "properties": {"id": "osm:way:132668416", "type": "kindergarten", "name": "Städtischer Kindergarten Becker-Franck-Stiftung II", "source": "OpenStreetMap/Overpass"}}, {"type": "Feature", "geometry": {"type": "Point", "coordinates": [9.2009502, 49.1183531]}, "properties": {"id": "osm:way:132829568", "type": "school", "name": "Paul-Meyle-Schule + Staufenbergschule", "source": "OpenStreetMap/Overpass"}}, {"type": "Feature", "geometry": {"type": "Point", "coordinates": [9.1994689, 49.1197734]}, "properties": {"id": "osm:way:136726123", "type": "kindergarten", "name": "Katholischer Kindergarten St. Christophorus", "source": "OpenStreetMap/Overpass"}}, {"type": "Feature", "geometry": {"type": "Point", "coordinates": [9.1921928, 49.142996]}, "properties": {"id": "osm:way:142453536", "type": "school", "name": "Grünewaldschule", "source": "OpenStreetMap/Overpass"}}, {"type": "Feature", "geometry": {"type": "Point", "coordinates": [9.1921066, 49.1426903]}, "properties": {"id": "osm:way:142453544", "type": "school", "name": "", "source": "OpenStreetMap/Overpass"}}, {"type": "Feature", "geometry": {"type": "Point", "coordinates": [9.0637181, 49.1639642]}, "properties": {"id": "osm:way:143103862", "type": "kindergarten", "name": "Biberbau", "source": "OpenStreetMap/Overpass"}}, {"type": "Feature", "geometry": {"type": "Point", "coordinates": [9.0659745, 49.164173]}, "properties": {"id": "osm:way:143104811", "type": "kindergarten", "name": "Spatzennest", "source": "OpenStreetMap/Overpass"}}, {"type": "Feature", "geometry": {"type": "Point", "coordinates": [9.0646373, 49.1435972]}, "properties": {"id": "osm:way:152872849", "type": "kindergarten", "name": "Städtischer Kindergarten", "source": "OpenStreetMap/Overpass"}}, {"type": "Feature", "geometry": {"type": "Point", "coordinates": [9.0646325, 49.1436564]}, "properties": {"id": "osm:way:152872870", "type": "kindergarten", "name": "Städtischer Kindergarten \"Am Obelisk\"", "source": "OpenStreetMap/Overpass"}}, {"type": "Feature", "geometry": {"type": "Point", "coordinates": [9.1743616, 49.1611794]}, "properties": {"id": "osm:way:156493862", "type": "kindergarten", "name": "Kindergarten im Ried", "source": "OpenStreetMap/Overpass"}}, {"type": "Feature", "geometry": {"type": "Point", "coordinates": [9.2071476, 49.1404467]}, "properties": {"id": "osm:way:157019851", "type": "school", "name": "Gustav-von-Schmoller-Schule", "source": "OpenStreetMap/Overpass"}}, {"type": "Feature", "geometry": {"type": "Point", "coordinates": [9.2071648, 49.1396423]}, "properties": {"id": "osm:way:157019855", "type": "school", "name": "Helene-Lange-Schule", "source": "OpenStreetMap/Overpass"}}, {"type": "Feature", "geometry": {"type": "Point", "coordinates": [9.1988591, 49.1680676]}, "properties": {"id": "osm:way:157165156", "type": "school", "name": "Leinbachschule", "source": "OpenStreetMap/Overpass"}}, {"type": "Feature", "geometry": {"type": "Point", "coordinates": [9.0528861, 49.1409532]}, "properties": {"id": "osm:way:169610417", "type": "kindergarten", "name": "Städt. Kindergarten 'Zeppelin'", "source": "OpenStreetMap/Overpass"}}, {"type": "Feature", "geometry": {"type": "Point", "coordinates": [9.1025572, 49.1011571]}, "properties": {"id": "osm:way:185674349", "type": "school", "name": "Grundschule Nordhausen", "source": "OpenStreetMap/Overpass"}}, {"type": "Feature", "geometry": {"type": "Point", "coordinates": [9.1054996, 49.1045156]}, "properties": {"id": "osm:way:186356509", "type": "kindergarten", "name": "Kindergarten Rappelkiste", "source": "OpenStreetMap/Overpass"}}, {"type": "Feature", "geometry": {"type": "Point", "coordinates": [9.2348472, 49.1471402]}, "properties": {"id": "osm:way:186959954", "type": "kindergarten", "name": "Evangelischer Wilhelm-Busch-Kindergarten", "source": "OpenStreetMap/Overpass"}}, {"type": "Feature", "geometry": {"type": "Point", "coordinates": [9.238986, 49.1399538]}, "properties": {"id": "osm:way:186959955", "type": "kindergarten", "name": "Städtische Kindertagesstätte Bismarckstraße 108", "source": "OpenStreetMap/Overpass"}}, {"type": "Feature", "geometry": {"type": "Point", "coordinates": [9.1259295, 49.1071507]}, "properties": {"id": "osm:way:187709551", "type": "kindergarten", "name": "Kinderhaus Pusteblume", "source": "OpenStreetMap/Overpass"}}, {"type": "Feature", "geometry": {"type": "Point", "coordinates": [9.1333485, 49.1053742]}, "properties": {"id": "osm:way:188605783", "type": "school", "name": "Kurt-von-Marval-Schule", "source": "OpenStreetMap/Overpass"}}, {"type": "Feature", "geometry": {"type": "Point", "coordinates": [9.1408606, 49.1104469]}, "properties": {"id": "osm:way:189116942", "type": "kindergarten", "name": "Kindergarten Auf dem Weihen", "source": "OpenStreetMap/Overpass"}}, {"type": "Feature", "geometry": {"type": "Point", "coordinates": [9.1296974, 49.1094878]}, "properties": {"id": "osm:way:189756731", "type": "kindergarten", "name": "Kindergarten Hofstatt", "source": "OpenStreetMap/Overpass"}}, {"type": "Feature", "geometry": {"type": "Point", "coordinates": [9.0582297, 49.2098172]}, "properties": {"id": "osm:way:190659036", "type": "kindergarten", "name": "Städtischer Kindergarten Fürfeld", "source": "OpenStreetMap/Overpass"}}, {"type": "Feature", "geometry": {"type": "Point", "coordinates": [9.1932225, 49.1545259]}, "properties": {"id": "osm:way:199624090", "type": "kindergarten", "name": "Kita Gesundbrunnen", "source": "OpenStreetMap/Overpass"}}, {"type": "Feature", "geometry": {"type": "Point", "coordinates": [9.0553915, 49.1456986]}, "properties": {"id": "osm:way:205671671", "type": "school", "name": "Sonnenbergschule", "source": "OpenStreetMap/Overpass"}}, {"type": "Feature", "geometry": {"type": "Point", "coordinates": [9.2280957, 49.1420478]}, "properties": {"id": "osm:way:218038995", "type": "school", "name": "Mönchsee-Gymnasium", "source": "OpenStreetMap/Overpass"}}, {"type": "Feature", "geometry": {"type": "Point", "coordinates": [9.2261239, 49.1247473]}, "properties": {"id": "osm:way:220348268", "type": "kindergarten", "name": "Kindertagesstätte Herbert-Hoover-Straße", "source": "OpenStreetMap/Overpass"}}, {"type": "Feature", "geometry": {"type": "Point", "coordinates": [9.2153577, 49.1042919]}, "properties": {"id": "osm:way:220583282", "type": "kindergarten", "name": "Kindergarten Sommerhöhe", "source": "OpenStreetMap/Overpass"}}, {"type": "Feature", "geometry": {"type": "Point", "coordinates": [9.2183032, 49.1041986]}, "properties": {"id": "osm:way:220797297", "type": "kindergarten", "name": "Kindergarten K17", "source": "OpenStreetMap/Overpass"}}, {"type": "Feature", "geometry": {"type": "Point", "coordinates": [9.2124799, 49.1024266]}, "properties": {"id": "osm:way:223921502", "type": "kindergarten", "name": "Bürgerstiftung Kindergarten Hofwiesen", "source": "OpenStreetMap/Overpass"}}, {"type": "Feature", "geometry": {"type": "Point", "coordinates": [9.2712091, 49.0938496]}, "properties": {"id": "osm:way:236964518", "type": "kindergarten", "name": "Kindertagesstätte Falkenstraße", "source": "OpenStreetMap/Overpass"}}, {"type": "Feature", "geometry": {"type": "Point", "coordinates": [9.1115156, 49.1841021]}, "properties": {"id": "osm:way:247167802", "type": "kindergarten", "name": "Kindergarten Poststraße", "source": "OpenStreetMap/Overpass"}}, {"type": "Feature", "geometry": {"type": "Point", "coordinates": [9.2436002, 49.1794563]}, "properties": {"id": "osm:way:258170038", "type": "school", "name": "Josef-Schwarz-Schule", "source": "OpenStreetMap/Overpass"}}, {"type": "Feature", "geometry": {"type": "Point", "coordinates": [9.2423391, 49.1785643]}, "properties": {"id": "osm:way:258733616", "type": "kindergarten", "name": "Kindertagesstätte \"Schatzinsel\"", "source": "OpenStreetMap/Overpass"}}, {"type": "Feature", "geometry": {"type": "Point", "coordinates": [9.2059692, 49.1407178]}, "properties": {"id": "osm:way:264573150", "type": "school", "name": "Fachschule für Landwirtschaft", "source": "OpenStreetMap/Overpass"}}, {"type": "Feature", "geometry": {"type": "Point", "coordinates": [9.2059722, 49.1400286]}, "properties": {"id": "osm:way:264573151", "type": "school", "name": "Hermann-Herzog-Schule", "source": "OpenStreetMap/Overpass"}}, {"type": "Feature", "geometry": {"type": "Point", "coordinates": [9.2047313, 49.1394687]}, "properties": {"id": "osm:way:264573152", "type": "school", "name": "Peter-Bruckmann-Schule", "source": "OpenStreetMap/Overpass"}}, {"type": "Feature", "geometry": {"type": "Point", "coordinates": [9.2157253, 49.136123]}, "properties": {"id": "osm:way:264573153", "type": "school", "name": "Rosenauschule", "source": "OpenStreetMap/Overpass"}}, {"type": "Feature", "geometry": {"type": "Point", "coordinates": [9.2004566, 49.1265793]}, "properties": {"id": "osm:way:270386920", "type": "kindergarten", "name": "ARKUS Kinderhaus Wertwiesen", "source": "OpenStreetMap/Overpass"}}, {"type": "Feature", "geometry": {"type": "Point", "coordinates": [9.2196638, 49.1861921]}, "properties": {"id": "osm:way:292290839", "type": "kindergarten", "name": "Städtische KiTa Salinenstraße", "source": "OpenStreetMap/Overpass"}}, {"type": "Feature", "geometry": {"type": "Point", "coordinates": [9.0478844, 49.1428891]}, "properties": {"id": "osm:way:311289639", "type": "school", "name": "Leintalschule", "source": "OpenStreetMap/Overpass"}}, {"type": "Feature", "geometry": {"type": "Point", "coordinates": [9.0608811, 49.1409102]}, "properties": {"id": "osm:way:311289645", "type": "kindergarten", "name": "Städischer Kindergarten", "source": "OpenStreetMap/Overpass"}}, {"type": "Feature", "geometry": {"type": "Point", "coordinates": [9.06528, 49.1640167]}, "properties": {"id": "osm:way:312273249", "type": "school", "name": "Grundschule Massenbach", "source": "OpenStreetMap/Overpass"}}, {"type": "Feature", "geometry": {"type": "Point", "coordinates": [9.1993048, 49.1025023]}, "properties": {"id": "osm:way:312449277", "type": "school", "name": "Freie Johannesschulen Flein", "source": "OpenStreetMap/Overpass"}}, {"type": "Feature", "geometry": {"type": "Point", "coordinates": [9.212357, 49.0993211]}, "properties": {"id": "osm:way:312449348", "type": "school", "name": "St. Veit Schule", "source": "OpenStreetMap/Overpass"}}, {"type": "Feature", "geometry": {"type": "Point", "coordinates": [9.2177147, 49.1252777]}, "properties": {"id": "osm:way:321513696", "type": "kindergarten", "name": "John-F.-Kennedy-Kindergarten", "source": "OpenStreetMap/Overpass"}}, {"type": "Feature", "geometry": {"type": "Point", "coordinates": [9.2315201, 49.1852538]}, "properties": {"id": "osm:way:323031961", "type": "kindergarten", "name": "KiTa Gerokweg", "source": "OpenStreetMap/Overpass"}}, {"type": "Feature", "geometry": {"type": "Point", "coordinates": [9.2992292, 49.2101058]}, "properties": {"id": "osm:way:323033570", "type": "school", "name": "Grundschule Dahenfeld", "source": "OpenStreetMap/Overpass"}}, {"type": "Feature", "geometry": {"type": "Point", "coordinates": [9.2043466, 49.1405055]}, "properties": {"id": "osm:way:327107927", "type": "school", "name": "Akademie für Kommunikation Heilbronn", "source": "OpenStreetMap/Overpass"}}, {"type": "Feature", "geometry": {"type": "Point", "coordinates": [9.1698312, 49.115519]}, "properties": {"id": "osm:way:330053378", "type": "school", "name": "Grundschule Horkheim", "source": "OpenStreetMap/Overpass"}}, {"type": "Feature", "geometry": {"type": "Point", "coordinates": [9.126978, 49.1092011]}, "properties": {"id": "osm:way:332036341", "type": "kindergarten", "name": "Kindergarten Regenbogen", "source": "OpenStreetMap/Overpass"}}, {"type": "Feature", "geometry": {"type": "Point", "coordinates": [9.1758299, 49.1147759]}, "properties": {"id": "osm:way:360134302", "type": "kindergarten", "name": "Kindertagesstätte Lotte Lemke", "source": "OpenStreetMap/Overpass"}}, {"type": "Feature", "geometry": {"type": "Point", "coordinates": [9.21053, 49.1390952]}, "properties": {"id": "osm:way:416233784", "type": "kindergarten", "name": "Kindergartenstätte Neckarburg", "source": "OpenStreetMap/Overpass"}}, {"type": "Feature", "geometry": {"type": "Point", "coordinates": [9.2050809, 49.1021533]}, "properties": {"id": "osm:way:465155472", "type": "kindergarten", "name": "Martin-Maier-Kita", "source": "OpenStreetMap/Overpass"}}, {"type": "Feature", "geometry": {"type": "Point", "coordinates": [9.1095977, 49.1805272]}, "properties": {"id": "osm:way:508987093", "type": "kindergarten", "name": "St. Franziskus", "source": "OpenStreetMap/Overpass"}}, {"type": "Feature", "geometry": {"type": "Point", "coordinates": [9.1882399, 49.1414307]}, "properties": {"id": "osm:way:584473670", "type": "kindergarten", "name": "Kindergarten Blumenstraße", "source": "OpenStreetMap/Overpass"}}, {"type": "Feature", "geometry": {"type": "Point", "coordinates": [9.1254096, 49.1071398]}, "properties": {"id": "osm:way:591349151", "type": "childcare", "name": "Krippenhaus Vogelnest", "source": "OpenStreetMap/Overpass"}}, {"type": "Feature", "geometry": {"type": "Point", "coordinates": [9.1551604, 49.1221316]}, "properties": {"id": "osm:way:668199916", "type": "kindergarten", "name": "Kindergarten Regenbogen", "source": "OpenStreetMap/Overpass"}}, {"type": "Feature", "geometry": {"type": "Point", "coordinates": [9.1900709, 49.1344285]}, "properties": {"id": "osm:way:669322082", "type": "kindergarten", "name": "St. Kilian", "source": "OpenStreetMap/Overpass"}}, {"type": "Feature", "geometry": {"type": "Point", "coordinates": [9.1893571, 49.1298699]}, "properties": {"id": "osm:way:669322083", "type": "kindergarten", "name": "Evang. Petrus-Kindergarten", "source": "OpenStreetMap/Overpass"}}, {"type": "Feature", "geometry": {"type": "Point", "coordinates": [9.2089734, 49.1485495]}, "properties": {"id": "osm:way:682435183", "type": "kindergarten", "name": "Kita Neckarbogen", "source": "OpenStreetMap/Overpass"}}, {"type": "Feature", "geometry": {"type": "Point", "coordinates": [9.2340387, 49.1887004]}, "properties": {"id": "osm:way:695496975", "type": "childcare", "name": "Kita Am Stadtpark", "source": "OpenStreetMap/Overpass"}}, {"type": "Feature", "geometry": {"type": "Point", "coordinates": [9.2394576, 49.186265]}, "properties": {"id": "osm:way:698102724", "type": "childcare", "name": "Kindergarten Pichterichstraße", "source": "OpenStreetMap/Overpass"}}, {"type": "Feature", "geometry": {"type": "Point", "coordinates": [9.2979455, 49.1492493]}, "properties": {"id": "osm:way:714367029", "type": "kindergarten", "name": "Kindertagesstätte Zauberberg", "source": "OpenStreetMap/Overpass"}}, {"type": "Feature", "geometry": {"type": "Point", "coordinates": [9.2182085, 49.1365702]}, "properties": {"id": "osm:way:716664683", "type": "kindergarten", "name": "Evangelischer Kindergarten Rosenau", "source": "OpenStreetMap/Overpass"}}, {"type": "Feature", "geometry": {"type": "Point", "coordinates": [9.2084856, 49.1245943]}, "properties": {"id": "osm:way:742174045", "type": "kindergarten", "name": "Anne-Frank-Kita", "source": "OpenStreetMap/Overpass"}}, {"type": "Feature", "geometry": {"type": "Point", "coordinates": [9.1841609, 49.1274471]}, "properties": {"id": "osm:way:799376270", "type": "kindergarten", "name": "Städtischer Kindergarten Hofstattstraße", "source": "OpenStreetMap/Overpass"}}, {"type": "Feature", "geometry": {"type": "Point", "coordinates": [9.2131029, 49.0992263]}, "properties": {"id": "osm:way:879614023", "type": "kindergarten", "name": "Kita Schulstraße", "source": "OpenStreetMap/Overpass"}}, {"type": "Feature", "geometry": {"type": "Point", "coordinates": [9.1710721, 49.1133299]}, "properties": {"id": "osm:way:885811992", "type": "kindergarten", "name": "Kindergarten Nussäckerstraße", "source": "OpenStreetMap/Overpass"}}, {"type": "Feature", "geometry": {"type": "Point", "coordinates": [9.1867322, 49.1492765]}, "properties": {"id": "osm:way:895566284", "type": "kindergarten", "name": "Katholischer Kindergarten Heilig Kreuz", "source": "OpenStreetMap/Overpass"}}, {"type": "Feature", "geometry": {"type": "Point", "coordinates": [9.1892221, 49.1474542]}, "properties": {"id": "osm:way:1072999839", "type": "kindergarten", "name": "Evang. Kindergarten Kreuzgrund", "source": "OpenStreetMap/Overpass"}}, {"type": "Feature", "geometry": {"type": "Point", "coordinates": [9.2167479, 49.1485309]}, "properties": {"id": "osm:way:1076604867", "type": "kindergarten", "name": "", "source": "OpenStreetMap/Overpass"}}, {"type": "Feature", "geometry": {"type": "Point", "coordinates": [9.2376163, 49.1425955]}, "properties": {"id": "osm:way:1109958681", "type": "school", "name": "Grundschule am Pfühlpark", "source": "OpenStreetMap/Overpass"}}, {"type": "Feature", "geometry": {"type": "Point", "coordinates": [9.1896981, 49.1474333]}, "properties": {"id": "osm:way:1119639916", "type": "kindergarten", "name": "Evang. Kindertagesstätte Kreuzgrund II", "source": "OpenStreetMap/Overpass"}}, {"type": "Feature", "geometry": {"type": "Point", "coordinates": [9.2028293, 49.1994991]}, "properties": {"id": "osm:way:1119846558", "type": "kindergarten", "name": "Kindergarten Auf der Breit", "source": "OpenStreetMap/Overpass"}}, {"type": "Feature", "geometry": {"type": "Point", "coordinates": [9.1100944, 49.1334057]}, "properties": {"id": "osm:way:1180688465", "type": "kindergarten", "name": "Waldkindergarten", "source": "OpenStreetMap/Overpass"}}, {"type": "Feature", "geometry": {"type": "Point", "coordinates": [9.1851213, 49.1494255]}, "properties": {"id": "osm:way:1192343356", "type": "kindergarten", "name": "Kindertagesstätte Kreuzgrund", "source": "OpenStreetMap/Overpass"}}, {"type": "Feature", "geometry": {"type": "Point", "coordinates": [9.1795763, 49.143698]}, "properties": {"id": "osm:way:1192343357", "type": "kindergarten", "name": "Evang. Kindertagesstätte Schanz", "source": "OpenStreetMap/Overpass"}}, {"type": "Feature", "geometry": {"type": "Point", "coordinates": [9.1900598, 49.1325695]}, "properties": {"id": "osm:way:1192343358", "type": "kindergarten", "name": "Evang. Paulus-Kindergarten", "source": "OpenStreetMap/Overpass"}}, {"type": "Feature", "geometry": {"type": "Point", "coordinates": [9.1875563, 49.1428056]}, "properties": {"id": "osm:way:1192349148", "type": "kindergarten", "name": "Evang. Kindergarten Sonnenberg", "source": "OpenStreetMap/Overpass"}}, {"type": "Feature", "geometry": {"type": "Point", "coordinates": [9.2109264, 49.1259922]}, "properties": {"id": "osm:way:1224701523", "type": "kindergarten", "name": "Meseno-Kinderhaus", "source": "OpenStreetMap/Overpass"}}, {"type": "Feature", "geometry": {"type": "Point", "coordinates": [9.2446535, 49.1351443]}, "properties": {"id": "osm:way:1229183580", "type": "kindergarten", "name": "Kinderarche", "source": "OpenStreetMap/Overpass"}}, {"type": "Feature", "geometry": {"type": "Point", "coordinates": [9.1134683, 49.1856117]}, "properties": {"id": "osm:way:1240628731", "type": "school", "name": "Deutschorden Grundschule", "source": "OpenStreetMap/Overpass"}}, {"type": "Feature", "geometry": {"type": "Point", "coordinates": [9.1777877, 49.1645825]}, "properties": {"id": "osm:way:1241004271", "type": "kindergarten", "name": "", "source": "OpenStreetMap/Overpass"}}, {"type": "Feature", "geometry": {"type": "Point", "coordinates": [9.0488717, 49.1447738]}, "properties": {"id": "osm:way:1282126793", "type": "kindergarten", "name": "KiTa Rasselbande", "source": "OpenStreetMap/Overpass"}}, {"type": "Feature", "geometry": {"type": "Point", "coordinates": [9.2331306, 49.1898808]}, "properties": {"id": "osm:way:1306897351", "type": "school", "name": "Franz-Binder-Verbundschule", "source": "OpenStreetMap/Overpass"}}, {"type": "Feature", "geometry": {"type": "Point", "coordinates": [9.0466915, 49.1047385]}, "properties": {"id": "osm:way:1360070427", "type": "kindergarten", "name": "", "source": "OpenStreetMap/Overpass"}}, {"type": "Feature", "geometry": {"type": "Point", "coordinates": [9.1871091, 49.1690493]}, "properties": {"id": "osm:way:1455878885", "type": "kindergarten", "name": "Kindergarten Bernhäusle", "source": "OpenStreetMap/Overpass"}}]}
