{"type": "FeatureCollection", "features": [{"type": "Feature", "geometry": {"type": "Point", "coordinates": [7.6536866, 51.9735282]}, "properties": {"id": "osm:node:129974589", "type": "school", "name": "Erich Kästner-Schule", "source": "OpenStreetMap/Overpass"}}, {"type": "Feature", "geometry": {"type": "Point", "coordinates": [7.7684571, 52.0043207]}, "properties": {"id": "osm:node:260570028", "type": "school", "name": "Schulbauernhof Emshof", "source": "OpenStreetMap/Overpass"}}, {"type": "Feature", "geometry": {"type": "Point", "coordinates": [7.6457748, 51.9065726]}, "properties": {"id": "osm:node:271358633", "type": "school", "name": "Paul-Gerhardt-Schule", "source": "OpenStreetMap/Overpass"}}, {"type": "Feature", "geometry": {"type": "Point", "coordinates": [7.64666, 51.9064998]}, "properties": {"id": "osm:node:271358634", "type": "school", "name": "Clemensschule", "source": "OpenStreetMap/Overpass"}}, {"type": "Feature", "geometry": {"type": "Point", "coordinates": [7.4805847, 51.8620318]}, "properties": {"id": "osm:node:297300510", "type": "kindergarten", "name": "Erlengrund", "source": "OpenStreetMap/Overpass"}}, {"type": "Feature", "geometry": {"type": "Point", "coordinates": [7.7187826, 51.9148301]}, "properties": {"id": "osm:node:334323747", "type": "school", "name": "Realschule Wolbeck", "source": "OpenStreetMap/Overpass"}}, {"type": "Feature", "geometry": {"type": "Point", "coordinates": [7.6187698, 52.0083161]}, "properties": {"id": "osm:node:348178159", "type": "kindergarten", "name": "Kita \"Die Minis\" e. V.", "source": "OpenStreetMap/Overpass"}}, {"type": "Feature", "geometry": {"type": "Point", "coordinates": [7.6319094, 52.0174714]}, "properties": {"id": "osm:node:348180267", "type": "kindergarten", "name": "KITA Bergmannshof", "source": "OpenStreetMap/Overpass"}}, {"type": "Feature", "geometry": {"type": "Point", "coordinates": [7.6239902, 51.9472011]}, "properties": {"id": "osm:node:385481812", "type": "childcare", "name": "Kuckucksnest", "source": "OpenStreetMap/Overpass"}}, {"type": "Feature", "geometry": {"type": "Point", "coordinates": [7.6673475, 51.9072073]}, "properties": {"id": "osm:node:503584788", "type": "kindergarten", "name": "Kindergarten St. Marien", "source": "OpenStreetMap/Overpass"}}, {"type": "Feature", "geometry": {"type": "Point", "coordinates": [7.6054143, 51.9987721]}, "properties": {"id": "osm:node:659287041", "type": "school", "name": "Grundschule am Kinderbach", "source": "OpenStreetMap/Overpass"}}, {"type": "Feature", "geometry": {"type": "Point", "coordinates": [7.6043523, 51.9980142]}, "properties": {"id": "osm:node:659287043", "type": "school", "name": "Geschwister-Scholl-Realschule", "source": "OpenStreetMap/Overpass"}}, {"type": "Feature", "geometry": {"type": "Point", "coordinates": [7.5316251, 51.9550668]}, "properties": {"id": "osm:node:659352632", "type": "school", "name": "Marienschule", "source": "OpenStreetMap/Overpass"}}, {"type": "Feature", "geometry": {"type": "Point", "coordinates": [7.6385276, 51.9560119]}, "properties": {"id": "osm:node:659548675", "type": "school", "name": "Montessori-Schule Münster", "source": "OpenStreetMap/Overpass"}}, {"type": "Feature", "geometry": {"type": "Point", "coordinates": [7.7189504, 51.9144068]}, "properties": {"id": "osm:node:659997280", "type": "school", "name": "Hauptschule Wolbeck", "source": "OpenStreetMap/Overpass"}}, {"type": "Feature", "geometry": {"type": "Point", "coordinates": [7.7202582, 51.9146987]}, "properties": {"id": "osm:node:659997281", "type": "school", "name": "Gymnasium Wolbeck", "source": "OpenStreetMap/Overpass"}}, {"type": "Feature", "geometry": {"type": "Point", "coordinates": [7.5290763, 51.9545162]}, "properties": {"id": "osm:node:736192504", "type": "school", "name": "Gesamtschule Münster West", "source": "OpenStreetMap/Overpass"}}, {"type": "Feature", "geometry": {"type": "Point", "coordinates": [7.6203812, 51.9389787]}, "properties": {"id": "osm:node:1170144298", "type": "kindergarten", "name": "Paladu", "source": "OpenStreetMap/Overpass"}}, {"type": "Feature", "geometry": {"type": "Point", "coordinates": [7.6044489, 51.9985559]}, "properties": {"id": "osm:node:1260539413", "type": "school", "name": "Geschwister-Scholl-Gymnasium", "source": "OpenStreetMap/Overpass"}}, {"type": "Feature", "geometry": {"type": "Point", "coordinates": [7.6153031, 51.9575606]}, "properties": {"id": "osm:node:1361503705", "type": "school", "name": "Yachtschule Overschmidt", "source": "OpenStreetMap/Overpass"}}, {"type": "Feature", "geometry": {"type": "Point", "coordinates": [7.6125268, 51.9759563]}, "properties": {"id": "osm:node:1557280012", "type": "kindergarten", "name": "Die kleinen Strolche", "source": "OpenStreetMap/Overpass"}}, {"type": "Feature", "geometry": {"type": "Point", "coordinates": [7.6003211, 51.9608118]}, "properties": {"id": "osm:node:1680015575", "type": "school", "name": "Schule für Physiotherapie", "source": "OpenStreetMap/Overpass"}}, {"type": "Feature", "geometry": {"type": "Point", "coordinates": [7.6182584, 51.955973]}, "properties": {"id": "osm:node:1732820869", "type": "kindergarten", "name": "Zwergenstübchen", "source": "OpenStreetMap/Overpass"}}, {"type": "Feature", "geometry": {"type": "Point", "coordinates": [7.6013278, 51.9594814]}, "properties": {"id": "osm:node:2122605157", "type": "school", "name": "Klinik für Allgemein- und Viszeralchirurgie", "source": "OpenStreetMap/Overpass"}}, {"type": "Feature", "geometry": {"type": "Point", "coordinates": [7.6305317, 51.9636327]}, "properties": {"id": "osm:node:2255868263", "type": "kindergarten", "name": "Kindergarten St. Lamberti", "source": "OpenStreetMap/Overpass"}}, {"type": "Feature", "geometry": {"type": "Point", "coordinates": [7.597279, 51.9617726]}, "properties": {"id": "osm:node:2592905317", "type": "school", "name": "Institut für Ausbildung und Studienangelegenheiten", "source": "OpenStreetMap/Overpass"}}, {"type": "Feature", "geometry": {"type": "Point", "coordinates": [7.563476, 51.9666979]}, "properties": {"id": "osm:node:2949401862", "type": "school", "name": "Lernstudio Gievenbeck", "source": "OpenStreetMap/Overpass"}}, {"type": "Feature", "geometry": {"type": "Point", "coordinates": [7.6145049, 51.971339]}, "properties": {"id": "osm:node:3280763629", "type": "kindergarten", "name": "Zwergenstube", "source": "OpenStreetMap/Overpass"}}, {"type": "Feature", "geometry": {"type": "Point", "coordinates": [7.6593723, 51.9668851]}, "properties": {"id": "osm:node:3465010822", "type": "childcare", "name": "Filou", "source": "OpenStreetMap/Overpass"}}, {"type": "Feature", "geometry": {"type": "Point", "coordinates": [7.6328757, 51.9567201]}, "properties": {"id": "osm:node:4161646189", "type": "school", "name": "Euro Study/ Dolmetscher Institut", "source": "OpenStreetMap/Overpass"}}, {"type": "Feature", "geometry": {"type": "Point", "coordinates": [7.623106, 51.9435466]}, "properties": {"id": "osm:node:4280120091", "type": "childcare", "name": "Kita Süd e.V.", "source": "OpenStreetMap/Overpass"}}, {"type": "Feature", "geometry": {"type": "Point", "coordinates": [7.6172644, 51.9496331]}, "properties": {"id": "osm:node:4376806782", "type": "school", "name": "Tetragon Repetitorien", "source": "OpenStreetMap/Overpass"}}, {"type": "Feature", "geometry": {"type": "Point", "coordinates": [7.6280053, 51.9552063]}, "properties": {"id": "osm:node:4613235543", "type": "kindergarten", "name": "Rappelkiste", "source": "OpenStreetMap/Overpass"}}, {"type": "Feature", "geometry": {"type": "Point", "coordinates": [7.608033, 51.9736472]}, "properties": {"id": "osm:node:6646303015", "type": "kindergarten", "name": "Kita Die Maulwürfe", "source": "OpenStreetMap/Overpass"}}, {"type": "Feature", "geometry": {"type": "Point", "coordinates": [7.6538189, 51.9926227]}, "properties": {"id": "osm:node:6848169981", "type": "kindergarten", "name": "Städtische Kindertageseinrichtung Am Edelbach", "source": "OpenStreetMap/Overpass"}}, {"type": "Feature", "geometry": {"type": "Point", "coordinates": [7.6465943, 51.9940868]}, "properties": {"id": "osm:node:6848233634", "type": "kindergarten", "name": "Ev. Andreas-Kindergarten", "source": "OpenStreetMap/Overpass"}}, {"type": "Feature", "geometry": {"type": "Point", "coordinates": [7.6495206, 51.9955501]}, "properties": {"id": "osm:node:6848250665", "type": "kindergarten", "name": "Kita St. Norbert", "source": "OpenStreetMap/Overpass"}}, {"type": "Feature", "geometry": {"type": "Point", "coordinates": [7.5699498, 51.974166]}, "properties": {"id": "osm:node:6865756129", "type": "kindergarten", "name": "Kita Hensenstraße", "source": "OpenStreetMap/Overpass"}}, {"type": "Feature", "geometry": {"type": "Point", "coordinates": [7.6156705, 51.9947384]}, "properties": {"id": "osm:node:6872091715", "type": "kindergarten", "name": "Förderschulkindergarten", "source": "OpenStreetMap/Overpass"}}, {"type": "Feature", "geometry": {"type": "Point", "coordinates": [7.5953588, 51.9912841]}, "properties": {"id": "osm:node:6872093107", "type": "kindergarten", "name": "Städtischer Kindergarten Wilkinghege", "source": "OpenStreetMap/Overpass"}}, {"type": "Feature", "geometry": {"type": "Point", "coordinates": [7.6049571, 51.9952318]}, "properties": {"id": "osm:node:6872136972", "type": "kindergarten", "name": "Kita Kinderbachtal", "source": "OpenStreetMap/Overpass"}}, {"type": "Feature", "geometry": {"type": "Point", "coordinates": [7.6046352, 51.9893966]}, "properties": {"id": "osm:node:6872137031", "type": "kindergarten", "name": "Kindergarten Im Moorhock", "source": "OpenStreetMap/Overpass"}}, {"type": "Feature", "geometry": {"type": "Point", "coordinates": [7.5939709, 51.9978287]}, "properties": {"id": "osm:node:6872712248", "type": "kindergarten", "name": "Kindergarten Brüningheide", "source": "OpenStreetMap/Overpass"}}, {"type": "Feature", "geometry": {"type": "Point", "coordinates": [7.681054, 51.9862842]}, "properties": {"id": "osm:node:6875176778", "type": "kindergarten", "name": "Kita", "source": "OpenStreetMap/Overpass"}}, {"type": "Feature", "geometry": {"type": "Point", "coordinates": [7.6418884, 51.9567008]}, "properties": {"id": "osm:node:7085162227", "type": "kindergarten", "name": "Die Piepmätze", "source": "OpenStreetMap/Overpass"}}, {"type": "Feature", "geometry": {"type": "Point", "coordinates": [7.6417114, 51.9567743]}, "properties": {"id": "osm:node:7085162228", "type": "kindergarten", "name": "Hansa-Kids", "source": "OpenStreetMap/Overpass"}}, {"type": "Feature", "geometry": {"type": "Point", "coordinates": [7.6453382, 51.9055271]}, "properties": {"id": "osm:node:8002455838", "type": "childcare", "name": "Städtische KiTa Wielerort, Dependance Kardinalstraße", "source": "OpenStreetMap/Overpass"}}, {"type": "Feature", "geometry": {"type": "Point", "coordinates": [7.6503213, 51.9778376]}, "properties": {"id": "osm:node:8296220394", "type": "kindergarten", "name": "FRÖBEL-Kindergarten Am Emmy-Herzog-Platz", "source": "OpenStreetMap/Overpass"}}, {"type": "Feature", "geometry": {"type": "Point", "coordinates": [7.4836109, 52.0506093]}, "properties": {"id": "osm:node:8407849639", "type": "childcare", "name": "Kita Zappelkiste", "source": "OpenStreetMap/Overpass"}}, {"type": "Feature", "geometry": {"type": "Point", "coordinates": [7.6306541, 51.9561711]}, "properties": {"id": "osm:node:8691602103", "type": "school", "name": "IPP Münster - Institut für Psychologische Psychotherapieausbildung", "source": "OpenStreetMap/Overpass"}}, {"type": "Feature", "geometry": {"type": "Point", "coordinates": [7.6226074, 51.9141215]}, "properties": {"id": "osm:node:8761195802", "type": "kindergarten", "name": "Kindergruppe Feldmäuse", "source": "OpenStreetMap/Overpass"}}, {"type": "Feature", "geometry": {"type": "Point", "coordinates": [7.5328096, 51.9540556]}, "properties": {"id": "osm:node:9026262499", "type": "kindergarten", "name": "Kita St. Pantaleon", "source": "OpenStreetMap/Overpass"}}, {"type": "Feature", "geometry": {"type": "Point", "coordinates": [7.5351043, 51.9530353]}, "properties": {"id": "osm:node:9029372769", "type": "childcare", "name": "Kita St. Ursula", "source": "OpenStreetMap/Overpass"}}, {"type": "Feature", "geometry": {"type": "Point", "coordinates": [7.5308005, 51.9548402]}, "properties": {"id": "osm:node:9029792035", "type": "kindergarten", "name": "Auf dem Dorn", "source": "OpenStreetMap/Overpass"}}, {"type": "Feature", "geometry": {"type": "Point", "coordinates": [7.6540274, 51.9727672]}, "properties": {"id": "osm:node:9825492357", "type": "school", "name": "Pötterhoekschule", "source": "OpenStreetMap/Overpass"}}, {"type": "Feature", "geometry": {"type": "Point", "coordinates": [7.6380344, 51.9922017]}, "properties": {"id": "osm:node:9907759424", "type": "kindergarten", "name": "Kindertageseinrichtung Kiesekampweg", "source": "OpenStreetMap/Overpass"}}, {"type": "Feature", "geometry": {"type": "Point", "coordinates": [7.7051909, 51.9898728]}, "properties": {"id": "osm:node:10034982309", "type": "kindergarten", "name": "Kita Eichenaue, Heriburgstraße", "source": "OpenStreetMap/Overpass"}}, {"type": "Feature", "geometry": {"type": "Point", "coordinates": [7.6301926, 51.9662743]}, "properties": {"id": "osm:node:11016190659", "type": "kindergarten", "name": "Kindertagesstätte St. Martini", "source": "OpenStreetMap/Overpass"}}, {"type": "Feature", "geometry": {"type": "Point", "coordinates": [7.6550514, 51.9357971]}, "properties": {"id": "osm:node:11589673871", "type": "school", "name": "Bechtle Schulungszentrum", "source": "OpenStreetMap/Overpass"}}, {"type": "Feature", "geometry": {"type": "Point", "coordinates": [7.6560372, 51.9667149]}, "properties": {"id": "osm:node:11991958391", "type": "kindergarten", "name": "Kindergroßtagespflege Baumhäuschen", "source": "OpenStreetMap/Overpass"}}, {"type": "Feature", "geometry": {"type": "Point", "coordinates": [7.6235378, 51.9602409]}, "properties": {"id": "osm:node:12195211034", "type": "school", "name": "VHS Münster", "source": "OpenStreetMap/Overpass"}}, {"type": "Feature", "geometry": {"type": "Point", "coordinates": [7.5731488, 51.9622154]}, "properties": {"id": "osm:node:13095059924", "type": "kindergarten", "name": "Fröbel", "source": "OpenStreetMap/Overpass"}}, {"type": "Feature", "geometry": {"type": "Point", "coordinates": [7.6440112, 51.953391]}, "properties": {"id": "osm:node:13296631536", "type": "kindergarten", "name": "Hafenpinguine", "source": "OpenStreetMap/Overpass"}}, {"type": "Feature", "geometry": {"type": "Point", "coordinates": [7.677969, 51.993154]}, "properties": {"id": "osm:node:13698293594", "type": "kindergarten", "name": "St. Mariä Himmelfahrt", "source": "OpenStreetMap/Overpass"}}, {"type": "Feature", "geometry": {"type": "Point", "coordinates": [7.6309147, 51.9495274]}, "properties": {"id": "osm:node:13992763962", "type": "kindergarten", "name": "Kita Kolibri", "source": "OpenStreetMap/Overpass"}}, {"type": "Feature", "geometry": {"type": "Point", "coordinates": [7.6458113, 51.9932238]}, "properties": {"id": "osm:way:10221148", "type": "school", "name": "Melanchthonschule", "source": "OpenStreetMap/Overpass"}}, {"type": "Feature", "geometry": {"type": "Point", "coordinates": [7.6478, 51.9964429]}, "properties": {"id": "osm:way:10237371", "type": "school", "name": "Hauptschule Coerde", "source": "OpenStreetMap/Overpass"}}, {"type": "Feature", "geometry": {"type": "Point", "coordinates": [7.4884429, 51.8612107]}, "properties": {"id": "osm:way:27627912", "type": "school", "name": "Dietrich-Bonhoeffer-Schule", "source": "OpenStreetMap/Overpass"}}, {"type": "Feature", "geometry": {"type": "Point", "coordinates": [7.4794332, 51.9169477]}, "properties": {"id": "osm:way:28787029", "type": "school", "name": "Gemeinschaftgrundschule", "source": "OpenStreetMap/Overpass"}}, {"type": "Feature", "geometry": {"type": "Point", "coordinates": [7.4791742, 51.9173016]}, "properties": {"id": "osm:way:28787496", "type": "kindergarten", "name": "Kindergarten St. Johannes", "source": "OpenStreetMap/Overpass"}}, {"type": "Feature", "geometry": {"type": "Point", "coordinates": [7.5923996, 51.9367787]}, "properties": {"id": "osm:way:29729639", "type": "school", "name": "Friedensschule", "source": "OpenStreetMap/Overpass"}}, {"type": "Feature", "geometry": {"type": "Point", "coordinates": [7.6191572, 51.9949322]}, "properties": {"id": "osm:way:38182309", "type": "school", "name": "Münsterlandschule", "source": "OpenStreetMap/Overpass"}}, {"type": "Feature", "geometry": {"type": "Point", "coordinates": [7.6197583, 51.9946295]}, "properties": {"id": "osm:way:38182310", "type": "school", "name": "Münsterlandschule", "source": "OpenStreetMap/Overpass"}}, {"type": "Feature", "geometry": {"type": "Point", "coordinates": [7.6179035, 51.9953149]}, "properties": {"id": "osm:way:38324213", "type": "school", "name": "Irisschule", "source": "OpenStreetMap/Overpass"}}, {"type": "Feature", "geometry": {"type": "Point", "coordinates": [7.6170418, 51.994796]}, "properties": {"id": "osm:way:38324898", "type": "school", "name": "Haus 31", "source": "OpenStreetMap/Overpass"}}, {"type": "Feature", "geometry": {"type": "Point", "coordinates": [7.6170782, 51.9943573]}, "properties": {"id": "osm:way:38324899", "type": "school", "name": "Haus 33", "source": "OpenStreetMap/Overpass"}}, {"type": "Feature", "geometry": {"type": "Point", "coordinates": [7.6188008, 51.9942833]}, "properties": {"id": "osm:way:38677084", "type": "school", "name": "", "source": "OpenStreetMap/Overpass"}}, {"type": "Feature", "geometry": {"type": "Point", "coordinates": [7.6185839, 51.9940661]}, "properties": {"id": "osm:way:38677085", "type": "school", "name": "Regenbogenschule", "source": "OpenStreetMap/Overpass"}}, {"type": "Feature", "geometry": {"type": "Point", "coordinates": [7.6177319, 51.9945057]}, "properties": {"id": "osm:way:38677086", "type": "school", "name": "", "source": "OpenStreetMap/Overpass"}}, {"type": "Feature", "geometry": {"type": "Point", "coordinates": [7.568743, 51.9618926]}, "properties": {"id": "osm:way:40977020", "type": "school", "name": "Freiherr-vom-Stein-Gymnasium", "source": "OpenStreetMap/Overpass"}}, {"type": "Feature", "geometry": {"type": "Point", "coordinates": [7.4885187, 51.8622494]}, "properties": {"id": "osm:way:42052011", "type": "kindergarten", "name": "Katholische Tageseinrichtung für Kinder St. Franziskus", "source": "OpenStreetMap/Overpass"}}, {"type": "Feature", "geometry": {"type": "Point", "coordinates": [7.6269564, 51.9033514]}, "properties": {"id": "osm:way:43961484", "type": "school", "name": "Ludgerusschule", "source": "OpenStreetMap/Overpass"}}, {"type": "Feature", "geometry": {"type": "Point", "coordinates": [7.5618339, 51.967629]}, "properties": {"id": "osm:way:47079881", "type": "kindergarten", "name": "Kindertagesstätte St.Michael 2", "source": "OpenStreetMap/Overpass"}}, {"type": "Feature", "geometry": {"type": "Point", "coordinates": [7.5630306, 51.9683185]}, "properties": {"id": "osm:way:47634039", "type": "kindergarten", "name": "OUTLAW Kita Gronowskistraße", "source": "OpenStreetMap/Overpass"}}, {"type": "Feature", "geometry": {"type": "Point", "coordinates": [7.6408846, 51.9021419]}, "properties": {"id": "osm:way:49834222", "type": "school", "name": "Johannes-Gutenberg-Realschule", "source": "OpenStreetMap/Overpass"}}, {"type": "Feature", "geometry": {"type": "Point", "coordinates": [7.6415821, 51.9014997]}, "properties": {"id": "osm:way:49834224", "type": "school", "name": "Hauptschule Hiltrup", "source": "OpenStreetMap/Overpass"}}, {"type": "Feature", "geometry": {"type": "Point", "coordinates": [7.6426736, 51.900934]}, "properties": {"id": "osm:way:50218536", "type": "school", "name": "Hiltruper Schulzentrum", "source": "OpenStreetMap/Overpass"}}, {"type": "Feature", "geometry": {"type": "Point", "coordinates": [7.6830672, 51.8471526]}, "properties": {"id": "osm:way:51206543", "type": "school", "name": "Grundschule Rinkerode", "source": "OpenStreetMap/Overpass"}}, {"type": "Feature", "geometry": {"type": "Point", "coordinates": [7.6851363, 51.8469229]}, "properties": {"id": "osm:way:51980793", "type": "kindergarten", "name": "Kindergarten St. Pankratius", "source": "OpenStreetMap/Overpass"}}, {"type": "Feature", "geometry": {"type": "Point", "coordinates": [7.5848102, 51.9299386]}, "properties": {"id": "osm:way:55995562", "type": "school", "name": "Heinrich Salzmann Schule", "source": "OpenStreetMap/Overpass"}}, {"type": "Feature", "geometry": {"type": "Point", "coordinates": [7.6844986, 51.842208]}, "properties": {"id": "osm:way:58947876", "type": "kindergarten", "name": "Kindertagesstätte Die kleinen Strolche", "source": "OpenStreetMap/Overpass"}}, {"type": "Feature", "geometry": {"type": "Point", "coordinates": [7.6462174, 51.9061962]}, "properties": {"id": "osm:way:81372829", "type": "school", "name": "kleines Schulzentrum Hiltrup", "source": "OpenStreetMap/Overpass"}}, {"type": "Feature", "geometry": {"type": "Point", "coordinates": [7.5674259, 51.9743838]}, "properties": {"id": "osm:way:81797794", "type": "school", "name": "Wartburg-Grundschule", "source": "OpenStreetMap/Overpass"}}, {"type": "Feature", "geometry": {"type": "Point", "coordinates": [7.5678816, 51.976604]}, "properties": {"id": "osm:way:82227832", "type": "kindergarten", "name": "", "source": "OpenStreetMap/Overpass"}}, {"type": "Feature", "geometry": {"type": "Point", "coordinates": [7.5678193, 51.9766629]}, "properties": {"id": "osm:way:82227833", "type": "kindergarten", "name": "Städtische Kindertagesstätte", "source": "OpenStreetMap/Overpass"}}, {"type": "Feature", "geometry": {"type": "Point", "coordinates": [7.5663862, 51.9683448]}, "properties": {"id": "osm:way:82855436", "type": "kindergarten", "name": "", "source": "OpenStreetMap/Overpass"}}, {"type": "Feature", "geometry": {"type": "Point", "coordinates": [7.5670271, 51.9662141]}, "properties": {"id": "osm:way:83571222", "type": "kindergarten", "name": "", "source": "OpenStreetMap/Overpass"}}, {"type": "Feature", "geometry": {"type": "Point", "coordinates": [7.567527, 51.9655221]}, "properties": {"id": "osm:way:83571234", "type": "school", "name": "Mosaik-Schule", "source": "OpenStreetMap/Overpass"}}, {"type": "Feature", "geometry": {"type": "Point", "coordinates": [7.5668648, 51.9663545]}, "properties": {"id": "osm:way:83571265", "type": "kindergarten", "name": "Kita Lichtblick", "source": "OpenStreetMap/Overpass"}}, {"type": "Feature", "geometry": {"type": "Point", "coordinates": [7.5773628, 51.9672891]}, "properties": {"id": "osm:way:86951392", "type": "kindergarten", "name": "Lukas-Kita", "source": "OpenStreetMap/Overpass"}}, {"type": "Feature", "geometry": {"type": "Point", "coordinates": [7.5690222, 51.9744955]}, "properties": {"id": "osm:way:88702141", "type": "kindergarten", "name": "Städtische Kindertageseinrichtung und Familienzentrum Am Gievenbach", "source": "OpenStreetMap/Overpass"}}, {"type": "Feature", "geometry": {"type": "Point", "coordinates": [7.5675041, 51.9743331]}, "properties": {"id": "osm:way:88702144", "type": "school", "name": "Wartburg Grundschule", "source": "OpenStreetMap/Overpass"}}, {"type": "Feature", "geometry": {"type": "Point", "coordinates": [7.5817608, 51.9694693]}, "properties": {"id": "osm:way:89581242", "type": "school", "name": "Freie Waldorfschule Münster", "source": "OpenStreetMap/Overpass"}}, {"type": "Feature", "geometry": {"type": "Point", "coordinates": [7.5819219, 51.9700606]}, "properties": {"id": "osm:way:89820741", "type": "kindergarten", "name": "Waldorfkindergarten", "source": "OpenStreetMap/Overpass"}}, {"type": "Feature", "geometry": {"type": "Point", "coordinates": [7.615424, 51.9797454]}, "properties": {"id": "osm:way:96292823", "type": "kindergarten", "name": "Haus 10", "source": "OpenStreetMap/Overpass"}}, {"type": "Feature", "geometry": {"type": "Point", "coordinates": [7.5952586, 51.991118]}, "properties": {"id": "osm:way:96561644", "type": "kindergarten", "name": "", "source": "OpenStreetMap/Overpass"}}, {"type": "Feature", "geometry": {"type": "Point", "coordinates": [7.6178701, 51.9596339]}, "properties": {"id": "osm:way:96611697", "type": "school", "name": "Gymnasium Paulinum", "source": "OpenStreetMap/Overpass"}}, {"type": "Feature", "geometry": {"type": "Point", "coordinates": [7.6056373, 51.9779169]}, "properties": {"id": "osm:way:96696282", "type": "kindergarten", "name": "KiTa Pustekuchen", "source": "OpenStreetMap/Overpass"}}, {"type": "Feature", "geometry": {"type": "Point", "coordinates": [7.5921386, 51.9587278]}, "properties": {"id": "osm:way:96742731", "type": "school", "name": "Helen-Keller-Schule", "source": "OpenStreetMap/Overpass"}}, {"type": "Feature", "geometry": {"type": "Point", "coordinates": [7.708312, 52.0115972]}, "properties": {"id": "osm:way:97235382", "type": "kindergarten", "name": "Kindertagesstätte Villa Kunterbunt", "source": "OpenStreetMap/Overpass"}}, {"type": "Feature", "geometry": {"type": "Point", "coordinates": [7.6238685, 51.9578726]}, "properties": {"id": "osm:way:97754109", "type": "school", "name": "Annette-von-Droste-Hülshoff-Gymnasium", "source": "OpenStreetMap/Overpass"}}, {"type": "Feature", "geometry": {"type": "Point", "coordinates": [7.6240371, 51.9350113]}, "properties": {"id": "osm:way:101343851", "type": "school", "name": "Erna-de-Vries-Realschule", "source": "OpenStreetMap/Overpass"}}, {"type": "Feature", "geometry": {"type": "Point", "coordinates": [7.751643, 52.0320102]}, "properties": {"id": "osm:way:103629470", "type": "school", "name": "Ehemalige St. Christopherus Grundschule", "source": "OpenStreetMap/Overpass"}}, {"type": "Feature", "geometry": {"type": "Point", "coordinates": [7.5294785, 51.9548805]}, "properties": {"id": "osm:way:103746024", "type": "school", "name": "", "source": "OpenStreetMap/Overpass"}}, {"type": "Feature", "geometry": {"type": "Point", "coordinates": [7.6122794, 51.9667479]}, "properties": {"id": "osm:way:106270491", "type": "kindergarten", "name": "Kita St. Nikolaus", "source": "OpenStreetMap/Overpass"}}, {"type": "Feature", "geometry": {"type": "Point", "coordinates": [7.594549, 51.9554615]}, "properties": {"id": "osm:way:106580291", "type": "school", "name": "Theresienschule", "source": "OpenStreetMap/Overpass"}}, {"type": "Feature", "geometry": {"type": "Point", "coordinates": [7.6753001, 52.0296172]}, "properties": {"id": "osm:way:109101028", "type": "school", "name": "Astrid-Lindgren-Schule", "source": "OpenStreetMap/Overpass"}}, {"type": "Feature", "geometry": {"type": "Point", "coordinates": [7.6688754, 51.9241212]}, "properties": {"id": "osm:way:113557724", "type": "kindergarten", "name": "KiTa Schatzkiste", "source": "OpenStreetMap/Overpass"}}, {"type": "Feature", "geometry": {"type": "Point", "coordinates": [7.6433412, 51.8999912]}, "properties": {"id": "osm:way:117202975", "type": "school", "name": "Kardinal-von-Galen-Gymnasium", "source": "OpenStreetMap/Overpass"}}, {"type": "Feature", "geometry": {"type": "Point", "coordinates": [7.6180476, 51.9945312]}, "properties": {"id": "osm:way:117481170", "type": "school", "name": "LWL-Förderschulzentrum", "source": "OpenStreetMap/Overpass"}}, {"type": "Feature", "geometry": {"type": "Point", "coordinates": [7.6491306, 51.9887533]}, "properties": {"id": "osm:way:117742552", "type": "school", "name": "Norbert Grundschule", "source": "OpenStreetMap/Overpass"}}, {"type": "Feature", "geometry": {"type": "Point", "coordinates": [7.6204467, 51.9734947]}, "properties": {"id": "osm:way:120926572", "type": "school", "name": "Realschule im Kreuzviertel", "source": "OpenStreetMap/Overpass"}}, {"type": "Feature", "geometry": {"type": "Point", "coordinates": [7.620676, 51.9690271]}, "properties": {"id": "osm:way:120926573", "type": "school", "name": "Schillergymnasium", "source": "OpenStreetMap/Overpass"}}, {"type": "Feature", "geometry": {"type": "Point", "coordinates": [7.6191275, 51.9646141]}, "properties": {"id": "osm:way:121760995", "type": "school", "name": "", "source": "OpenStreetMap/Overpass"}}, {"type": "Feature", "geometry": {"type": "Point", "coordinates": [7.6199158, 51.9643405]}, "properties": {"id": "osm:way:121760996", "type": "school", "name": "Gesamtschule Münster Mitte", "source": "OpenStreetMap/Overpass"}}, {"type": "Feature", "geometry": {"type": "Point", "coordinates": [7.6146446, 51.9756339]}, "properties": {"id": "osm:way:121957936", "type": "kindergarten", "name": "Katholischer Kindergarten Franz von Assisi", "source": "OpenStreetMap/Overpass"}}, {"type": "Feature", "geometry": {"type": "Point", "coordinates": [7.6184854, 51.9593723]}, "properties": {"id": "osm:way:122066112", "type": "kindergarten", "name": "Kita Paulinchen", "source": "OpenStreetMap/Overpass"}}, {"type": "Feature", "geometry": {"type": "Point", "coordinates": [7.6057558, 51.9605339]}, "properties": {"id": "osm:way:122423378", "type": "kindergarten", "name": "Heinrich-Piepmeyer-Haus", "source": "OpenStreetMap/Overpass"}}, {"type": "Feature", "geometry": {"type": "Point", "coordinates": [7.5662261, 51.9683703]}, "properties": {"id": "osm:way:123406987", "type": "kindergarten", "name": "Kita St. Michael III", "source": "OpenStreetMap/Overpass"}}, {"type": "Feature", "geometry": {"type": "Point", "coordinates": [7.6216547, 51.9523291]}, "properties": {"id": "osm:way:125230455", "type": "school", "name": "Johannisschule", "source": "OpenStreetMap/Overpass"}}, {"type": "Feature", "geometry": {"type": "Point", "coordinates": [7.6450278, 51.9597636]}, "properties": {"id": "osm:way:126661507", "type": "school", "name": "Bodelschwinghschule", "source": "OpenStreetMap/Overpass"}}, {"type": "Feature", "geometry": {"type": "Point", "coordinates": [7.616265, 51.992596]}, "properties": {"id": "osm:way:126863833", "type": "school", "name": "Kompass-Schule", "source": "OpenStreetMap/Overpass"}}, {"type": "Feature", "geometry": {"type": "Point", "coordinates": [7.5803125, 51.968188]}, "properties": {"id": "osm:way:126988457", "type": "kindergarten", "name": "Katholische Kita St. Michael I", "source": "OpenStreetMap/Overpass"}}, {"type": "Feature", "geometry": {"type": "Point", "coordinates": [7.6190681, 51.9470962]}, "properties": {"id": "osm:way:128244819", "type": "school", "name": "Wilhelm-Hittorf-Gymnasium", "source": "OpenStreetMap/Overpass"}}, {"type": "Feature", "geometry": {"type": "Point", "coordinates": [7.6015169, 51.9436288]}, "properties": {"id": "osm:way:128245266", "type": "school", "name": "Richard-von-Weizsäcker-Schule", "source": "OpenStreetMap/Overpass"}}, {"type": "Feature", "geometry": {"type": "Point", "coordinates": [7.6051045, 51.9416696]}, "properties": {"id": "osm:way:130584644", "type": "school", "name": "Dietrich-Bonhoeffer-Schule", "source": "OpenStreetMap/Overpass"}}, {"type": "Feature", "geometry": {"type": "Point", "coordinates": [7.6128627, 51.9373557]}, "properties": {"id": "osm:way:133082458", "type": "school", "name": "Ludwig-Erhard-Berufskolleg", "source": "OpenStreetMap/Overpass"}}, {"type": "Feature", "geometry": {"type": "Point", "coordinates": [7.6163555, 51.9952805]}, "properties": {"id": "osm:way:134407982", "type": "school", "name": "Gebäude der OGS", "source": "OpenStreetMap/Overpass"}}, {"type": "Feature", "geometry": {"type": "Point", "coordinates": [7.6252863, 51.9762222]}, "properties": {"id": "osm:way:135254027", "type": "school", "name": "Pascal-Gymnasium", "source": "OpenStreetMap/Overpass"}}, {"type": "Feature", "geometry": {"type": "Point", "coordinates": [7.6881868, 51.9836803]}, "properties": {"id": "osm:way:137591835", "type": "school", "name": "Gymnasium Sankt Mauritz", "source": "OpenStreetMap/Overpass"}}, {"type": "Feature", "geometry": {"type": "Point", "coordinates": [7.6025248, 51.9430189]}, "properties": {"id": "osm:way:139154023", "type": "kindergarten", "name": "Jakobus Kindergarten", "source": "OpenStreetMap/Overpass"}}, {"type": "Feature", "geometry": {"type": "Point", "coordinates": [7.6211241, 51.9398923]}, "properties": {"id": "osm:way:139278420", "type": "kindergarten", "name": "Familienzentrum Heilig Geist", "source": "OpenStreetMap/Overpass"}}, {"type": "Feature", "geometry": {"type": "Point", "coordinates": [7.6330791, 51.9628963]}, "properties": {"id": "osm:way:142321934", "type": "school", "name": "Johann-Conrad-Schlaun-Gymnasium", "source": "OpenStreetMap/Overpass"}}, {"type": "Feature", "geometry": {"type": "Point", "coordinates": [7.6091958, 51.9519241]}, "properties": {"id": "osm:way:142657248", "type": "school", "name": "Erich-Klausener-Schule", "source": "OpenStreetMap/Overpass"}}, {"type": "Feature", "geometry": {"type": "Point", "coordinates": [7.638191, 51.9668573]}, "properties": {"id": "osm:way:142659398", "type": "school", "name": "Ratsgymnasium", "source": "OpenStreetMap/Overpass"}}, {"type": "Feature", "geometry": {"type": "Point", "coordinates": [7.6122967, 51.9330513]}, "properties": {"id": "osm:way:142680603", "type": "school", "name": "Gottfried-von-Cappenberg-Schule", "source": "OpenStreetMap/Overpass"}}, {"type": "Feature", "geometry": {"type": "Point", "coordinates": [7.5897187, 51.9595671]}, "properties": {"id": "osm:way:145622985", "type": "kindergarten", "name": "Kita Niki de Saint Phalle", "source": "OpenStreetMap/Overpass"}}, {"type": "Feature", "geometry": {"type": "Point", "coordinates": [7.6260006, 51.9448188]}, "properties": {"id": "osm:way:158367344", "type": "school", "name": "Hermannschule", "source": "OpenStreetMap/Overpass"}}, {"type": "Feature", "geometry": {"type": "Point", "coordinates": [7.6277509, 51.9691962]}, "properties": {"id": "osm:way:166375674", "type": "school", "name": "Martin-Luther-Schule", "source": "OpenStreetMap/Overpass"}}, {"type": "Feature", "geometry": {"type": "Point", "coordinates": [7.6233259, 51.9694049]}, "properties": {"id": "osm:way:167601991", "type": "school", "name": "Kreuzschule", "source": "OpenStreetMap/Overpass"}}, {"type": "Feature", "geometry": {"type": "Point", "coordinates": [7.5965013, 51.9744793]}, "properties": {"id": "osm:way:168283368", "type": "kindergarten", "name": "Chamäleon", "source": "OpenStreetMap/Overpass"}}, {"type": "Feature", "geometry": {"type": "Point", "coordinates": [7.7297544, 51.9178064]}, "properties": {"id": "osm:way:168410811", "type": "kindergarten", "name": "Kindergarten", "source": "OpenStreetMap/Overpass"}}, {"type": "Feature", "geometry": {"type": "Point", "coordinates": [7.6088992, 51.9916918]}, "properties": {"id": "osm:way:169137962", "type": "kindergarten", "name": "Markus-Kindergarten", "source": "OpenStreetMap/Overpass"}}, {"type": "Feature", "geometry": {"type": "Point", "coordinates": [7.7267676, 51.9173059]}, "properties": {"id": "osm:way:170694983", "type": "kindergarten", "name": "Kita Am Drostenhof", "source": "OpenStreetMap/Overpass"}}, {"type": "Feature", "geometry": {"type": "Point", "coordinates": [7.7291044, 51.9194545]}, "properties": {"id": "osm:way:170696857", "type": "kindergarten", "name": "Kindergarten St. Nikolaus", "source": "OpenStreetMap/Overpass"}}, {"type": "Feature", "geometry": {"type": "Point", "coordinates": [7.725708, 51.9294797]}, "properties": {"id": "osm:way:170707033", "type": "kindergarten", "name": "Regenbogen-Kindertagesstätte", "source": "OpenStreetMap/Overpass"}}, {"type": "Feature", "geometry": {"type": "Point", "coordinates": [7.6241452, 51.9591462]}, "properties": {"id": "osm:way:172687656", "type": "school", "name": "Aegidii-Ludgeri-Schule", "source": "OpenStreetMap/Overpass"}}, {"type": "Feature", "geometry": {"type": "Point", "coordinates": [7.5304922, 51.9550388]}, "properties": {"id": "osm:way:173956041", "type": "school", "name": "Kita Schule ehem. Augustin-Wibbelt-Schule", "source": "OpenStreetMap/Overpass"}}, {"type": "Feature", "geometry": {"type": "Point", "coordinates": [7.5270485, 51.9523634]}, "properties": {"id": "osm:way:174728185", "type": "kindergarten", "name": "Kindertageseinrichtung Aloysia Delsen", "source": "OpenStreetMap/Overpass"}}, {"type": "Feature", "geometry": {"type": "Point", "coordinates": [7.5965396, 51.9745104]}, "properties": {"id": "osm:way:178430635", "type": "kindergarten", "name": "Kita Chamäleon", "source": "OpenStreetMap/Overpass"}}, {"type": "Feature", "geometry": {"type": "Point", "coordinates": [7.5819718, 51.9678572]}, "properties": {"id": "osm:way:181047062", "type": "school", "name": "Michaelschule", "source": "OpenStreetMap/Overpass"}}, {"type": "Feature", "geometry": {"type": "Point", "coordinates": [7.5945945, 51.957649]}, "properties": {"id": "osm:way:184310153", "type": "kindergarten", "name": "Kath. Kindergarten St. Theresia", "source": "OpenStreetMap/Overpass"}}, {"type": "Feature", "geometry": {"type": "Point", "coordinates": [7.6031598, 52.0019995]}, "properties": {"id": "osm:way:186742308", "type": "school", "name": "Papst-Johannes-Schule", "source": "OpenStreetMap/Overpass"}}, {"type": "Feature", "geometry": {"type": "Point", "coordinates": [7.6321132, 51.9665699]}, "properties": {"id": "osm:way:193773076", "type": "school", "name": "Adolph-Kolping-Berufskolleg", "source": "OpenStreetMap/Overpass"}}, {"type": "Feature", "geometry": {"type": "Point", "coordinates": [7.6264938, 51.966544]}, "properties": {"id": "osm:way:193918033", "type": "childcare", "name": "Kindergruppe Knotenbeis", "source": "OpenStreetMap/Overpass"}}, {"type": "Feature", "geometry": {"type": "Point", "coordinates": [7.6218404, 51.9391616]}, "properties": {"id": "osm:way:194825678", "type": "school", "name": "Geistschule", "source": "OpenStreetMap/Overpass"}}, {"type": "Feature", "geometry": {"type": "Point", "coordinates": [7.6104476, 52.0014283]}, "properties": {"id": "osm:way:198193908", "type": "school", "name": "Waldschule Kinderhaus", "source": "OpenStreetMap/Overpass"}}, {"type": "Feature", "geometry": {"type": "Point", "coordinates": [7.5594803, 51.9961423]}, "properties": {"id": "osm:way:198963807", "type": "school", "name": "Annette von Droste Hülshoff Schule", "source": "OpenStreetMap/Overpass"}}, {"type": "Feature", "geometry": {"type": "Point", "coordinates": [7.6045291, 51.9892718]}, "properties": {"id": "osm:way:239486945", "type": "kindergarten", "name": "", "source": "OpenStreetMap/Overpass"}}, {"type": "Feature", "geometry": {"type": "Point", "coordinates": [7.6696421, 51.919298]}, "properties": {"id": "osm:way:250138550", "type": "kindergarten", "name": "Kita Normannenweg", "source": "OpenStreetMap/Overpass"}}, {"type": "Feature", "geometry": {"type": "Point", "coordinates": [7.5249714, 51.9263937]}, "properties": {"id": "osm:way:250329876", "type": "kindergarten", "name": "Städtische Kita Albachten", "source": "OpenStreetMap/Overpass"}}, {"type": "Feature", "geometry": {"type": "Point", "coordinates": [7.6525004, 51.9034002]}, "properties": {"id": "osm:way:250667582", "type": "kindergarten", "name": "LackiKids", "source": "OpenStreetMap/Overpass"}}, {"type": "Feature", "geometry": {"type": "Point", "coordinates": [7.6651359, 51.9583149]}, "properties": {"id": "osm:way:255526100", "type": "kindergarten", "name": "Johannes-Busch-Haus", "source": "OpenStreetMap/Overpass"}}, {"type": "Feature", "geometry": {"type": "Point", "coordinates": [7.5897191, 51.9351045]}, "properties": {"id": "osm:way:256191302", "type": "school", "name": "HBZ", "source": "OpenStreetMap/Overpass"}}, {"type": "Feature", "geometry": {"type": "Point", "coordinates": [7.5598139, 51.9973622]}, "properties": {"id": "osm:way:256975746", "type": "kindergarten", "name": "Kindergarten St. Sebastian", "source": "OpenStreetMap/Overpass"}}, {"type": "Feature", "geometry": {"type": "Point", "coordinates": [7.5235151, 51.9225881]}, "properties": {"id": "osm:way:261591596", "type": "kindergarten", "name": "Claudius Kindergarten", "source": "OpenStreetMap/Overpass"}}, {"type": "Feature", "geometry": {"type": "Point", "coordinates": [7.5283229, 51.9227591]}, "properties": {"id": "osm:way:261595814", "type": "school", "name": "Ludgerusschule", "source": "OpenStreetMap/Overpass"}}, {"type": "Feature", "geometry": {"type": "Point", "coordinates": [7.5286043, 51.9202855]}, "properties": {"id": "osm:way:261715633", "type": "kindergarten", "name": "Kita St. Josef", "source": "OpenStreetMap/Overpass"}}, {"type": "Feature", "geometry": {"type": "Point", "coordinates": [7.5669169, 51.9589036]}, "properties": {"id": "osm:way:262232636", "type": "childcare", "name": "DRK-Kita Wolkenburg", "source": "OpenStreetMap/Overpass"}}, {"type": "Feature", "geometry": {"type": "Point", "coordinates": [7.5596395, 51.9719943]}, "properties": {"id": "osm:way:262452696", "type": "kindergarten", "name": "Städtische Kindertageseinrichtung Gievenbeck", "source": "OpenStreetMap/Overpass"}}, {"type": "Feature", "geometry": {"type": "Point", "coordinates": [7.5758561, 51.9269622]}, "properties": {"id": "osm:way:270426762", "type": "kindergarten", "name": "Kita unter den Eichen", "source": "OpenStreetMap/Overpass"}}, {"type": "Feature", "geometry": {"type": "Point", "coordinates": [7.6659092, 51.9075519]}, "properties": {"id": "osm:way:272124844", "type": "school", "name": "Marienschule", "source": "OpenStreetMap/Overpass"}}, {"type": "Feature", "geometry": {"type": "Point", "coordinates": [7.5717292, 51.9292949]}, "properties": {"id": "osm:way:277031819", "type": "kindergarten", "name": "Familienzentrum Maria Aparecida", "source": "OpenStreetMap/Overpass"}}, {"type": "Feature", "geometry": {"type": "Point", "coordinates": [7.6153093, 51.9750673]}, "properties": {"id": "osm:way:277126902", "type": "school", "name": "Dreifaltigkeitsschule", "source": "OpenStreetMap/Overpass"}}, {"type": "Feature", "geometry": {"type": "Point", "coordinates": [7.6266896, 51.975831]}, "properties": {"id": "osm:way:277518156", "type": "school", "name": "Weiterbildungskolleg der Stadt Münster", "source": "OpenStreetMap/Overpass"}}, {"type": "Feature", "geometry": {"type": "Point", "coordinates": [7.6736677, 51.9341578]}, "properties": {"id": "osm:way:281603186", "type": "kindergarten", "name": "Loddengrund", "source": "OpenStreetMap/Overpass"}}, {"type": "Feature", "geometry": {"type": "Point", "coordinates": [7.58059, 51.9322351]}, "properties": {"id": "osm:way:285106569", "type": "school", "name": "Peter-Wust-Schule", "source": "OpenStreetMap/Overpass"}}, {"type": "Feature", "geometry": {"type": "Point", "coordinates": [7.5573349, 51.9693787]}, "properties": {"id": "osm:way:287690040", "type": "kindergarten", "name": "Wurzelkinder", "source": "OpenStreetMap/Overpass"}}, {"type": "Feature", "geometry": {"type": "Point", "coordinates": [7.5430626, 51.9934043]}, "properties": {"id": "osm:way:288189605", "type": "kindergarten", "name": "Kita Die Krokodile e.V", "source": "OpenStreetMap/Overpass"}}, {"type": "Feature", "geometry": {"type": "Point", "coordinates": [7.5940648, 51.9967625]}, "properties": {"id": "osm:way:289788076", "type": "school", "name": "Grundschule Kinderhaus-West", "source": "OpenStreetMap/Overpass"}}, {"type": "Feature", "geometry": {"type": "Point", "coordinates": [7.5939958, 51.9977931]}, "properties": {"id": "osm:way:291509870", "type": "kindergarten", "name": "", "source": "OpenStreetMap/Overpass"}}, {"type": "Feature", "geometry": {"type": "Point", "coordinates": [7.5916304, 52.0001396]}, "properties": {"id": "osm:way:291509880", "type": "kindergarten", "name": "Kindergarten Killingstraße", "source": "OpenStreetMap/Overpass"}}, {"type": "Feature", "geometry": {"type": "Point", "coordinates": [7.6444019, 51.9625252]}, "properties": {"id": "osm:way:296935443", "type": "kindergarten", "name": "Rackerbande", "source": "OpenStreetMap/Overpass"}}, {"type": "Feature", "geometry": {"type": "Point", "coordinates": [7.6057558, 51.9307998]}, "properties": {"id": "osm:way:299682195", "type": "kindergarten", "name": "Kichererbsen Kindertagespflege", "source": "OpenStreetMap/Overpass"}}, {"type": "Feature", "geometry": {"type": "Point", "coordinates": [7.6095373, 52.0366433]}, "properties": {"id": "osm:way:300351749", "type": "school", "name": "Grundschule Sprakel", "source": "OpenStreetMap/Overpass"}}, {"type": "Feature", "geometry": {"type": "Point", "coordinates": [7.6445283, 51.9563787]}, "properties": {"id": "osm:way:302250429", "type": "school", "name": "Overbergschule", "source": "OpenStreetMap/Overpass"}}, {"type": "Feature", "geometry": {"type": "Point", "coordinates": [7.6148368, 51.9248159]}, "properties": {"id": "osm:way:303115173", "type": "kindergarten", "name": "Kita Berg Fidel", "source": "OpenStreetMap/Overpass"}}, {"type": "Feature", "geometry": {"type": "Point", "coordinates": [7.6458912, 51.9577714]}, "properties": {"id": "osm:way:303404957", "type": "kindergarten", "name": "Kindertagesstätte Katharinenstraße", "source": "OpenStreetMap/Overpass"}}, {"type": "Feature", "geometry": {"type": "Point", "coordinates": [7.6900491, 51.914203]}, "properties": {"id": "osm:way:304638168", "type": "kindergarten", "name": "Familienzentrum St. Bernhard", "source": "OpenStreetMap/Overpass"}}, {"type": "Feature", "geometry": {"type": "Point", "coordinates": [7.6717261, 51.901984]}, "properties": {"id": "osm:way:305297035", "type": "kindergarten", "name": "", "source": "OpenStreetMap/Overpass"}}, {"type": "Feature", "geometry": {"type": "Point", "coordinates": [7.6717142, 51.9020355]}, "properties": {"id": "osm:way:305297889", "type": "kindergarten", "name": "Kita Emmerbachtal", "source": "OpenStreetMap/Overpass"}}, {"type": "Feature", "geometry": {"type": "Point", "coordinates": [7.6460349, 51.9640156]}, "properties": {"id": "osm:way:305358300", "type": "school", "name": "Adolph-Kolping-Berufskolleg", "source": "OpenStreetMap/Overpass"}}, {"type": "Feature", "geometry": {"type": "Point", "coordinates": [7.6671167, 51.9072956]}, "properties": {"id": "osm:way:308935067", "type": "kindergarten", "name": "St. Marien", "source": "OpenStreetMap/Overpass"}}, {"type": "Feature", "geometry": {"type": "Point", "coordinates": [7.6574822, 51.9593254]}, "properties": {"id": "osm:way:312807714", "type": "kindergarten", "name": "Montessori-Kindergarten Münster", "source": "OpenStreetMap/Overpass"}}, {"type": "Feature", "geometry": {"type": "Point", "coordinates": [7.6284823, 51.8988451]}, "properties": {"id": "osm:way:314445884", "type": "kindergarten", "name": "", "source": "OpenStreetMap/Overpass"}}, {"type": "Feature", "geometry": {"type": "Point", "coordinates": [7.6738522, 51.9246088]}, "properties": {"id": "osm:way:315153161", "type": "kindergarten", "name": "Evangelischer Friedenskindergarten", "source": "OpenStreetMap/Overpass"}}, {"type": "Feature", "geometry": {"type": "Point", "coordinates": [7.4747856, 52.0432145]}, "properties": {"id": "osm:way:318225921", "type": "childcare", "name": "DRK Kindergarten Pusteblume", "source": "OpenStreetMap/Overpass"}}, {"type": "Feature", "geometry": {"type": "Point", "coordinates": [7.4785604, 52.0518708]}, "properties": {"id": "osm:way:318228395", "type": "childcare", "name": "DRK Kita Fifikus", "source": "OpenStreetMap/Overpass"}}, {"type": "Feature", "geometry": {"type": "Point", "coordinates": [7.6415648, 51.9107132]}, "properties": {"id": "osm:way:324233309", "type": "kindergarten", "name": "KiTa Wielerort", "source": "OpenStreetMap/Overpass"}}, {"type": "Feature", "geometry": {"type": "Point", "coordinates": [7.7040342, 51.9900843]}, "properties": {"id": "osm:way:326503430", "type": "school", "name": "Matthias-Claudius-Schule Handorf", "source": "OpenStreetMap/Overpass"}}, {"type": "Feature", "geometry": {"type": "Point", "coordinates": [7.7007007, 51.9883156]}, "properties": {"id": "osm:way:326603599", "type": "school", "name": "Kardinal-von-Galen-Grundschule", "source": "OpenStreetMap/Overpass"}}, {"type": "Feature", "geometry": {"type": "Point", "coordinates": [7.6127373, 51.998364]}, "properties": {"id": "osm:way:329972297", "type": "school", "name": "Paul-Schneider-Schule", "source": "OpenStreetMap/Overpass"}}, {"type": "Feature", "geometry": {"type": "Point", "coordinates": [7.6423311, 51.9743505]}, "properties": {"id": "osm:way:333880004", "type": "kindergarten", "name": "Kita Thomas Morus", "source": "OpenStreetMap/Overpass"}}, {"type": "Feature", "geometry": {"type": "Point", "coordinates": [7.6442537, 51.9743426]}, "properties": {"id": "osm:way:333881808", "type": "school", "name": "Thomas-Morus-Schule", "source": "OpenStreetMap/Overpass"}}, {"type": "Feature", "geometry": {"type": "Point", "coordinates": [7.6989247, 51.9225108]}, "properties": {"id": "osm:way:334576438", "type": "kindergarten", "name": "AWO Kindergarten", "source": "OpenStreetMap/Overpass"}}, {"type": "Feature", "geometry": {"type": "Point", "coordinates": [7.6949804, 51.9147095]}, "properties": {"id": "osm:way:334730994", "type": "school", "name": "Eichendorffschule", "source": "OpenStreetMap/Overpass"}}, {"type": "Feature", "geometry": {"type": "Point", "coordinates": [7.6913775, 51.9113094]}, "properties": {"id": "osm:way:334731209", "type": "kindergarten", "name": "Miriam Kita", "source": "OpenStreetMap/Overpass"}}, {"type": "Feature", "geometry": {"type": "Point", "coordinates": [7.6711156, 51.9321859]}, "properties": {"id": "osm:way:336309289", "type": "kindergarten", "name": "St. Ida Kindergarten", "source": "OpenStreetMap/Overpass"}}, {"type": "Feature", "geometry": {"type": "Point", "coordinates": [7.535861, 51.9560412]}, "properties": {"id": "osm:way:337195127", "type": "kindergarten", "name": "Anne-Jakobi-Haus", "source": "OpenStreetMap/Overpass"}}, {"type": "Feature", "geometry": {"type": "Point", "coordinates": [7.527033, 51.9523076]}, "properties": {"id": "osm:way:337195128", "type": "school", "name": "", "source": "OpenStreetMap/Overpass"}}, {"type": "Feature", "geometry": {"type": "Point", "coordinates": [7.5783071, 51.8942421]}, "properties": {"id": "osm:way:337445278", "type": "school", "name": "Grundschule Loevelingloh", "source": "OpenStreetMap/Overpass"}}, {"type": "Feature", "geometry": {"type": "Point", "coordinates": [7.6739918, 51.9519823]}, "properties": {"id": "osm:way:337959169", "type": "school", "name": "Margaretenschule", "source": "OpenStreetMap/Overpass"}}, {"type": "Feature", "geometry": {"type": "Point", "coordinates": [7.6755783, 51.9505448]}, "properties": {"id": "osm:way:340387352", "type": "kindergarten", "name": "Kita St. Margareta", "source": "OpenStreetMap/Overpass"}}, {"type": "Feature", "geometry": {"type": "Point", "coordinates": [7.6274553, 51.9025704]}, "properties": {"id": "osm:way:375663513", "type": "kindergarten", "name": "DRK-Kita \"Lummerland\"", "source": "OpenStreetMap/Overpass"}}, {"type": "Feature", "geometry": {"type": "Point", "coordinates": [7.6261815, 51.9031779]}, "properties": {"id": "osm:way:375674165", "type": "kindergarten", "name": "", "source": "OpenStreetMap/Overpass"}}, {"type": "Feature", "geometry": {"type": "Point", "coordinates": [7.6231251, 51.9054687]}, "properties": {"id": "osm:way:375677095", "type": "kindergarten", "name": "Burgwall Kindergarten", "source": "OpenStreetMap/Overpass"}}, {"type": "Feature", "geometry": {"type": "Point", "coordinates": [7.6284035, 51.8987723]}, "properties": {"id": "osm:way:375683843", "type": "kindergarten", "name": "Kita St.Martin", "source": "OpenStreetMap/Overpass"}}, {"type": "Feature", "geometry": {"type": "Point", "coordinates": [7.6512834, 51.9076436]}, "properties": {"id": "osm:way:377188221", "type": "kindergarten", "name": "Evangelischer Kindergarten Hiltrup", "source": "OpenStreetMap/Overpass"}}, {"type": "Feature", "geometry": {"type": "Point", "coordinates": [7.667029, 51.9072564]}, "properties": {"id": "osm:way:377745501", "type": "kindergarten", "name": "", "source": "OpenStreetMap/Overpass"}}, {"type": "Feature", "geometry": {"type": "Point", "coordinates": [7.6805741, 51.9211166]}, "properties": {"id": "osm:way:380443413", "type": "school", "name": "Annette-von-Droste-Hülshoff-Grundschule", "source": "OpenStreetMap/Overpass"}}, {"type": "Feature", "geometry": {"type": "Point", "coordinates": [7.7310136, 51.8660298]}, "properties": {"id": "osm:way:383443462", "type": "school", "name": "Ludgerusschule", "source": "OpenStreetMap/Overpass"}}, {"type": "Feature", "geometry": {"type": "Point", "coordinates": [7.734585, 51.8674714]}, "properties": {"id": "osm:way:383448261", "type": "kindergarten", "name": "Kindergarten St. Ludgerus", "source": "OpenStreetMap/Overpass"}}, {"type": "Feature", "geometry": {"type": "Point", "coordinates": [7.6399104, 51.9049762]}, "properties": {"id": "osm:way:386807051", "type": "kindergarten", "name": "KiTa St. Clemens", "source": "OpenStreetMap/Overpass"}}, {"type": "Feature", "geometry": {"type": "Point", "coordinates": [7.6019965, 51.9577041]}, "properties": {"id": "osm:way:402521537", "type": "kindergarten", "name": "Kita Tausendfüßler", "source": "OpenStreetMap/Overpass"}}, {"type": "Feature", "geometry": {"type": "Point", "coordinates": [7.5658693, 52.022997]}, "properties": {"id": "osm:way:405188328", "type": "kindergarten", "name": "", "source": "OpenStreetMap/Overpass"}}, {"type": "Feature", "geometry": {"type": "Point", "coordinates": [7.6095914, 51.9771652]}, "properties": {"id": "osm:way:411118157", "type": "childcare", "name": "Elterninitiative Die Knirpse e.V.", "source": "OpenStreetMap/Overpass"}}, {"type": "Feature", "geometry": {"type": "Point", "coordinates": [7.5973875, 51.9703216]}, "properties": {"id": "osm:way:426383056", "type": "childcare", "name": "Kita Wirbelwind", "source": "OpenStreetMap/Overpass"}}, {"type": "Feature", "geometry": {"type": "Point", "coordinates": [7.6515633, 51.9372995]}, "properties": {"id": "osm:way:426744186", "type": "school", "name": "AVWL Akademie", "source": "OpenStreetMap/Overpass"}}, {"type": "Feature", "geometry": {"type": "Point", "coordinates": [7.6109151, 51.979055]}, "properties": {"id": "osm:way:428936271", "type": "kindergarten", "name": "Outlaw-Kita", "source": "OpenStreetMap/Overpass"}}, {"type": "Feature", "geometry": {"type": "Point", "coordinates": [7.5659847, 52.0230026]}, "properties": {"id": "osm:way:430420252", "type": "kindergarten", "name": "Kita Nienberge-Häger", "source": "OpenStreetMap/Overpass"}}, {"type": "Feature", "geometry": {"type": "Point", "coordinates": [7.6225501, 51.9801784]}, "properties": {"id": "osm:way:430654835", "type": "kindergarten", "name": "Outlaw-Kita Wienburgstraße", "source": "OpenStreetMap/Overpass"}}, {"type": "Feature", "geometry": {"type": "Point", "coordinates": [7.6505728, 51.9745327]}, "properties": {"id": "osm:way:435385086", "type": "kindergarten", "name": "Kita Regenbogenkinder", "source": "OpenStreetMap/Overpass"}}, {"type": "Feature", "geometry": {"type": "Point", "coordinates": [7.6508579, 51.9070639]}, "properties": {"id": "osm:way:455689892", "type": "kindergarten", "name": "LaLuLand - Evangel. Kindergarten Hiltrup", "source": "OpenStreetMap/Overpass"}}, {"type": "Feature", "geometry": {"type": "Point", "coordinates": [7.6290241, 51.9657608]}, "properties": {"id": "osm:way:481809991", "type": "school", "name": "Hildegardisschule", "source": "OpenStreetMap/Overpass"}}, {"type": "Feature", "geometry": {"type": "Point", "coordinates": [7.6125361, 52.0380418]}, "properties": {"id": "osm:way:487825294", "type": "kindergarten", "name": "KiTa Outlaw", "source": "OpenStreetMap/Overpass"}}, {"type": "Feature", "geometry": {"type": "Point", "coordinates": [7.4815319, 52.0483765]}, "properties": {"id": "osm:way:494954892", "type": "kindergarten", "name": "Outlaw Kita Moosstiege", "source": "OpenStreetMap/Overpass"}}, {"type": "Feature", "geometry": {"type": "Point", "coordinates": [7.6496495, 51.9567062]}, "properties": {"id": "osm:way:504022392", "type": "school", "name": "Wilhelm-Emmanuel-von-Ketteler-Berufskolleg", "source": "OpenStreetMap/Overpass"}}, {"type": "Feature", "geometry": {"type": "Point", "coordinates": [7.579271, 52.0212915]}, "properties": {"id": "osm:way:517789106", "type": "kindergarten", "name": "Kita Kindertraum", "source": "OpenStreetMap/Overpass"}}, {"type": "Feature", "geometry": {"type": "Point", "coordinates": [7.5888391, 52.0130796]}, "properties": {"id": "osm:way:552925239", "type": "kindergarten", "name": "Kindergruppe Krullys", "source": "OpenStreetMap/Overpass"}}, {"type": "Feature", "geometry": {"type": "Point", "coordinates": [7.6153473, 51.9529861]}, "properties": {"id": "osm:way:572892765", "type": "kindergarten", "name": "Katholische Tageseinrichtung Sankt Antonius", "source": "OpenStreetMap/Overpass"}}, {"type": "Feature", "geometry": {"type": "Point", "coordinates": [7.7382414, 51.8628829]}, "properties": {"id": "osm:way:627039011", "type": "kindergarten", "name": "KiTa Biberburg", "source": "OpenStreetMap/Overpass"}}, {"type": "Feature", "geometry": {"type": "Point", "coordinates": [7.6569303, 51.9591956]}, "properties": {"id": "osm:way:627351405", "type": "school", "name": "Albert-Schweitzer-Schule", "source": "OpenStreetMap/Overpass"}}, {"type": "Feature", "geometry": {"type": "Point", "coordinates": [7.4814608, 51.8636921]}, "properties": {"id": "osm:way:644951069", "type": "kindergarten", "name": "", "source": "OpenStreetMap/Overpass"}}, {"type": "Feature", "geometry": {"type": "Point", "coordinates": [7.4804553, 51.8619645]}, "properties": {"id": "osm:way:644951071", "type": "kindergarten", "name": "", "source": "OpenStreetMap/Overpass"}}, {"type": "Feature", "geometry": {"type": "Point", "coordinates": [7.496543, 51.8633758]}, "properties": {"id": "osm:way:644951077", "type": "kindergarten", "name": "", "source": "OpenStreetMap/Overpass"}}, {"type": "Feature", "geometry": {"type": "Point", "coordinates": [7.5032362, 51.8597082]}, "properties": {"id": "osm:way:644951079", "type": "kindergarten", "name": "", "source": "OpenStreetMap/Overpass"}}, {"type": "Feature", "geometry": {"type": "Point", "coordinates": [7.4847412, 51.8550216]}, "properties": {"id": "osm:way:644951081", "type": "kindergarten", "name": "Katholische Tageseinrichtung Sankt Laurentius", "source": "OpenStreetMap/Overpass"}}, {"type": "Feature", "geometry": {"type": "Point", "coordinates": [7.4868636, 51.8549385]}, "properties": {"id": "osm:way:644951083", "type": "kindergarten", "name": "DRK-Kindertagesstätte Steverspatzen", "source": "OpenStreetMap/Overpass"}}, {"type": "Feature", "geometry": {"type": "Point", "coordinates": [7.4831502, 51.8532735]}, "properties": {"id": "osm:way:644951086", "type": "school", "name": "Joseph-Haydn-Gymnasium", "source": "OpenStreetMap/Overpass"}}, {"type": "Feature", "geometry": {"type": "Point", "coordinates": [7.4838599, 51.8538162]}, "properties": {"id": "osm:way:644951087", "type": "school", "name": "Marienschule", "source": "OpenStreetMap/Overpass"}}, {"type": "Feature", "geometry": {"type": "Point", "coordinates": [7.4845309, 51.8557093]}, "properties": {"id": "osm:way:644951088", "type": "school", "name": "Geschwister Scholl Realschule", "source": "OpenStreetMap/Overpass"}}, {"type": "Feature", "geometry": {"type": "Point", "coordinates": [7.4860669, 51.8550069]}, "properties": {"id": "osm:way:644951089", "type": "school", "name": "Edith-Stein-Schule", "source": "OpenStreetMap/Overpass"}}, {"type": "Feature", "geometry": {"type": "Point", "coordinates": [7.6312769, 51.9960061]}, "properties": {"id": "osm:way:667295917", "type": "kindergarten", "name": "Kita Holtmannshof", "source": "OpenStreetMap/Overpass"}}, {"type": "Feature", "geometry": {"type": "Point", "coordinates": [7.4951963, 51.8658654]}, "properties": {"id": "osm:way:690885056", "type": "kindergarten", "name": "Kita Huxburg", "source": "OpenStreetMap/Overpass"}}, {"type": "Feature", "geometry": {"type": "Point", "coordinates": [7.6347512, 51.8988903]}, "properties": {"id": "osm:way:696656643", "type": "kindergarten", "name": "Kita Marie-Curie-Straße", "source": "OpenStreetMap/Overpass"}}, {"type": "Feature", "geometry": {"type": "Point", "coordinates": [7.6330002, 51.9787029]}, "properties": {"id": "osm:way:830297531", "type": "kindergarten", "name": "Kita Kleine Wiese e.V.", "source": "OpenStreetMap/Overpass"}}, {"type": "Feature", "geometry": {"type": "Point", "coordinates": [7.6556042, 51.9563284]}, "properties": {"id": "osm:way:841357023", "type": "school", "name": "Hans-Böckler-Berufskolleg", "source": "OpenStreetMap/Overpass"}}, {"type": "Feature", "geometry": {"type": "Point", "coordinates": [7.6453313, 51.9056924]}, "properties": {"id": "osm:way:858416358", "type": "kindergarten", "name": "Kita Wiehler Ort", "source": "OpenStreetMap/Overpass"}}, {"type": "Feature", "geometry": {"type": "Point", "coordinates": [7.622947, 51.9018339]}, "properties": {"id": "osm:way:859598193", "type": "kindergarten", "name": "", "source": "OpenStreetMap/Overpass"}}, {"type": "Feature", "geometry": {"type": "Point", "coordinates": [7.6851564, 51.8468138]}, "properties": {"id": "osm:way:868692466", "type": "kindergarten", "name": "", "source": "OpenStreetMap/Overpass"}}, {"type": "Feature", "geometry": {"type": "Point", "coordinates": [7.6828459, 51.8474681]}, "properties": {"id": "osm:way:870307875", "type": "school", "name": "", "source": "OpenStreetMap/Overpass"}}, {"type": "Feature", "geometry": {"type": "Point", "coordinates": [7.4815954, 52.0483278]}, "properties": {"id": "osm:way:872002173", "type": "kindergarten", "name": "Kita Moosstiege", "source": "OpenStreetMap/Overpass"}}, {"type": "Feature", "geometry": {"type": "Point", "coordinates": [7.684411, 51.842173]}, "properties": {"id": "osm:way:875593667", "type": "kindergarten", "name": "Kindergarten Kleine Strolche", "source": "OpenStreetMap/Overpass"}}, {"type": "Feature", "geometry": {"type": "Point", "coordinates": [7.6516775, 51.9799888]}, "properties": {"id": "osm:way:892655973", "type": "kindergarten", "name": "Kindertageseinrichtung und Familienzentrum Rumphorst", "source": "OpenStreetMap/Overpass"}}, {"type": "Feature", "geometry": {"type": "Point", "coordinates": [7.6347607, 51.9813125]}, "properties": {"id": "osm:way:900455434", "type": "kindergarten", "name": "FRÖBEL-Kindergarten Zentrum Nord", "source": "OpenStreetMap/Overpass"}}, {"type": "Feature", "geometry": {"type": "Point", "coordinates": [7.6990485, 51.9230912]}, "properties": {"id": "osm:way:930388058", "type": "kindergarten", "name": "Gustav-Dietrich-Kita", "source": "OpenStreetMap/Overpass"}}, {"type": "Feature", "geometry": {"type": "Point", "coordinates": [7.7295623, 51.9152605]}, "properties": {"id": "osm:way:944433974", "type": "school", "name": "Nikolaischule Wolbeck", "source": "OpenStreetMap/Overpass"}}, {"type": "Feature", "geometry": {"type": "Point", "coordinates": [7.7256861, 51.9115256]}, "properties": {"id": "osm:way:964730169", "type": "kindergarten", "name": "Alfred Bernstein KiTa", "source": "OpenStreetMap/Overpass"}}, {"type": "Feature", "geometry": {"type": "Point", "coordinates": [7.5251791, 51.92638]}, "properties": {"id": "osm:way:1047690933", "type": "kindergarten", "name": "Städtische Kita Albachten", "source": "OpenStreetMap/Overpass"}}, {"type": "Feature", "geometry": {"type": "Point", "coordinates": [7.6732759, 51.9469801]}, "properties": {"id": "osm:way:1064077210", "type": "kindergarten", "name": "Ev. Kindertageseinrichtung Paul Schneider Haus", "source": "OpenStreetMap/Overpass"}}, {"type": "Feature", "geometry": {"type": "Point", "coordinates": [7.6704855, 51.9541115]}, "properties": {"id": "osm:way:1068983707", "type": "school", "name": "Margaretenschule", "source": "OpenStreetMap/Overpass"}}, {"type": "Feature", "geometry": {"type": "Point", "coordinates": [7.6771588, 51.9633517]}, "properties": {"id": "osm:way:1080956088", "type": "kindergarten", "name": "St. Konrad Kindergarten", "source": "OpenStreetMap/Overpass"}}, {"type": "Feature", "geometry": {"type": "Point", "coordinates": [7.6780903, 51.963737]}, "properties": {"id": "osm:way:1080956723", "type": "school", "name": "Pleisterschule", "source": "OpenStreetMap/Overpass"}}, {"type": "Feature", "geometry": {"type": "Point", "coordinates": [7.6240335, 51.9509387]}, "properties": {"id": "osm:way:1081535797", "type": "kindergarten", "name": "Kita Burgstraße", "source": "OpenStreetMap/Overpass"}}, {"type": "Feature", "geometry": {"type": "Point", "coordinates": [7.6316715, 51.965668]}, "properties": {"id": "osm:way:1082141255", "type": "school", "name": "Martinischule", "source": "OpenStreetMap/Overpass"}}, {"type": "Feature", "geometry": {"type": "Point", "coordinates": [7.7523829, 52.0342227]}, "properties": {"id": "osm:way:1098647075", "type": "kindergarten", "name": "Sternenzelt", "source": "OpenStreetMap/Overpass"}}, {"type": "Feature", "geometry": {"type": "Point", "coordinates": [7.6514055, 51.9688428]}, "properties": {"id": "osm:way:1103853769", "type": "school", "name": "GenoKolleg - Genossenschaftliches Berufskolleg", "source": "OpenStreetMap/Overpass"}}, {"type": "Feature", "geometry": {"type": "Point", "coordinates": [7.6416388, 51.9577531]}, "properties": {"id": "osm:way:1110023347", "type": "kindergarten", "name": "Evangelische Sternkindertagesstätte", "source": "OpenStreetMap/Overpass"}}, {"type": "Feature", "geometry": {"type": "Point", "coordinates": [7.6412476, 51.954806]}, "properties": {"id": "osm:way:1110024971", "type": "kindergarten", "name": "Familienzentrum St. Elisabeth", "source": "OpenStreetMap/Overpass"}}, {"type": "Feature", "geometry": {"type": "Point", "coordinates": [7.5465836, 51.9507663]}, "properties": {"id": "osm:way:1119595259", "type": "kindergarten", "name": "Outlaw Nottulner Landweg", "source": "OpenStreetMap/Overpass"}}, {"type": "Feature", "geometry": {"type": "Point", "coordinates": [7.7201964, 51.9139826]}, "properties": {"id": "osm:way:1149869500", "type": "kindergarten", "name": "Kindergarten Am Schulzentrum Wolbeck", "source": "OpenStreetMap/Overpass"}}, {"type": "Feature", "geometry": {"type": "Point", "coordinates": [7.726926, 51.9254084]}, "properties": {"id": "osm:way:1150018506", "type": "kindergarten", "name": "Kita Waldbach", "source": "OpenStreetMap/Overpass"}}, {"type": "Feature", "geometry": {"type": "Point", "coordinates": [7.727756, 51.9251528]}, "properties": {"id": "osm:way:1150018507", "type": "school", "name": "Grundschule Wolbeck-Nord", "source": "OpenStreetMap/Overpass"}}, {"type": "Feature", "geometry": {"type": "Point", "coordinates": [7.6501979, 51.9637324]}, "properties": {"id": "osm:way:1152258176", "type": "school", "name": "Mauritzschule", "source": "OpenStreetMap/Overpass"}}, {"type": "Feature", "geometry": {"type": "Point", "coordinates": [7.7119779, 52.0048668]}, "properties": {"id": "osm:way:1154729502", "type": "kindergarten", "name": "Kleine Riesen Münster Willingrott", "source": "OpenStreetMap/Overpass"}}, {"type": "Feature", "geometry": {"type": "Point", "coordinates": [7.7127039, 51.9955043]}, "properties": {"id": "osm:way:1154731050", "type": "kindergarten", "name": "Kindertagesstätte Eichenaue", "source": "OpenStreetMap/Overpass"}}, {"type": "Feature", "geometry": {"type": "Point", "coordinates": [7.7134001, 52.0003251]}, "properties": {"id": "osm:way:1154731054", "type": "kindergarten", "name": "Familienzentrum Evangelische Tageseinrichtung Kinderbrücke", "source": "OpenStreetMap/Overpass"}}, {"type": "Feature", "geometry": {"type": "Point", "coordinates": [7.6996712, 51.9882044]}, "properties": {"id": "osm:way:1154731660", "type": "kindergarten", "name": "Kita St. Petronilla", "source": "OpenStreetMap/Overpass"}}, {"type": "Feature", "geometry": {"type": "Point", "coordinates": [7.704576, 51.9796274]}, "properties": {"id": "osm:way:1154732246", "type": "kindergarten", "name": "Die Wersepiraten", "source": "OpenStreetMap/Overpass"}}, {"type": "Feature", "geometry": {"type": "Point", "coordinates": [7.5931252, 51.9625361]}, "properties": {"id": "osm:way:1154800807", "type": "school", "name": "Overberg-Kolleg", "source": "OpenStreetMap/Overpass"}}, {"type": "Feature", "geometry": {"type": "Point", "coordinates": [7.6366984, 51.9764494]}, "properties": {"id": "osm:way:1155786701", "type": "kindergarten", "name": "KITA an der Gartenstraße", "source": "OpenStreetMap/Overpass"}}, {"type": "Feature", "geometry": {"type": "Point", "coordinates": [7.6701073, 51.9559091]}, "properties": {"id": "osm:way:1158388946", "type": "kindergarten", "name": "Kindergarten Drostebusch", "source": "OpenStreetMap/Overpass"}}, {"type": "Feature", "geometry": {"type": "Point", "coordinates": [7.4761336, 52.0401342]}, "properties": {"id": "osm:way:1160644772", "type": "kindergarten", "name": "Outlaw Kita Krüselblick", "source": "OpenStreetMap/Overpass"}}, {"type": "Feature", "geometry": {"type": "Point", "coordinates": [7.582459, 51.9273774]}, "properties": {"id": "osm:way:1167967046", "type": "kindergarten", "name": "", "source": "OpenStreetMap/Overpass"}}, {"type": "Feature", "geometry": {"type": "Point", "coordinates": [7.6103748, 51.9614319]}, "properties": {"id": "osm:way:1170530324", "type": "kindergarten", "name": "DRK-Kita Farbenspiel", "source": "OpenStreetMap/Overpass"}}, {"type": "Feature", "geometry": {"type": "Point", "coordinates": [7.6209956, 51.9635009]}, "properties": {"id": "osm:way:1171553860", "type": "kindergarten", "name": "Kindergruppe Dickmadame & Zappelmann", "source": "OpenStreetMap/Overpass"}}, {"type": "Feature", "geometry": {"type": "Point", "coordinates": [7.6635773, 51.9285539]}, "properties": {"id": "osm:way:1174835612", "type": "kindergarten", "name": "Sankt Hilda", "source": "OpenStreetMap/Overpass"}}, {"type": "Feature", "geometry": {"type": "Point", "coordinates": [7.6546359, 51.9576913]}, "properties": {"id": "osm:way:1196406243", "type": "school", "name": "Mathilde-Anneke-Gesamtschule", "source": "OpenStreetMap/Overpass"}}, {"type": "Feature", "geometry": {"type": "Point", "coordinates": [7.6160539, 51.9818614]}, "properties": {"id": "osm:way:1215416575", "type": "kindergarten", "name": "Kita Kinderhäuschen", "source": "OpenStreetMap/Overpass"}}, {"type": "Feature", "geometry": {"type": "Point", "coordinates": [7.6135505, 51.9389683]}, "properties": {"id": "osm:way:1247729745", "type": "kindergarten", "name": "Städtische Kindertageseinrichtung Am Inselbogen", "source": "OpenStreetMap/Overpass"}}, {"type": "Feature", "geometry": {"type": "Point", "coordinates": [7.6127299, 51.938828]}, "properties": {"id": "osm:way:1247729746", "type": "school", "name": "Matthias-Claudius-Schule", "source": "OpenStreetMap/Overpass"}}, {"type": "Feature", "geometry": {"type": "Point", "coordinates": [7.6165331, 51.9248056]}, "properties": {"id": "osm:way:1256132302", "type": "school", "name": "Primusschule", "source": "OpenStreetMap/Overpass"}}, {"type": "Feature", "geometry": {"type": "Point", "coordinates": [7.6343626, 51.9360387]}, "properties": {"id": "osm:way:1258559961", "type": "kindergarten", "name": "", "source": "OpenStreetMap/Overpass"}}, {"type": "Feature", "geometry": {"type": "Point", "coordinates": [7.6497391, 51.9883332]}, "properties": {"id": "osm:way:1278488447", "type": "kindergarten", "name": "Kita Meerwiese", "source": "OpenStreetMap/Overpass"}}, {"type": "Feature", "geometry": {"type": "Point", "coordinates": [7.6481604, 51.9672963]}, "properties": {"id": "osm:way:1279352373", "type": "kindergarten", "name": "St. Erpho", "source": "OpenStreetMap/Overpass"}}, {"type": "Feature", "geometry": {"type": "Point", "coordinates": [7.6121181, 52.0355103]}, "properties": {"id": "osm:way:1291229827", "type": "kindergarten", "name": "Kita St. Maria Magdalena", "source": "OpenStreetMap/Overpass"}}, {"type": "Feature", "geometry": {"type": "Point", "coordinates": [7.6131287, 52.0382697]}, "properties": {"id": "osm:way:1291230644", "type": "kindergarten", "name": "Kita St. Marien", "source": "OpenStreetMap/Overpass"}}, {"type": "Feature", "geometry": {"type": "Point", "coordinates": [7.6295127, 51.9427225]}, "properties": {"id": "osm:way:1301762299", "type": "kindergarten", "name": "Kita Süd", "source": "OpenStreetMap/Overpass"}}, {"type": "Feature", "geometry": {"type": "Point", "coordinates": [7.6341386, 51.962843]}, "properties": {"id": "osm:way:1301946453", "type": "kindergarten", "name": "Kindergarten Sonnenstraße", "source": "OpenStreetMap/Overpass"}}, {"type": "Feature", "geometry": {"type": "Point", "coordinates": [7.6132307, 51.9883305]}, "properties": {"id": "osm:way:1301947679", "type": "kindergarten", "name": "", "source": "OpenStreetMap/Overpass"}}, {"type": "Feature", "geometry": {"type": "Point", "coordinates": [7.6577078, 51.9686856]}, "properties": {"id": "osm:way:1301958583", "type": "kindergarten", "name": "Kita St. Pius", "source": "OpenStreetMap/Overpass"}}, {"type": "Feature", "geometry": {"type": "Point", "coordinates": [7.6514952, 51.9709502]}, "properties": {"id": "osm:way:1301960812", "type": "kindergarten", "name": "Evangelische Kindertageseeinrichtung Epiphanias", "source": "OpenStreetMap/Overpass"}}, {"type": "Feature", "geometry": {"type": "Point", "coordinates": [7.6438321, 51.9684558]}, "properties": {"id": "osm:way:1301961699", "type": "kindergarten", "name": "Kita Erphobogen", "source": "OpenStreetMap/Overpass"}}, {"type": "Feature", "geometry": {"type": "Point", "coordinates": [7.6581244, 51.9613136]}, "properties": {"id": "osm:way:1301963078", "type": "kindergarten", "name": "Sterntaler", "source": "OpenStreetMap/Overpass"}}, {"type": "Feature", "geometry": {"type": "Point", "coordinates": [7.6540428, 51.9601902]}, "properties": {"id": "osm:way:1301964684", "type": "kindergarten", "name": "Klaras Kinderhaus", "source": "OpenStreetMap/Overpass"}}, {"type": "Feature", "geometry": {"type": "Point", "coordinates": [7.6482294, 51.9542751]}, "properties": {"id": "osm:way:1302198121", "type": "kindergarten", "name": "Kita St. Agnes", "source": "OpenStreetMap/Overpass"}}, {"type": "Feature", "geometry": {"type": "Point", "coordinates": [7.6441212, 51.9554659]}, "properties": {"id": "osm:way:1302198621", "type": "kindergarten", "name": "Kita Dicker Waldemar", "source": "OpenStreetMap/Overpass"}}, {"type": "Feature", "geometry": {"type": "Point", "coordinates": [7.6378732, 51.954299]}, "properties": {"id": "osm:way:1302199477", "type": "kindergarten", "name": "Rasselbande", "source": "OpenStreetMap/Overpass"}}, {"type": "Feature", "geometry": {"type": "Point", "coordinates": [7.6287244, 51.9496445]}, "properties": {"id": "osm:way:1302202614", "type": "kindergarten", "name": "Kita Pastor Höing", "source": "OpenStreetMap/Overpass"}}, {"type": "Feature", "geometry": {"type": "Point", "coordinates": [7.6258731, 51.9495094]}, "properties": {"id": "osm:way:1302239009", "type": "kindergarten", "name": "Kita Bullerbü", "source": "OpenStreetMap/Overpass"}}, {"type": "Feature", "geometry": {"type": "Point", "coordinates": [7.6211227, 51.9483362]}, "properties": {"id": "osm:way:1302239486", "type": "kindergarten", "name": "Kita Emilienhaus", "source": "OpenStreetMap/Overpass"}}, {"type": "Feature", "geometry": {"type": "Point", "coordinates": [7.6077986, 51.9442669]}, "properties": {"id": "osm:way:1302240372", "type": "kindergarten", "name": "Kita St. Stephanus", "source": "OpenStreetMap/Overpass"}}, {"type": "Feature", "geometry": {"type": "Point", "coordinates": [7.6171153, 51.9326834]}, "properties": {"id": "osm:way:1302458455", "type": "kindergarten", "name": "Emil-Stein-Kita", "source": "OpenStreetMap/Overpass"}}, {"type": "Feature", "geometry": {"type": "Point", "coordinates": [7.6136574, 51.9308365]}, "properties": {"id": "osm:way:1302458457", "type": "kindergarten", "name": "Kita St. Gottfried", "source": "OpenStreetMap/Overpass"}}, {"type": "Feature", "geometry": {"type": "Point", "coordinates": [7.5996373, 51.9223248]}, "properties": {"id": "osm:way:1302459706", "type": "kindergarten", "name": "Die Kanalhaie", "source": "OpenStreetMap/Overpass"}}, {"type": "Feature", "geometry": {"type": "Point", "coordinates": [7.6046765, 51.9247211]}, "properties": {"id": "osm:way:1302460255", "type": "kindergarten", "name": "Der Kotten", "source": "OpenStreetMap/Overpass"}}, {"type": "Feature", "geometry": {"type": "Point", "coordinates": [7.6341224, 51.9056965]}, "properties": {"id": "osm:way:1302649082", "type": "kindergarten", "name": "Die kleinen Hobbits", "source": "OpenStreetMap/Overpass"}}, {"type": "Feature", "geometry": {"type": "Point", "coordinates": [7.633389, 51.8939628]}, "properties": {"id": "osm:way:1302729360", "type": "kindergarten", "name": "Hiltruper Strolche", "source": "OpenStreetMap/Overpass"}}, {"type": "Feature", "geometry": {"type": "Point", "coordinates": [7.6030673, 51.881224]}, "properties": {"id": "osm:way:1302730649", "type": "kindergarten", "name": "Kita Sonnentau", "source": "OpenStreetMap/Overpass"}}, {"type": "Feature", "geometry": {"type": "Point", "coordinates": [7.6058469, 51.885889]}, "properties": {"id": "osm:way:1302731120", "type": "kindergarten", "name": "Kita St. Sebastian", "source": "OpenStreetMap/Overpass"}}, {"type": "Feature", "geometry": {"type": "Point", "coordinates": [7.6007352, 51.8852046]}, "properties": {"id": "osm:way:1302764918", "type": "kindergarten", "name": "Kindergarten Landsberger Straße", "source": "OpenStreetMap/Overpass"}}, {"type": "Feature", "geometry": {"type": "Point", "coordinates": [7.5723854, 51.9261955]}, "properties": {"id": "osm:way:1302864525", "type": "kindergarten", "name": "Blatt-Werk", "source": "OpenStreetMap/Overpass"}}, {"type": "Feature", "geometry": {"type": "Point", "coordinates": [7.5793577, 51.9281684]}, "properties": {"id": "osm:way:1302872265", "type": "kindergarten", "name": "Städtische KiTa Brockmannstraße", "source": "OpenStreetMap/Overpass"}}, {"type": "Feature", "geometry": {"type": "Point", "coordinates": [7.5791186, 51.9328454]}, "properties": {"id": "osm:way:1302872836", "type": "kindergarten", "name": "In der Alten Schule", "source": "OpenStreetMap/Overpass"}}, {"type": "Feature", "geometry": {"type": "Point", "coordinates": [7.6224249, 51.9431224]}, "properties": {"id": "osm:way:1303137383", "type": "kindergarten", "name": "Fliednerhaus", "source": "OpenStreetMap/Overpass"}}, {"type": "Feature", "geometry": {"type": "Point", "coordinates": [7.6253076, 51.9446697]}, "properties": {"id": "osm:way:1303138027", "type": "kindergarten", "name": "Kita Münster Schützenhof", "source": "OpenStreetMap/Overpass"}}, {"type": "Feature", "geometry": {"type": "Point", "coordinates": [7.6244336, 51.944524]}, "properties": {"id": "osm:way:1303138030", "type": "kindergarten", "name": "KiTa Südhafen", "source": "OpenStreetMap/Overpass"}}, {"type": "Feature", "geometry": {"type": "Point", "coordinates": [7.6213635, 51.9530728]}, "properties": {"id": "osm:way:1303256523", "type": "kindergarten", "name": "Evangelischer Matthäus Kindergarten", "source": "OpenStreetMap/Overpass"}}, {"type": "Feature", "geometry": {"type": "Point", "coordinates": [7.6267678, 51.9584739]}, "properties": {"id": "osm:way:1303256524", "type": "kindergarten", "name": "Kindertagesstätte St. Ludgeri", "source": "OpenStreetMap/Overpass"}}, {"type": "Feature", "geometry": {"type": "Point", "coordinates": [7.6217865, 51.9522682]}, "properties": {"id": "osm:way:1303256525", "type": "kindergarten", "name": "Kleines Senfkorn", "source": "OpenStreetMap/Overpass"}}, {"type": "Feature", "geometry": {"type": "Point", "coordinates": [7.6505743, 51.9627401]}, "properties": {"id": "osm:way:1304601697", "type": "kindergarten", "name": "Kindergarten St. Mauritz", "source": "OpenStreetMap/Overpass"}}, {"type": "Feature", "geometry": {"type": "Point", "coordinates": [7.6962775, 51.9152715]}, "properties": {"id": "osm:way:1306908886", "type": "kindergarten", "name": "Kleine Riesen Kita und Familienzentrum Angelmodde", "source": "OpenStreetMap/Overpass"}}, {"type": "Feature", "geometry": {"type": "Point", "coordinates": [7.6955042, 51.9153841]}, "properties": {"id": "osm:way:1306908887", "type": "kindergarten", "name": "Städtische Kindertageseinrichtung Eichendorff", "source": "OpenStreetMap/Overpass"}}, {"type": "Feature", "geometry": {"type": "Point", "coordinates": [7.6805615, 51.9337647]}, "properties": {"id": "osm:way:1307000875", "type": "kindergarten", "name": "Janusz-Korczak-Haus", "source": "OpenStreetMap/Overpass"}}, {"type": "Feature", "geometry": {"type": "Point", "coordinates": [7.7329657, 51.9237487]}, "properties": {"id": "osm:way:1307216960", "type": "kindergarten", "name": "Kindergarten Holtrode", "source": "OpenStreetMap/Overpass"}}, {"type": "Feature", "geometry": {"type": "Point", "coordinates": [7.6462648, 51.9551637]}, "properties": {"id": "osm:way:1311993036", "type": "kindergarten", "name": "Hansafüchse", "source": "OpenStreetMap/Overpass"}}, {"type": "Feature", "geometry": {"type": "Point", "coordinates": [7.6757399, 52.0298943]}, "properties": {"id": "osm:way:1312808722", "type": "kindergarten", "name": "St. Josef", "source": "OpenStreetMap/Overpass"}}, {"type": "Feature", "geometry": {"type": "Point", "coordinates": [7.6159609, 51.9673772]}, "properties": {"id": "osm:way:1316971007", "type": "kindergarten", "name": "Kita am Schlossplatz", "source": "OpenStreetMap/Overpass"}}, {"type": "Feature", "geometry": {"type": "Point", "coordinates": [7.5325897, 51.9230711]}, "properties": {"id": "osm:way:1342509436", "type": "kindergarten", "name": "Kleine Riesen Kita Albachten", "source": "OpenStreetMap/Overpass"}}, {"type": "Feature", "geometry": {"type": "Point", "coordinates": [7.5994664, 51.9958589]}, "properties": {"id": "osm:way:1356686825", "type": "kindergarten", "name": "Kindergarten Langebusch", "source": "OpenStreetMap/Overpass"}}, {"type": "Feature", "geometry": {"type": "Point", "coordinates": [7.648385, 51.9556962]}, "properties": {"id": "osm:way:1416585858", "type": "kindergarten", "name": "Kita Herz Jesu", "source": "OpenStreetMap/Overpass"}}, {"type": "Feature", "geometry": {"type": "Point", "coordinates": [7.6557527, 51.9576087]}, "properties": {"id": "osm:way:1425283553", "type": "kindergarten", "name": "Alte Mauritzschule", "source": "OpenStreetMap/Overpass"}}, {"type": "Feature", "geometry": {"type": "Point", "coordinates": [7.5844415, 51.9304757]}, "properties": {"id": "osm:way:1425582207", "type": "school", "name": "Peter-Wust-Schule", "source": "OpenStreetMap/Overpass"}}, {"type": "Feature", "geometry": {"type": "Point", "coordinates": [7.6687145, 51.9251311]}, "properties": {"id": "osm:way:1425737909", "type": "school", "name": "Grundschule York", "source": "OpenStreetMap/Overpass"}}, {"type": "Feature", "geometry": {"type": "Point", "coordinates": [7.6699738, 51.9256861]}, "properties": {"id": "osm:way:1426564579", "type": "kindergarten", "name": "Raphael-Friedeberg-Kita", "source": "OpenStreetMap/Overpass"}}, {"type": "Feature", "geometry": {"type": "Point", "coordinates": [7.5706385, 51.9618857]}, "properties": {"id": "osm:way:1428525849", "type": "kindergarten", "name": "DRK-Kita Hand in Hand", "source": "OpenStreetMap/Overpass"}}, {"type": "Feature", "geometry": {"type": "Point", "coordinates": [7.6163901, 51.9740861]}, "properties": {"id": "osm:way:1461909200", "type": "kindergarten", "name": "Evangelische Kindertageseinrichtung Friesenring", "source": "OpenStreetMap/Overpass"}}, {"type": "Feature", "geometry": {"type": "Point", "coordinates": [7.6263204, 51.9712657]}, "properties": {"id": "osm:way:1471782736", "type": "kindergarten", "name": "", "source": "OpenStreetMap/Overpass"}}, {"type": "Feature", "geometry": {"type": "Point", "coordinates": [7.6616712, 51.9280658]}, "properties": {"id": "osm:way:1504838691", "type": "kindergarten", "name": "", "source": "OpenStreetMap/Overpass"}}, {"type": "Feature", "geometry": {"type": "Point", "coordinates": [7.6072408, 51.8848418]}, "properties": {"id": "osm:way:1527838038", "type": "school", "name": "Davertschule", "source": "OpenStreetMap/Overpass"}}, {"type": "Feature", "geometry": {"type": "Point", "coordinates": [7.6110685, 51.8782145]}, "properties": {"id": "osm:way:1527838926", "type": "kindergarten", "name": "Pezzettino", "source": "OpenStreetMap/Overpass"}}, {"type": "Feature", "geometry": {"type": "Point", "coordinates": [7.6707934, 51.9317382]}, "properties": {"id": "osm:relation:4644616", "type": "school", "name": "Idaschule", "source": "OpenStreetMap/Overpass"}}, {"type": "Feature", "geometry": {"type": "Point", "coordinates": [7.7399456, 51.8656395]}, "properties": {"id": "osm:relation:14712709", "type": "kindergarten", "name": "Kita Kohkamp", "source": "OpenStreetMap/Overpass"}}, {"type": "Feature", "geometry": {"type": "Point", "coordinates": [7.6531735, 51.9578729]}, "properties": {"id": "osm:relation:19062179", "type": "school", "name": "Anne-Frank-Berufskolleg", "source": "OpenStreetMap/Overpass"}}, {"type": "Feature", "geometry": {"type": "Point", "coordinates": [7.6235772, 51.9547034]}, "properties": {"id": "osm:relation:20201611", "type": "school", "name": "Bischöfliches Mädchengymnasium Marienschule", "source": "OpenStreetMap/Overpass"}}]}
