{"type": "FeatureCollection", "features": [{"type": "Feature", "geometry": {"type": "Point", "coordinates": [10.7162515, 52.4603287]}, "properties": {"id": "osm:node:251774176", "type": "school", "name": "Grundschule Weyhausen", "source": "OpenStreetMap/Overpass"}}, {"type": "Feature", "geometry": {"type": "Point", "coordinates": [10.8040661, 52.3266885]}, "properties": {"id": "osm:node:392602230", "type": "kindergarten", "name": "", "source": "OpenStreetMap/Overpass"}}, {"type": "Feature", "geometry": {"type": "Point", "coordinates": [10.7799936, 52.4255255]}, "properties": {"id": "osm:node:443037235", "type": "school", "name": "BBS-2", "source": "OpenStreetMap/Overpass"}}, {"type": "Feature", "geometry": {"type": "Point", "coordinates": [10.7423582, 52.3599787]}, "properties": {"id": "osm:node:1120092854", "type": "kindergarten", "name": "Kindertagesstätte an der Schunter", "source": "OpenStreetMap/Overpass"}}, {"type": "Feature", "geometry": {"type": "Point", "coordinates": [10.7149721, 52.4026244]}, "properties": {"id": "osm:node:1240511668", "type": "kindergarten", "name": "grünes Klassenzimmer", "source": "OpenStreetMap/Overpass"}}, {"type": "Feature", "geometry": {"type": "Point", "coordinates": [10.7449381, 52.3525652]}, "properties": {"id": "osm:node:1984301698", "type": "kindergarten", "name": "Regenbogenkindergarten Beienrode", "source": "OpenStreetMap/Overpass"}}, {"type": "Feature", "geometry": {"type": "Point", "coordinates": [10.6950523, 52.4141534]}, "properties": {"id": "osm:node:2100333636", "type": "school", "name": "Mäusewerkstatt Wolfsburg-Sülfeld", "source": "OpenStreetMap/Overpass"}}, {"type": "Feature", "geometry": {"type": "Point", "coordinates": [10.8046209, 52.382123]}, "properties": {"id": "osm:node:2132436119", "type": "kindergarten", "name": "Kita Kunterbunt", "source": "OpenStreetMap/Overpass"}}, {"type": "Feature", "geometry": {"type": "Point", "coordinates": [10.7968144, 52.4287074]}, "properties": {"id": "osm:node:3191865164", "type": "kindergarten", "name": "Doki Kinderbetreuung", "source": "OpenStreetMap/Overpass"}}, {"type": "Feature", "geometry": {"type": "Point", "coordinates": [10.8565598, 52.4157176]}, "properties": {"id": "osm:node:3770933853", "type": "kindergarten", "name": "DRK Kindertagesstätte Burg Neuhaus", "source": "OpenStreetMap/Overpass"}}, {"type": "Feature", "geometry": {"type": "Point", "coordinates": [10.7016599, 52.4221729]}, "properties": {"id": "osm:node:5580488597", "type": "kindergarten", "name": "Kindergarten DRK West", "source": "OpenStreetMap/Overpass"}}, {"type": "Feature", "geometry": {"type": "Point", "coordinates": [10.7491189, 52.3894514]}, "properties": {"id": "osm:node:7972695582", "type": "school", "name": "BBS Anne-Marie Tausch", "source": "OpenStreetMap/Overpass"}}, {"type": "Feature", "geometry": {"type": "Point", "coordinates": [10.7829724, 52.4057751]}, "properties": {"id": "osm:node:8173234543", "type": "kindergarten", "name": "Die kleinen Raben", "source": "OpenStreetMap/Overpass"}}, {"type": "Feature", "geometry": {"type": "Point", "coordinates": [10.740509, 52.4065475]}, "properties": {"id": "osm:node:8267264329", "type": "school", "name": "Regenbogenschule", "source": "OpenStreetMap/Overpass"}}, {"type": "Feature", "geometry": {"type": "Point", "coordinates": [10.7411796, 52.4033942]}, "properties": {"id": "osm:node:8757472982", "type": "school", "name": "Albert-Schweitzer-Gymnasium", "source": "OpenStreetMap/Overpass"}}, {"type": "Feature", "geometry": {"type": "Point", "coordinates": [10.7411796, 52.4033222]}, "properties": {"id": "osm:node:8757472983", "type": "school", "name": "Wolfsburger Oberschule", "source": "OpenStreetMap/Overpass"}}, {"type": "Feature", "geometry": {"type": "Point", "coordinates": [10.8195162, 52.4133981]}, "properties": {"id": "osm:node:9360488072", "type": "kindergarten", "name": "Kita Steimker Gärten", "source": "OpenStreetMap/Overpass"}}, {"type": "Feature", "geometry": {"type": "Point", "coordinates": [10.7122332, 52.4105349]}, "properties": {"id": "osm:node:9636233292", "type": "school", "name": "Hauptschule Fallersleben", "source": "OpenStreetMap/Overpass"}}, {"type": "Feature", "geometry": {"type": "Point", "coordinates": [10.7126246, 52.4117196]}, "properties": {"id": "osm:node:9643829368", "type": "school", "name": "Hoffmann-von-Fallersleben-Realschule", "source": "OpenStreetMap/Overpass"}}, {"type": "Feature", "geometry": {"type": "Point", "coordinates": [10.7135929, 52.4117289]}, "properties": {"id": "osm:node:9643829369", "type": "school", "name": "Gymnasium Fallersleben", "source": "OpenStreetMap/Overpass"}}, {"type": "Feature", "geometry": {"type": "Point", "coordinates": [10.7562302, 52.3948952]}, "properties": {"id": "osm:node:10135105670", "type": "kindergarten", "name": "Waldorfkindergarten", "source": "OpenStreetMap/Overpass"}}, {"type": "Feature", "geometry": {"type": "Point", "coordinates": [10.7151945, 52.4607776]}, "properties": {"id": "osm:node:10219239142", "type": "school", "name": "Christian-Albinus-Oberschule Weyhausen", "source": "OpenStreetMap/Overpass"}}, {"type": "Feature", "geometry": {"type": "Point", "coordinates": [10.8322848, 52.44397]}, "properties": {"id": "osm:node:12062139170", "type": "school", "name": "Phoenix Gymnasium Wolfsburg-Vorsfelde", "source": "OpenStreetMap/Overpass"}}, {"type": "Feature", "geometry": {"type": "Point", "coordinates": [10.7094805, 52.3564542]}, "properties": {"id": "osm:way:23988729", "type": "school", "name": "Schunterschule Flechtorf", "source": "OpenStreetMap/Overpass"}}, {"type": "Feature", "geometry": {"type": "Point", "coordinates": [10.748074, 52.4031938]}, "properties": {"id": "osm:way:24430237", "type": "school", "name": "Heinrich-Nordhoff-Gesamtschule (IGS)", "source": "OpenStreetMap/Overpass"}}, {"type": "Feature", "geometry": {"type": "Point", "coordinates": [10.7421965, 52.403057]}, "properties": {"id": "osm:way:24430354", "type": "school", "name": "Schulzentrum Westhagen", "source": "OpenStreetMap/Overpass"}}, {"type": "Feature", "geometry": {"type": "Point", "coordinates": [10.7800351, 52.4259952]}, "properties": {"id": "osm:way:24675604", "type": "school", "name": "BBS 2", "source": "OpenStreetMap/Overpass"}}, {"type": "Feature", "geometry": {"type": "Point", "coordinates": [10.717284, 52.4180468]}, "properties": {"id": "osm:way:25653768", "type": "school", "name": "Grundschule Fallersleben - Eulenschule", "source": "OpenStreetMap/Overpass"}}, {"type": "Feature", "geometry": {"type": "Point", "coordinates": [10.7381931, 52.4038618]}, "properties": {"id": "osm:way:25681681", "type": "kindergarten", "name": "Kindertagesstätte Bonhoefferkirchengemeinde", "source": "OpenStreetMap/Overpass"}}, {"type": "Feature", "geometry": {"type": "Point", "coordinates": [10.8925201, 52.4888225]}, "properties": {"id": "osm:way:28039797", "type": "school", "name": "Johannes-Gutenberg-Schule", "source": "OpenStreetMap/Overpass"}}, {"type": "Feature", "geometry": {"type": "Point", "coordinates": [10.8893488, 52.4862616]}, "properties": {"id": "osm:way:28039805", "type": "school", "name": "", "source": "OpenStreetMap/Overpass"}}, {"type": "Feature", "geometry": {"type": "Point", "coordinates": [10.7929112, 52.453392]}, "properties": {"id": "osm:way:29176579", "type": "school", "name": "Leonardo da Vinci Gesamtschule (IGS)", "source": "OpenStreetMap/Overpass"}}, {"type": "Feature", "geometry": {"type": "Point", "coordinates": [10.7477642, 52.416382]}, "properties": {"id": "osm:way:29734385", "type": "school", "name": "Laagbergschule", "source": "OpenStreetMap/Overpass"}}, {"type": "Feature", "geometry": {"type": "Point", "coordinates": [10.8152825, 52.4463832]}, "properties": {"id": "osm:way:29902211", "type": "school", "name": "Leonardo da Vinci Grundschule", "source": "OpenStreetMap/Overpass"}}, {"type": "Feature", "geometry": {"type": "Point", "coordinates": [10.790477, 52.4232432]}, "properties": {"id": "osm:way:29974270", "type": "school", "name": "Ratsgymnasium - Außenstelle", "source": "OpenStreetMap/Overpass"}}, {"type": "Feature", "geometry": {"type": "Point", "coordinates": [10.800795, 52.4452821]}, "properties": {"id": "osm:way:30120459", "type": "school", "name": "Grundschule Alt-Wolfsburg", "source": "OpenStreetMap/Overpass"}}, {"type": "Feature", "geometry": {"type": "Point", "coordinates": [10.741581, 52.3965056]}, "properties": {"id": "osm:way:30780836", "type": "school", "name": "Wolfsburg-Kolleg", "source": "OpenStreetMap/Overpass"}}, {"type": "Feature", "geometry": {"type": "Point", "coordinates": [10.7883539, 52.4154859]}, "properties": {"id": "osm:way:30781565", "type": "school", "name": "Eichendorffschule", "source": "OpenStreetMap/Overpass"}}, {"type": "Feature", "geometry": {"type": "Point", "coordinates": [10.7411655, 52.3960201]}, "properties": {"id": "osm:way:30796695", "type": "school", "name": "Bunte Grundschule Standort Westhagen", "source": "OpenStreetMap/Overpass"}}, {"type": "Feature", "geometry": {"type": "Point", "coordinates": [10.7898886, 52.4228861]}, "properties": {"id": "osm:way:32772707", "type": "kindergarten", "name": "Städtische Kindertagesstätte in der City", "source": "OpenStreetMap/Overpass"}}, {"type": "Feature", "geometry": {"type": "Point", "coordinates": [10.8143869, 52.4262777]}, "properties": {"id": "osm:way:34886150", "type": "school", "name": "Berufsschule", "source": "OpenStreetMap/Overpass"}}, {"type": "Feature", "geometry": {"type": "Point", "coordinates": [10.7590674, 52.418701]}, "properties": {"id": "osm:way:37427780", "type": "school", "name": "Theodor-Heuss-Gymnasium Außenstelle", "source": "OpenStreetMap/Overpass"}}, {"type": "Feature", "geometry": {"type": "Point", "coordinates": [10.8315012, 52.4436961]}, "properties": {"id": "osm:way:38215625", "type": "school", "name": "Schulzentrum Vorsfelde", "source": "OpenStreetMap/Overpass"}}, {"type": "Feature", "geometry": {"type": "Point", "coordinates": [10.6738008, 52.329016]}, "properties": {"id": "osm:way:38307031", "type": "school", "name": "Grundschule Lehre", "source": "OpenStreetMap/Overpass"}}, {"type": "Feature", "geometry": {"type": "Point", "coordinates": [10.7697592, 52.4187751]}, "properties": {"id": "osm:way:38307127", "type": "school", "name": "Theodor-Heuss-Gymnasium", "source": "OpenStreetMap/Overpass"}}, {"type": "Feature", "geometry": {"type": "Point", "coordinates": [10.6717521, 52.3296747]}, "properties": {"id": "osm:way:38307146", "type": "school", "name": "Oberschule Lehre", "source": "OpenStreetMap/Overpass"}}, {"type": "Feature", "geometry": {"type": "Point", "coordinates": [10.8893304, 52.4861978]}, "properties": {"id": "osm:way:41850003", "type": "school", "name": "Realschule am Drömling", "source": "OpenStreetMap/Overpass"}}, {"type": "Feature", "geometry": {"type": "Point", "coordinates": [10.8891418, 52.4856936]}, "properties": {"id": "osm:way:41850005", "type": "school", "name": "Grundschule Rühen", "source": "OpenStreetMap/Overpass"}}, {"type": "Feature", "geometry": {"type": "Point", "coordinates": [10.8326106, 52.4438981]}, "properties": {"id": "osm:way:42723948", "type": "school", "name": "", "source": "OpenStreetMap/Overpass"}}, {"type": "Feature", "geometry": {"type": "Point", "coordinates": [10.8356698, 52.4388076]}, "properties": {"id": "osm:way:42746663", "type": "school", "name": "Grundschule Am Drömling Standort Altstadt", "source": "OpenStreetMap/Overpass"}}, {"type": "Feature", "geometry": {"type": "Point", "coordinates": [10.8060617, 52.4431378]}, "properties": {"id": "osm:way:44650290", "type": "childcare", "name": "Kindertagesstätte St. Bernward", "source": "OpenStreetMap/Overpass"}}, {"type": "Feature", "geometry": {"type": "Point", "coordinates": [10.732677, 52.3948618]}, "properties": {"id": "osm:way:44681607", "type": "school", "name": "Grundschule Mörse", "source": "OpenStreetMap/Overpass"}}, {"type": "Feature", "geometry": {"type": "Point", "coordinates": [10.8349911, 52.4175712]}, "properties": {"id": "osm:way:44683866", "type": "kindergarten", "name": "Edith Stein Kindergarten", "source": "OpenStreetMap/Overpass"}}, {"type": "Feature", "geometry": {"type": "Point", "coordinates": [10.7571839, 52.4174895]}, "properties": {"id": "osm:way:44745721", "type": "kindergarten", "name": "Kindertagesstätte St. Joseph", "source": "OpenStreetMap/Overpass"}}, {"type": "Feature", "geometry": {"type": "Point", "coordinates": [10.7905608, 52.4071671]}, "properties": {"id": "osm:way:54979283", "type": "school", "name": "Eichendorffschule", "source": "OpenStreetMap/Overpass"}}, {"type": "Feature", "geometry": {"type": "Point", "coordinates": [10.7171914, 52.4638706]}, "properties": {"id": "osm:way:62373872", "type": "kindergarten", "name": "Kindertagesstätte Weyhausen", "source": "OpenStreetMap/Overpass"}}, {"type": "Feature", "geometry": {"type": "Point", "coordinates": [10.7665168, 52.4217091]}, "properties": {"id": "osm:way:145421916", "type": "kindergarten", "name": "Kita der Kreuz-Kirchengemeinde", "source": "OpenStreetMap/Overpass"}}, {"type": "Feature", "geometry": {"type": "Point", "coordinates": [10.7653494, 52.4144429]}, "properties": {"id": "osm:way:148932367", "type": "kindergarten", "name": "Kindertagesstätte am Klinikum", "source": "OpenStreetMap/Overpass"}}, {"type": "Feature", "geometry": {"type": "Point", "coordinates": [10.7656869, 52.4136729]}, "properties": {"id": "osm:way:148932377", "type": "childcare", "name": "Haus K2", "source": "OpenStreetMap/Overpass"}}, {"type": "Feature", "geometry": {"type": "Point", "coordinates": [10.7995763, 52.4164251]}, "properties": {"id": "osm:way:154672585", "type": "school", "name": "Friedrich-von-Schiller-Grundschule", "source": "OpenStreetMap/Overpass"}}, {"type": "Feature", "geometry": {"type": "Point", "coordinates": [10.789065, 52.4201355]}, "properties": {"id": "osm:way:154721839", "type": "school", "name": "Ratsgymnasium", "source": "OpenStreetMap/Overpass"}}, {"type": "Feature", "geometry": {"type": "Point", "coordinates": [10.775855, 52.404549]}, "properties": {"id": "osm:way:155667841", "type": "kindergarten", "name": "Kath. Kindertagesstätte St. Heinrich", "source": "OpenStreetMap/Overpass"}}, {"type": "Feature", "geometry": {"type": "Point", "coordinates": [10.7620786, 52.4079529]}, "properties": {"id": "osm:way:155990066", "type": "school", "name": "Waldschule Eichelkamp", "source": "OpenStreetMap/Overpass"}}, {"type": "Feature", "geometry": {"type": "Point", "coordinates": [10.7432711, 52.3987265]}, "properties": {"id": "osm:way:157529445", "type": "kindergarten", "name": "Kita DRK Kinder- und Familienzentrum Westhagen", "source": "OpenStreetMap/Overpass"}}, {"type": "Feature", "geometry": {"type": "Point", "coordinates": [10.6688845, 52.3529507]}, "properties": {"id": "osm:way:172231486", "type": "kindergarten", "name": "Kindertagesstätte \"Hand in Hand\"", "source": "OpenStreetMap/Overpass"}}, {"type": "Feature", "geometry": {"type": "Point", "coordinates": [10.719566, 52.4676475]}, "properties": {"id": "osm:way:172816364", "type": "childcare", "name": "Krippe Weyhausen", "source": "OpenStreetMap/Overpass"}}, {"type": "Feature", "geometry": {"type": "Point", "coordinates": [10.7157223, 52.4606499]}, "properties": {"id": "osm:way:204265770", "type": "school", "name": "Schulzentrum Weyhausen", "source": "OpenStreetMap/Overpass"}}, {"type": "Feature", "geometry": {"type": "Point", "coordinates": [10.8672937, 52.4829801]}, "properties": {"id": "osm:way:217359410", "type": "kindergarten", "name": "Kindertagesstätte „Kunterbunt“", "source": "OpenStreetMap/Overpass"}}, {"type": "Feature", "geometry": {"type": "Point", "coordinates": [10.7418225, 52.4066385]}, "properties": {"id": "osm:way:223973331", "type": "kindergarten", "name": "Kinderhaus Westhagen", "source": "OpenStreetMap/Overpass"}}, {"type": "Feature", "geometry": {"type": "Point", "coordinates": [10.7301954, 52.3927876]}, "properties": {"id": "osm:way:229389630", "type": "kindergarten", "name": "DRK-Kindertagesstätte Mörse", "source": "OpenStreetMap/Overpass"}}, {"type": "Feature", "geometry": {"type": "Point", "coordinates": [10.6831999, 52.4729135]}, "properties": {"id": "osm:way:238947981", "type": "kindergarten", "name": "", "source": "OpenStreetMap/Overpass"}}, {"type": "Feature", "geometry": {"type": "Point", "coordinates": [10.6824872, 52.4723942]}, "properties": {"id": "osm:way:238947983", "type": "school", "name": "Mühlenbergschule", "source": "OpenStreetMap/Overpass"}}, {"type": "Feature", "geometry": {"type": "Point", "coordinates": [10.8294732, 52.3328263]}, "properties": {"id": "osm:way:256691216", "type": "kindergarten", "name": "DRK Kindergarten", "source": "OpenStreetMap/Overpass"}}, {"type": "Feature", "geometry": {"type": "Point", "coordinates": [10.829464, 52.333196]}, "properties": {"id": "osm:way:256691302", "type": "kindergarten", "name": "DRK Kita", "source": "OpenStreetMap/Overpass"}}, {"type": "Feature", "geometry": {"type": "Point", "coordinates": [10.8573844, 52.4135424]}, "properties": {"id": "osm:way:283003255", "type": "school", "name": "Käferschule (GS 25)", "source": "OpenStreetMap/Overpass"}}, {"type": "Feature", "geometry": {"type": "Point", "coordinates": [10.8309503, 52.3956889]}, "properties": {"id": "osm:way:283244117", "type": "kindergarten", "name": "DRK-Kita Nordsteimke", "source": "OpenStreetMap/Overpass"}}, {"type": "Feature", "geometry": {"type": "Point", "coordinates": [10.8359691, 52.4168694]}, "properties": {"id": "osm:way:283336392", "type": "school", "name": "Grundschule Käferschule", "source": "OpenStreetMap/Overpass"}}, {"type": "Feature", "geometry": {"type": "Point", "coordinates": [10.8164052, 52.4263519]}, "properties": {"id": "osm:way:283589315", "type": "school", "name": "", "source": "OpenStreetMap/Overpass"}}, {"type": "Feature", "geometry": {"type": "Point", "coordinates": [10.8144449, 52.4261642]}, "properties": {"id": "osm:way:286028257", "type": "school", "name": "", "source": "OpenStreetMap/Overpass"}}, {"type": "Feature", "geometry": {"type": "Point", "coordinates": [10.6737704, 52.3290459]}, "properties": {"id": "osm:way:286386273", "type": "school", "name": "", "source": "OpenStreetMap/Overpass"}}, {"type": "Feature", "geometry": {"type": "Point", "coordinates": [10.6717319, 52.3296065]}, "properties": {"id": "osm:way:286386274", "type": "school", "name": "", "source": "OpenStreetMap/Overpass"}}, {"type": "Feature", "geometry": {"type": "Point", "coordinates": [10.6735968, 52.3298025]}, "properties": {"id": "osm:way:286386276", "type": "kindergarten", "name": "Kita Kunterbunt", "source": "OpenStreetMap/Overpass"}}, {"type": "Feature", "geometry": {"type": "Point", "coordinates": [10.7118224, 52.3999991]}, "properties": {"id": "osm:way:287639054", "type": "kindergarten", "name": "Kerkenkita", "source": "OpenStreetMap/Overpass"}}, {"type": "Feature", "geometry": {"type": "Point", "coordinates": [10.6811564, 52.413872]}, "properties": {"id": "osm:way:287698729", "type": "kindergarten", "name": "Kath. St. Marien Kindertagesstätte", "source": "OpenStreetMap/Overpass"}}, {"type": "Feature", "geometry": {"type": "Point", "coordinates": [10.8414232, 52.4316777]}, "properties": {"id": "osm:way:292407334", "type": "school", "name": "Grundschule Am Drömling Standort Moorkämpe", "source": "OpenStreetMap/Overpass"}}, {"type": "Feature", "geometry": {"type": "Point", "coordinates": [10.722751, 52.412617]}, "properties": {"id": "osm:way:329141599", "type": "school", "name": "Grundschule Fallersleben", "source": "OpenStreetMap/Overpass"}}, {"type": "Feature", "geometry": {"type": "Point", "coordinates": [10.7225048, 52.4117287]}, "properties": {"id": "osm:way:329143170", "type": "kindergarten", "name": "Kindertagesstätte Michaelis", "source": "OpenStreetMap/Overpass"}}, {"type": "Feature", "geometry": {"type": "Point", "coordinates": [10.8511, 52.4336515]}, "properties": {"id": "osm:way:352359919", "type": "kindergarten", "name": "Kinder- und Familienzentrum Johannes Vorsfelde", "source": "OpenStreetMap/Overpass"}}, {"type": "Feature", "geometry": {"type": "Point", "coordinates": [10.851068, 52.4337149]}, "properties": {"id": "osm:way:352360044", "type": "kindergarten", "name": "", "source": "OpenStreetMap/Overpass"}}, {"type": "Feature", "geometry": {"type": "Point", "coordinates": [10.7749746, 52.4197748]}, "properties": {"id": "osm:way:357495659", "type": "school", "name": "Neue Schule Wolfsburg Außenstelle", "source": "OpenStreetMap/Overpass"}}, {"type": "Feature", "geometry": {"type": "Point", "coordinates": [10.7812702, 52.4184155]}, "properties": {"id": "osm:way:357670655", "type": "school", "name": "Neue Schule", "source": "OpenStreetMap/Overpass"}}, {"type": "Feature", "geometry": {"type": "Point", "coordinates": [10.7641234, 52.4224739]}, "properties": {"id": "osm:way:358126136", "type": "school", "name": "Wohltbergschule", "source": "OpenStreetMap/Overpass"}}, {"type": "Feature", "geometry": {"type": "Point", "coordinates": [10.7497266, 52.3903872]}, "properties": {"id": "osm:way:358194265", "type": "school", "name": "", "source": "OpenStreetMap/Overpass"}}, {"type": "Feature", "geometry": {"type": "Point", "coordinates": [10.7806805, 52.4274238]}, "properties": {"id": "osm:way:359168782", "type": "school", "name": "Carl-Hahn-Schule", "source": "OpenStreetMap/Overpass"}}, {"type": "Feature", "geometry": {"type": "Point", "coordinates": [10.8065238, 52.4216228]}, "properties": {"id": "osm:way:359300966", "type": "school", "name": "Hellwinkelschule", "source": "OpenStreetMap/Overpass"}}, {"type": "Feature", "geometry": {"type": "Point", "coordinates": [10.8523105, 52.4565004]}, "properties": {"id": "osm:way:359309577", "type": "school", "name": "Grundschule Wendschott", "source": "OpenStreetMap/Overpass"}}, {"type": "Feature", "geometry": {"type": "Point", "coordinates": [10.8015853, 52.4437]}, "properties": {"id": "osm:way:359312551", "type": "school", "name": "Peter-Pan-Schule", "source": "OpenStreetMap/Overpass"}}, {"type": "Feature", "geometry": {"type": "Point", "coordinates": [10.8284355, 52.4014599]}, "properties": {"id": "osm:way:359321840", "type": "school", "name": "Hellwinkelschule (GS 9)", "source": "OpenStreetMap/Overpass"}}, {"type": "Feature", "geometry": {"type": "Point", "coordinates": [10.8522415, 52.3876685]}, "properties": {"id": "osm:way:359321841", "type": "school", "name": "Hellwinkelschule (GS 9)", "source": "OpenStreetMap/Overpass"}}, {"type": "Feature", "geometry": {"type": "Point", "coordinates": [10.7057074, 52.3946922]}, "properties": {"id": "osm:way:359324276", "type": "school", "name": "Grundschule Ehmen (GS22)", "source": "OpenStreetMap/Overpass"}}, {"type": "Feature", "geometry": {"type": "Point", "coordinates": [10.7809517, 52.3485551]}, "properties": {"id": "osm:way:359324279", "type": "school", "name": "Grundschule Schunterwiesen", "source": "OpenStreetMap/Overpass"}}, {"type": "Feature", "geometry": {"type": "Point", "coordinates": [10.6884674, 52.4127844]}, "properties": {"id": "osm:way:359326511", "type": "school", "name": "Grundschule Sülfeld", "source": "OpenStreetMap/Overpass"}}, {"type": "Feature", "geometry": {"type": "Point", "coordinates": [10.7565253, 52.3954445]}, "properties": {"id": "osm:way:359348276", "type": "school", "name": "Freie Waldorfschule Wolfsburg", "source": "OpenStreetMap/Overpass"}}, {"type": "Feature", "geometry": {"type": "Point", "coordinates": [10.8238355, 52.4760622]}, "properties": {"id": "osm:way:372983217", "type": "kindergarten", "name": "Regenbogenland (St. Petrus II)", "source": "OpenStreetMap/Overpass"}}, {"type": "Feature", "geometry": {"type": "Point", "coordinates": [10.7086387, 52.3568159]}, "properties": {"id": "osm:way:380551415", "type": "kindergarten", "name": "Kindertagesstätte Flechtorf", "source": "OpenStreetMap/Overpass"}}, {"type": "Feature", "geometry": {"type": "Point", "coordinates": [10.6752016, 52.3273956]}, "properties": {"id": "osm:way:381766838", "type": "kindergarten", "name": "Kita An der Feuerwehr", "source": "OpenStreetMap/Overpass"}}, {"type": "Feature", "geometry": {"type": "Point", "coordinates": [10.7090316, 52.3567862]}, "properties": {"id": "osm:way:392089700", "type": "school", "name": "", "source": "OpenStreetMap/Overpass"}}, {"type": "Feature", "geometry": {"type": "Point", "coordinates": [10.7171556, 52.4162645]}, "properties": {"id": "osm:way:397858426", "type": "kindergarten", "name": "Städtische Kita am Schlosspark", "source": "OpenStreetMap/Overpass"}}, {"type": "Feature", "geometry": {"type": "Point", "coordinates": [10.7467311, 52.4282317]}, "properties": {"id": "osm:way:421448025", "type": "kindergarten", "name": "Kindertagesstätte Sandkamp", "source": "OpenStreetMap/Overpass"}}, {"type": "Feature", "geometry": {"type": "Point", "coordinates": [10.7427687, 52.4735123]}, "properties": {"id": "osm:way:464322275", "type": "childcare", "name": "", "source": "OpenStreetMap/Overpass"}}, {"type": "Feature", "geometry": {"type": "Point", "coordinates": [10.7479873, 52.4143052]}, "properties": {"id": "osm:way:558517977", "type": "kindergarten", "name": "Paulus-Kindergarten", "source": "OpenStreetMap/Overpass"}}, {"type": "Feature", "geometry": {"type": "Point", "coordinates": [10.8521868, 52.387505]}, "properties": {"id": "osm:way:591394565", "type": "kindergarten", "name": "", "source": "OpenStreetMap/Overpass"}}, {"type": "Feature", "geometry": {"type": "Point", "coordinates": [10.7860664, 52.4071907]}, "properties": {"id": "osm:way:612366613", "type": "kindergarten", "name": "Johannes Kindertagesstätte", "source": "OpenStreetMap/Overpass"}}, {"type": "Feature", "geometry": {"type": "Point", "coordinates": [10.816001, 52.444811]}, "properties": {"id": "osm:way:656797847", "type": "childcare", "name": "Kindertagesstätte St. Thomas", "source": "OpenStreetMap/Overpass"}}, {"type": "Feature", "geometry": {"type": "Point", "coordinates": [10.7153231, 52.4100689]}, "properties": {"id": "osm:way:661740655", "type": "kindergarten", "name": "VfB-Bewegungskita", "source": "OpenStreetMap/Overpass"}}, {"type": "Feature", "geometry": {"type": "Point", "coordinates": [10.8072209, 52.4219927]}, "properties": {"id": "osm:way:707215231", "type": "kindergarten", "name": "Kita Campus Hellwinkel", "source": "OpenStreetMap/Overpass"}}, {"type": "Feature", "geometry": {"type": "Point", "coordinates": [10.7772441, 52.4494272]}, "properties": {"id": "osm:way:711269711", "type": "kindergarten", "name": "Städtische Kindertagesstätte Hinter den Gärten", "source": "OpenStreetMap/Overpass"}}, {"type": "Feature", "geometry": {"type": "Point", "coordinates": [10.7772764, 52.4494655]}, "properties": {"id": "osm:way:742303407", "type": "kindergarten", "name": "Städtische Kindergartenstätte Hinter den Gärten", "source": "OpenStreetMap/Overpass"}}, {"type": "Feature", "geometry": {"type": "Point", "coordinates": [10.7921951, 52.4542831]}, "properties": {"id": "osm:way:788283560", "type": "kindergarten", "name": "Kinder- und Familienzentrum (KiFaZ) Kreuzheide", "source": "OpenStreetMap/Overpass"}}, {"type": "Feature", "geometry": {"type": "Point", "coordinates": [10.8349366, 52.4176552]}, "properties": {"id": "osm:way:837437719", "type": "kindergarten", "name": "Edith Stein Kindergarten", "source": "OpenStreetMap/Overpass"}}, {"type": "Feature", "geometry": {"type": "Point", "coordinates": [10.7581049, 52.3965545]}, "properties": {"id": "osm:way:854848274", "type": "kindergarten", "name": "Stephanus I Kindergarten Wolfsburg-Detmerode", "source": "OpenStreetMap/Overpass"}}, {"type": "Feature", "geometry": {"type": "Point", "coordinates": [10.8052813, 52.4184326]}, "properties": {"id": "osm:way:867973590", "type": "kindergarten", "name": "Kita des Diakonischen Werkes", "source": "OpenStreetMap/Overpass"}}, {"type": "Feature", "geometry": {"type": "Point", "coordinates": [10.8301292, 52.3328608]}, "properties": {"id": "osm:way:887294415", "type": "school", "name": "Grundschule Hasenwinkel", "source": "OpenStreetMap/Overpass"}}, {"type": "Feature", "geometry": {"type": "Point", "coordinates": [10.7989235, 52.4148967]}, "properties": {"id": "osm:way:888081629", "type": "kindergarten", "name": "Kindertagesstätte Wilde Wölfe", "source": "OpenStreetMap/Overpass"}}, {"type": "Feature", "geometry": {"type": "Point", "coordinates": [10.7525284, 52.3623863]}, "properties": {"id": "osm:way:897900241", "type": "kindergarten", "name": "Kindergarten Hattorf", "source": "OpenStreetMap/Overpass"}}, {"type": "Feature", "geometry": {"type": "Point", "coordinates": [10.8402053, 52.415514]}, "properties": {"id": "osm:way:925953024", "type": "kindergarten", "name": "St. Markus Kindertagesstätte", "source": "OpenStreetMap/Overpass"}}, {"type": "Feature", "geometry": {"type": "Point", "coordinates": [10.7474238, 52.3919387]}, "properties": {"id": "osm:way:927643723", "type": "kindergarten", "name": "AWO Kita Detmerode", "source": "OpenStreetMap/Overpass"}}, {"type": "Feature", "geometry": {"type": "Point", "coordinates": [10.703962, 52.3939589]}, "properties": {"id": "osm:way:931579694", "type": "kindergarten", "name": "DRK Kindergarten", "source": "OpenStreetMap/Overpass"}}, {"type": "Feature", "geometry": {"type": "Point", "coordinates": [10.7503786, 52.3610268]}, "properties": {"id": "osm:way:946026433", "type": "school", "name": "Grundschule Schunterwiesen", "source": "OpenStreetMap/Overpass"}}, {"type": "Feature", "geometry": {"type": "Point", "coordinates": [10.7398123, 52.4055836]}, "properties": {"id": "osm:way:948493378", "type": "kindergarten", "name": "Kita St. Franziskus", "source": "OpenStreetMap/Overpass"}}, {"type": "Feature", "geometry": {"type": "Point", "coordinates": [10.7387221, 52.4005982]}, "properties": {"id": "osm:way:948789502", "type": "kindergarten", "name": "Katholische Kindertagesstätte St. Elisabeth", "source": "OpenStreetMap/Overpass"}}, {"type": "Feature", "geometry": {"type": "Point", "coordinates": [10.8503495, 52.4635273]}, "properties": {"id": "osm:way:960739343", "type": "kindergarten", "name": "Kita Wendeschott", "source": "OpenStreetMap/Overpass"}}, {"type": "Feature", "geometry": {"type": "Point", "coordinates": [10.8902846, 52.4871193]}, "properties": {"id": "osm:way:972465789", "type": "kindergarten", "name": "Kindertagesstätte Rühen \"Pfiffikus\"", "source": "OpenStreetMap/Overpass"}}, {"type": "Feature", "geometry": {"type": "Point", "coordinates": [10.7802841, 52.4240218]}, "properties": {"id": "osm:way:993095500", "type": "kindergarten", "name": "Kinder- und Familienzentrum Martin-Luther", "source": "OpenStreetMap/Overpass"}}, {"type": "Feature", "geometry": {"type": "Point", "coordinates": [10.7396795, 52.4092227]}, "properties": {"id": "osm:way:998772778", "type": "kindergarten", "name": "DRK Kita Westhagen", "source": "OpenStreetMap/Overpass"}}, {"type": "Feature", "geometry": {"type": "Point", "coordinates": [10.7247128, 52.4185914]}, "properties": {"id": "osm:way:1009637405", "type": "kindergarten", "name": "Kita Fallersleben-Ost", "source": "OpenStreetMap/Overpass"}}, {"type": "Feature", "geometry": {"type": "Point", "coordinates": [10.7560243, 52.3919769]}, "properties": {"id": "osm:way:1013743469", "type": "kindergarten", "name": "St. Raphael", "source": "OpenStreetMap/Overpass"}}, {"type": "Feature", "geometry": {"type": "Point", "coordinates": [10.7910008, 52.4177537]}, "properties": {"id": "osm:way:1014096940", "type": "kindergarten", "name": "Kindertagesstätte Christuskirche", "source": "OpenStreetMap/Overpass"}}, {"type": "Feature", "geometry": {"type": "Point", "coordinates": [10.8364746, 52.4394919]}, "properties": {"id": "osm:way:1014409844", "type": "kindergarten", "name": "Schmuddelkinder", "source": "OpenStreetMap/Overpass"}}, {"type": "Feature", "geometry": {"type": "Point", "coordinates": [10.8457677, 52.4545133]}, "properties": {"id": "osm:way:1014423592", "type": "kindergarten", "name": "Ev.-luth. Kindertagesstätte St. Petrus", "source": "OpenStreetMap/Overpass"}}, {"type": "Feature", "geometry": {"type": "Point", "coordinates": [10.8444064, 52.4535217]}, "properties": {"id": "osm:way:1014423597", "type": "school", "name": "Grundschule Heidgarten", "source": "OpenStreetMap/Overpass"}}, {"type": "Feature", "geometry": {"type": "Point", "coordinates": [10.8381408, 52.4455914]}, "properties": {"id": "osm:way:1014449796", "type": "kindergarten", "name": "Städtisches Kinder- und Familienzentrum", "source": "OpenStreetMap/Overpass"}}, {"type": "Feature", "geometry": {"type": "Point", "coordinates": [10.8030501, 52.4446795]}, "properties": {"id": "osm:way:1015261686", "type": "kindergarten", "name": "Kindertagesstätte Am Gutshof", "source": "OpenStreetMap/Overpass"}}, {"type": "Feature", "geometry": {"type": "Point", "coordinates": [10.7914696, 52.4227683]}, "properties": {"id": "osm:way:1022365774", "type": "kindergarten", "name": "Kita St. Christophorushaus", "source": "OpenStreetMap/Overpass"}}, {"type": "Feature", "geometry": {"type": "Point", "coordinates": [10.7762586, 52.4224314]}, "properties": {"id": "osm:way:1028106231", "type": "kindergarten", "name": "Rappelkiste", "source": "OpenStreetMap/Overpass"}}, {"type": "Feature", "geometry": {"type": "Point", "coordinates": [10.7342018, 52.40711]}, "properties": {"id": "osm:way:1049394967", "type": "kindergarten", "name": "Villa Kunterbunt", "source": "OpenStreetMap/Overpass"}}, {"type": "Feature", "geometry": {"type": "Point", "coordinates": [10.7476823, 52.3945298]}, "properties": {"id": "osm:way:1050271834", "type": "kindergarten", "name": "Kita an den Teichen", "source": "OpenStreetMap/Overpass"}}, {"type": "Feature", "geometry": {"type": "Point", "coordinates": [10.7297433, 52.3935552]}, "properties": {"id": "osm:way:1091543491", "type": "kindergarten", "name": "Kita am Gutspark", "source": "OpenStreetMap/Overpass"}}, {"type": "Feature", "geometry": {"type": "Point", "coordinates": [10.8010213, 52.4501468]}, "properties": {"id": "osm:way:1093383020", "type": "kindergarten", "name": "Kindertagesstätte St. Marien", "source": "OpenStreetMap/Overpass"}}, {"type": "Feature", "geometry": {"type": "Point", "coordinates": [10.8347605, 52.4506112]}, "properties": {"id": "osm:way:1093385182", "type": "kindergarten", "name": "St. Michael", "source": "OpenStreetMap/Overpass"}}, {"type": "Feature", "geometry": {"type": "Point", "coordinates": [10.7641922, 52.4230435]}, "properties": {"id": "osm:way:1093418047", "type": "kindergarten", "name": "Kita Kreuzkirche Außenstelle", "source": "OpenStreetMap/Overpass"}}, {"type": "Feature", "geometry": {"type": "Point", "coordinates": [10.7899999, 52.4234701]}, "properties": {"id": "osm:way:1107394720", "type": "kindergarten", "name": "Städtische Kindertagesstätte an der Schule", "source": "OpenStreetMap/Overpass"}}, {"type": "Feature", "geometry": {"type": "Point", "coordinates": [10.8048147, 52.4215522]}, "properties": {"id": "osm:way:1111057403", "type": "kindergarten", "name": "Kindertagesstätte St. Annen", "source": "OpenStreetMap/Overpass"}}, {"type": "Feature", "geometry": {"type": "Point", "coordinates": [10.8827279, 52.4877945]}, "properties": {"id": "osm:way:1113007050", "type": "kindergarten", "name": "", "source": "OpenStreetMap/Overpass"}}, {"type": "Feature", "geometry": {"type": "Point", "coordinates": [10.8326023, 52.44461]}, "properties": {"id": "osm:way:1128861322", "type": "school", "name": "Realschule Vorsfelde", "source": "OpenStreetMap/Overpass"}}, {"type": "Feature", "geometry": {"type": "Point", "coordinates": [10.729779, 52.465293]}, "properties": {"id": "osm:way:1178110150", "type": "kindergarten", "name": "DRK Kindertagesstätte Weyhausen", "source": "OpenStreetMap/Overpass"}}, {"type": "Feature", "geometry": {"type": "Point", "coordinates": [10.7711282, 52.4713036]}, "properties": {"id": "osm:way:1192647222", "type": "kindergarten", "name": "", "source": "OpenStreetMap/Overpass"}}, {"type": "Feature", "geometry": {"type": "Point", "coordinates": [10.7417153, 52.407078]}, "properties": {"id": "osm:way:1347844852", "type": "school", "name": "", "source": "OpenStreetMap/Overpass"}}, {"type": "Feature", "geometry": {"type": "Point", "coordinates": [10.7399712, 52.3967883]}, "properties": {"id": "osm:way:1352407829", "type": "kindergarten", "name": "Kinder- und Familienzentrum am Ring", "source": "OpenStreetMap/Overpass"}}, {"type": "Feature", "geometry": {"type": "Point", "coordinates": [10.7565294, 52.3955986]}, "properties": {"id": "osm:relation:2757784", "type": "school", "name": "", "source": "OpenStreetMap/Overpass"}}, {"type": "Feature", "geometry": {"type": "Point", "coordinates": [10.749729, 52.3897558]}, "properties": {"id": "osm:relation:3890436", "type": "school", "name": "Bunte Grundschule Standort Detmerode", "source": "OpenStreetMap/Overpass"}}, {"type": "Feature", "geometry": {"type": "Point", "coordinates": [10.8385127, 52.4351601]}, "properties": {"id": "osm:relation:12731360", "type": "school", "name": "Grundschule Am Drömling", "source": "OpenStreetMap/Overpass"}}]}
