{"type": "FeatureCollection", "features": [{"type": "Feature", "geometry": {"type": "Point", "coordinates": [8.5497415, 49.4952399]}, "properties": {"id": "osm:node:308507079", "type": "kindergarten", "name": "Evangelischer Kindergarten Kunterbunt", "source": "OpenStreetMap/Overpass"}}, {"type": "Feature", "geometry": {"type": "Point", "coordinates": [8.50886, 49.508759]}, "properties": {"id": "osm:node:316019351", "type": "school", "name": "Albrecht-Dürer-Schule", "source": "OpenStreetMap/Overpass"}}, {"type": "Feature", "geometry": {"type": "Point", "coordinates": [8.5516182, 49.4991472]}, "properties": {"id": "osm:node:365762558", "type": "kindergarten", "name": "Städtisches Kinderhaus Wallstadt", "source": "OpenStreetMap/Overpass"}}, {"type": "Feature", "geometry": {"type": "Point", "coordinates": [8.5024531, 49.4326665]}, "properties": {"id": "osm:node:410143300", "type": "kindergarten", "name": "Protestantischer Kindergarten Altrip", "source": "OpenStreetMap/Overpass"}}, {"type": "Feature", "geometry": {"type": "Point", "coordinates": [8.4992916, 49.4289711]}, "properties": {"id": "osm:node:410143573", "type": "kindergarten", "name": "Katholischer Kindergarten Altrip", "source": "OpenStreetMap/Overpass"}}, {"type": "Feature", "geometry": {"type": "Point", "coordinates": [8.4896118, 49.431965]}, "properties": {"id": "osm:node:410143773", "type": "kindergarten", "name": "Geschwister-Scholl-Kindergarten, Gemeinde Altrip", "source": "OpenStreetMap/Overpass"}}, {"type": "Feature", "geometry": {"type": "Point", "coordinates": [8.4826037, 49.4595843]}, "properties": {"id": "osm:node:516707388", "type": "school", "name": "Almenhofschule - Grundschule", "source": "OpenStreetMap/Overpass"}}, {"type": "Feature", "geometry": {"type": "Point", "coordinates": [8.4523317, 49.4734625]}, "properties": {"id": "osm:node:662800985", "type": "school", "name": "Geschwister-Scholl-Gymnasium", "source": "OpenStreetMap/Overpass"}}, {"type": "Feature", "geometry": {"type": "Point", "coordinates": [8.4927673, 49.5341277]}, "properties": {"id": "osm:node:672990738", "type": "kindergarten", "name": "Jugendhaus", "source": "OpenStreetMap/Overpass"}}, {"type": "Feature", "geometry": {"type": "Point", "coordinates": [8.5114604, 49.5051172]}, "properties": {"id": "osm:node:1089243349", "type": "kindergarten", "name": "Kindertagesstätte der Philippusgemeinde", "source": "OpenStreetMap/Overpass"}}, {"type": "Feature", "geometry": {"type": "Point", "coordinates": [8.5090371, 49.5038229]}, "properties": {"id": "osm:node:1089243373", "type": "kindergarten", "name": "Kindertagesstätte St. Hildegard", "source": "OpenStreetMap/Overpass"}}, {"type": "Feature", "geometry": {"type": "Point", "coordinates": [8.4771042, 49.4786283]}, "properties": {"id": "osm:node:1317501365", "type": "kindergarten", "name": "Kindergarten St. Elisabeth", "source": "OpenStreetMap/Overpass"}}, {"type": "Feature", "geometry": {"type": "Point", "coordinates": [8.4653442, 49.4854364]}, "properties": {"id": "osm:node:1557388950", "type": "kindergarten", "name": "Stadtkindergarten", "source": "OpenStreetMap/Overpass"}}, {"type": "Feature", "geometry": {"type": "Point", "coordinates": [8.4674742, 49.474864]}, "properties": {"id": "osm:node:1559608973", "type": "kindergarten", "name": "Affenbande", "source": "OpenStreetMap/Overpass"}}, {"type": "Feature", "geometry": {"type": "Point", "coordinates": [8.4761887, 49.489664]}, "properties": {"id": "osm:node:1572490823", "type": "kindergarten", "name": "", "source": "OpenStreetMap/Overpass"}}, {"type": "Feature", "geometry": {"type": "Point", "coordinates": [8.4763132, 49.4982422]}, "properties": {"id": "osm:node:1607801040", "type": "school", "name": "Theaterakademie Mannheim e.V.", "source": "OpenStreetMap/Overpass"}}, {"type": "Feature", "geometry": {"type": "Point", "coordinates": [8.4826352, 49.4808859]}, "properties": {"id": "osm:node:1624859785", "type": "school", "name": "Akademie für Kommunikation Mannheim", "source": "OpenStreetMap/Overpass"}}, {"type": "Feature", "geometry": {"type": "Point", "coordinates": [8.488841, 49.4633401]}, "properties": {"id": "osm:node:1641520942", "type": "school", "name": "Carlo Schmid Schule", "source": "OpenStreetMap/Overpass"}}, {"type": "Feature", "geometry": {"type": "Point", "coordinates": [8.488651, 49.4635506]}, "properties": {"id": "osm:node:1641521051", "type": "school", "name": "Rockschule melle beats Mannheim", "source": "OpenStreetMap/Overpass"}}, {"type": "Feature", "geometry": {"type": "Point", "coordinates": [8.4738689, 49.4801573]}, "properties": {"id": "osm:node:1671578020", "type": "school", "name": "VWA - Verwaltungs- und Wirtschafts-Akademie Rhein-Neckar e.V.", "source": "OpenStreetMap/Overpass"}}, {"type": "Feature", "geometry": {"type": "Point", "coordinates": [8.4712833, 49.4802925]}, "properties": {"id": "osm:node:1673030361", "type": "school", "name": "DAA Kaufmännisches Trainingszentrum", "source": "OpenStreetMap/Overpass"}}, {"type": "Feature", "geometry": {"type": "Point", "coordinates": [8.4713561, 49.4802363]}, "properties": {"id": "osm:node:1673030374", "type": "school", "name": "HFH Hamburger Fern-Hochschule Studienzentrum Mannheim", "source": "OpenStreetMap/Overpass"}}, {"type": "Feature", "geometry": {"type": "Point", "coordinates": [8.4588637, 49.4873023]}, "properties": {"id": "osm:node:1675479788", "type": "childcare", "name": "Universität Mannheim Eltern-Kind-Zimmer", "source": "OpenStreetMap/Overpass"}}, {"type": "Feature", "geometry": {"type": "Point", "coordinates": [8.4920995, 49.4974079]}, "properties": {"id": "osm:node:1932210294", "type": "kindergarten", "name": "Panama", "source": "OpenStreetMap/Overpass"}}, {"type": "Feature", "geometry": {"type": "Point", "coordinates": [8.5534828, 49.4631019]}, "properties": {"id": "osm:node:1947498085", "type": "kindergarten", "name": "Kinderhaus Seckenheim", "source": "OpenStreetMap/Overpass"}}, {"type": "Feature", "geometry": {"type": "Point", "coordinates": [8.4664895, 49.4863639]}, "properties": {"id": "osm:node:1998348580", "type": "school", "name": "Lernstudio Barbarossa", "source": "OpenStreetMap/Overpass"}}, {"type": "Feature", "geometry": {"type": "Point", "coordinates": [8.4729573, 49.4837516]}, "properties": {"id": "osm:node:2012046206", "type": "school", "name": "Kurpfalz ML-Schule", "source": "OpenStreetMap/Overpass"}}, {"type": "Feature", "geometry": {"type": "Point", "coordinates": [8.4602192, 49.492049]}, "properties": {"id": "osm:node:2037827643", "type": "school", "name": "Flow Yogaschule", "source": "OpenStreetMap/Overpass"}}, {"type": "Feature", "geometry": {"type": "Point", "coordinates": [8.4648925, 49.4908912]}, "properties": {"id": "osm:node:2041525579", "type": "kindergarten", "name": "Kindergarten der Trinitatiskirche", "source": "OpenStreetMap/Overpass"}}, {"type": "Feature", "geometry": {"type": "Point", "coordinates": [8.4756339, 49.4883515]}, "properties": {"id": "osm:node:2052498956", "type": "school", "name": "inlingua", "source": "OpenStreetMap/Overpass"}}, {"type": "Feature", "geometry": {"type": "Point", "coordinates": [8.4741105, 49.4900582]}, "properties": {"id": "osm:node:2059687722", "type": "school", "name": "Wing Tsun & Escrima Schule", "source": "OpenStreetMap/Overpass"}}, {"type": "Feature", "geometry": {"type": "Point", "coordinates": [8.4750905, 49.4857212]}, "properties": {"id": "osm:node:2064211812", "type": "school", "name": "Lernretter. Institut für Angewandte Lernwissenschaften", "source": "OpenStreetMap/Overpass"}}, {"type": "Feature", "geometry": {"type": "Point", "coordinates": [8.4651228, 49.4891929]}, "properties": {"id": "osm:node:2075894618", "type": "kindergarten", "name": "Kath. Kindergarten Mirjam", "source": "OpenStreetMap/Overpass"}}, {"type": "Feature", "geometry": {"type": "Point", "coordinates": [8.4689386, 49.4692843]}, "properties": {"id": "osm:node:2170826267", "type": "kindergarten", "name": "Löwenzahn Evangelischer Kindergarter", "source": "OpenStreetMap/Overpass"}}, {"type": "Feature", "geometry": {"type": "Point", "coordinates": [8.479473, 49.4772084]}, "properties": {"id": "osm:node:2189373545", "type": "school", "name": "Staatliches Kolleg Mannheim", "source": "OpenStreetMap/Overpass"}}, {"type": "Feature", "geometry": {"type": "Point", "coordinates": [8.4826097, 49.4816052]}, "properties": {"id": "osm:node:2191133326", "type": "school", "name": "Akademie für Kommunikation", "source": "OpenStreetMap/Overpass"}}, {"type": "Feature", "geometry": {"type": "Point", "coordinates": [8.4862124, 49.4753724]}, "properties": {"id": "osm:node:2191133589", "type": "kindergarten", "name": "städtische Kinderkrippe", "source": "OpenStreetMap/Overpass"}}, {"type": "Feature", "geometry": {"type": "Point", "coordinates": [8.4807097, 49.4760175]}, "properties": {"id": "osm:node:2202868477", "type": "kindergarten", "name": "Die kleinen Racker", "source": "OpenStreetMap/Overpass"}}, {"type": "Feature", "geometry": {"type": "Point", "coordinates": [8.4807999, 49.4772793]}, "properties": {"id": "osm:node:2202915924", "type": "school", "name": "Vis-A-Vis - Studio für Gebärdensprache", "source": "OpenStreetMap/Overpass"}}, {"type": "Feature", "geometry": {"type": "Point", "coordinates": [8.5326009, 49.4461374]}, "properties": {"id": "osm:node:2229408192", "type": "kindergarten", "name": "", "source": "OpenStreetMap/Overpass"}}, {"type": "Feature", "geometry": {"type": "Point", "coordinates": [8.4686423, 49.4742549]}, "properties": {"id": "osm:node:2238135471", "type": "kindergarten", "name": "Kindernest Mannheim", "source": "OpenStreetMap/Overpass"}}, {"type": "Feature", "geometry": {"type": "Point", "coordinates": [8.469773, 49.4663463]}, "properties": {"id": "osm:node:2242538416", "type": "kindergarten", "name": "Krümelkiste", "source": "OpenStreetMap/Overpass"}}, {"type": "Feature", "geometry": {"type": "Point", "coordinates": [8.4908797, 49.4621008]}, "properties": {"id": "osm:node:2269099052", "type": "school", "name": "Internationaler Bund Berufsbildungszentrum", "source": "OpenStreetMap/Overpass"}}, {"type": "Feature", "geometry": {"type": "Point", "coordinates": [8.4944533, 49.4541661]}, "properties": {"id": "osm:node:2275805523", "type": "kindergarten", "name": "Internationaler Bund", "source": "OpenStreetMap/Overpass"}}, {"type": "Feature", "geometry": {"type": "Point", "coordinates": [8.4795881, 49.4661931]}, "properties": {"id": "osm:node:2277977759", "type": "kindergarten", "name": "Kinderkrippe Kleiner Forscher", "source": "OpenStreetMap/Overpass"}}, {"type": "Feature", "geometry": {"type": "Point", "coordinates": [8.4715246, 49.4604216]}, "properties": {"id": "osm:node:2321564361", "type": "kindergarten", "name": "ev. Kindergarten der Markuskirche", "source": "OpenStreetMap/Overpass"}}, {"type": "Feature", "geometry": {"type": "Point", "coordinates": [8.4926458, 49.4488394]}, "properties": {"id": "osm:node:2334104880", "type": "kindergarten", "name": "Kath. Kappeskindergarten", "source": "OpenStreetMap/Overpass"}}, {"type": "Feature", "geometry": {"type": "Point", "coordinates": [8.4927318, 49.4503553]}, "properties": {"id": "osm:node:2335085978", "type": "kindergarten", "name": "Ev. Kindertagesstätte \"Sonnenblume\"", "source": "OpenStreetMap/Overpass"}}, {"type": "Feature", "geometry": {"type": "Point", "coordinates": [8.4924239, 49.4500369]}, "properties": {"id": "osm:node:2335085983", "type": "kindergarten", "name": "", "source": "OpenStreetMap/Overpass"}}, {"type": "Feature", "geometry": {"type": "Point", "coordinates": [8.4726301, 49.5042487]}, "properties": {"id": "osm:node:2342980617", "type": "school", "name": "Freie Interkulturelle Waldorfschule e.V.", "source": "OpenStreetMap/Overpass"}}, {"type": "Feature", "geometry": {"type": "Point", "coordinates": [8.5317036, 49.4862668]}, "properties": {"id": "osm:node:2351874836", "type": "school", "name": "Schülerscout", "source": "OpenStreetMap/Overpass"}}, {"type": "Feature", "geometry": {"type": "Point", "coordinates": [8.5336561, 49.4813083]}, "properties": {"id": "osm:node:2358246929", "type": "kindergarten", "name": "Wimpfelhaus", "source": "OpenStreetMap/Overpass"}}, {"type": "Feature", "geometry": {"type": "Point", "coordinates": [8.5273145, 49.4876736]}, "properties": {"id": "osm:node:2361347965", "type": "school", "name": "Ballettschule Vita", "source": "OpenStreetMap/Overpass"}}, {"type": "Feature", "geometry": {"type": "Point", "coordinates": [8.5267409, 49.492728]}, "properties": {"id": "osm:node:2361347979", "type": "kindergarten", "name": "Kindertagespflegestelle kleine Freunde", "source": "OpenStreetMap/Overpass"}}, {"type": "Feature", "geometry": {"type": "Point", "coordinates": [8.4949562, 49.4504829]}, "properties": {"id": "osm:node:2373018173", "type": "school", "name": "Perlenwerkstatt", "source": "OpenStreetMap/Overpass"}}, {"type": "Feature", "geometry": {"type": "Point", "coordinates": [8.5028922, 49.5249183]}, "properties": {"id": "osm:node:2382233522", "type": "school", "name": "Gretje-Ahlrichs-Schule", "source": "OpenStreetMap/Overpass"}}, {"type": "Feature", "geometry": {"type": "Point", "coordinates": [8.501982, 49.5244316]}, "properties": {"id": "osm:node:2382233523", "type": "school", "name": "Hermann-Gutzmann-Schule", "source": "OpenStreetMap/Overpass"}}, {"type": "Feature", "geometry": {"type": "Point", "coordinates": [8.4778036, 49.4772051]}, "properties": {"id": "osm:node:2512968732", "type": "kindergarten", "name": "Die kleinen Räuber", "source": "OpenStreetMap/Overpass"}}, {"type": "Feature", "geometry": {"type": "Point", "coordinates": [8.4685506, 49.490664]}, "properties": {"id": "osm:node:2522877378", "type": "kindergarten", "name": "kleine wunder Kinderbetreuung", "source": "OpenStreetMap/Overpass"}}, {"type": "Feature", "geometry": {"type": "Point", "coordinates": [8.4681411, 49.4742864]}, "properties": {"id": "osm:node:2527674254", "type": "kindergarten", "name": "Abenteuerland", "source": "OpenStreetMap/Overpass"}}, {"type": "Feature", "geometry": {"type": "Point", "coordinates": [8.4712313, 49.4802354]}, "properties": {"id": "osm:node:2713644577", "type": "school", "name": "Paracelsus Heilpraktikerschule", "source": "OpenStreetMap/Overpass"}}, {"type": "Feature", "geometry": {"type": "Point", "coordinates": [8.4575567, 49.4942231]}, "properties": {"id": "osm:node:2714552753", "type": "kindergarten", "name": "Kinderladen Hafenbande", "source": "OpenStreetMap/Overpass"}}, {"type": "Feature", "geometry": {"type": "Point", "coordinates": [8.456981, 49.4926423]}, "properties": {"id": "osm:node:2715180889", "type": "kindergarten", "name": "ev. Kindertagesstätte", "source": "OpenStreetMap/Overpass"}}, {"type": "Feature", "geometry": {"type": "Point", "coordinates": [8.458491, 49.492804]}, "properties": {"id": "osm:node:2715180890", "type": "kindergarten", "name": "kath. Kindertagesstätte St. Alfons", "source": "OpenStreetMap/Overpass"}}, {"type": "Feature", "geometry": {"type": "Point", "coordinates": [8.4391828, 49.4892617]}, "properties": {"id": "osm:node:2717372763", "type": "kindergarten", "name": "KTS Marienstraße", "source": "OpenStreetMap/Overpass"}}, {"type": "Feature", "geometry": {"type": "Point", "coordinates": [8.5436328, 49.5011001]}, "properties": {"id": "osm:node:2735780104", "type": "kindergarten", "name": "Kinderhaus Storchennest", "source": "OpenStreetMap/Overpass"}}, {"type": "Feature", "geometry": {"type": "Point", "coordinates": [8.4994991, 49.5006529]}, "properties": {"id": "osm:node:2795808192", "type": "school", "name": "Bernd-Blindow-Schulen Mannheim", "source": "OpenStreetMap/Overpass"}}, {"type": "Feature", "geometry": {"type": "Point", "coordinates": [8.4899176, 49.4598293]}, "properties": {"id": "osm:node:2812729145", "type": "kindergarten", "name": "Kindergarten Mönchwörthstraße", "source": "OpenStreetMap/Overpass"}}, {"type": "Feature", "geometry": {"type": "Point", "coordinates": [8.4901264, 49.4545262]}, "properties": {"id": "osm:node:2812809819", "type": "kindergarten", "name": "Kindertagesstätte \"Luisenstraße\"", "source": "OpenStreetMap/Overpass"}}, {"type": "Feature", "geometry": {"type": "Point", "coordinates": [8.5654135, 49.4646716]}, "properties": {"id": "osm:node:2837217849", "type": "kindergarten", "name": "Kinderladen Seckenheim eV", "source": "OpenStreetMap/Overpass"}}, {"type": "Feature", "geometry": {"type": "Point", "coordinates": [8.4758564, 49.5433299]}, "properties": {"id": "osm:node:2934044291", "type": "kindergarten", "name": "Kinderkrippe Krabbelkäfer", "source": "OpenStreetMap/Overpass"}}, {"type": "Feature", "geometry": {"type": "Point", "coordinates": [8.5813007, 49.5367169]}, "properties": {"id": "osm:node:3015827248", "type": "kindergarten", "name": "Kindertagesstätte Maria Ward", "source": "OpenStreetMap/Overpass"}}, {"type": "Feature", "geometry": {"type": "Point", "coordinates": [8.5772805, 49.5372375]}, "properties": {"id": "osm:node:3015884735", "type": "kindergarten", "name": "Kindertagesstätte Johannes XXIII", "source": "OpenStreetMap/Overpass"}}, {"type": "Feature", "geometry": {"type": "Point", "coordinates": [8.4370053, 49.4858247]}, "properties": {"id": "osm:node:3024013870", "type": "kindergarten", "name": "Kindertagesstätten. Blücherstraße", "source": "OpenStreetMap/Overpass"}}, {"type": "Feature", "geometry": {"type": "Point", "coordinates": [8.5679908, 49.5338646]}, "properties": {"id": "osm:node:3053026018", "type": "kindergarten", "name": "Kita St. Hildegard", "source": "OpenStreetMap/Overpass"}}, {"type": "Feature", "geometry": {"type": "Point", "coordinates": [8.5712947, 49.5429873]}, "properties": {"id": "osm:node:3054843659", "type": "kindergarten", "name": "Kath. Kindertagesstätte St- Michael", "source": "OpenStreetMap/Overpass"}}, {"type": "Feature", "geometry": {"type": "Point", "coordinates": [8.4771332, 49.493962]}, "properties": {"id": "osm:node:3136517392", "type": "kindergarten", "name": "Kinderhaus Neckarufer", "source": "OpenStreetMap/Overpass"}}, {"type": "Feature", "geometry": {"type": "Point", "coordinates": [8.4635286, 49.5046352]}, "properties": {"id": "osm:node:3172057582", "type": "kindergarten", "name": "Kindergarten Lâlezâr - Tulpengarten Kindergarten", "source": "OpenStreetMap/Overpass"}}, {"type": "Feature", "geometry": {"type": "Point", "coordinates": [8.4637989, 49.5046337]}, "properties": {"id": "osm:node:3172057583", "type": "kindergarten", "name": "Kinderkrippe Kleestraße", "source": "OpenStreetMap/Overpass"}}, {"type": "Feature", "geometry": {"type": "Point", "coordinates": [8.5193643, 49.442757]}, "properties": {"id": "osm:node:3456918305", "type": "kindergarten", "name": "Kindertagesstätte Sporwörthstraße", "source": "OpenStreetMap/Overpass"}}, {"type": "Feature", "geometry": {"type": "Point", "coordinates": [8.5124184, 49.511137]}, "properties": {"id": "osm:node:3485781230", "type": "kindergarten", "name": "NimmerlanD - Kindertagespflege", "source": "OpenStreetMap/Overpass"}}, {"type": "Feature", "geometry": {"type": "Point", "coordinates": [8.4792996, 49.478185]}, "properties": {"id": "osm:node:3532387545", "type": "kindergarten", "name": "Kindertagespflege Schatzinsel", "source": "OpenStreetMap/Overpass"}}, {"type": "Feature", "geometry": {"type": "Point", "coordinates": [8.4774401, 49.4797427]}, "properties": {"id": "osm:node:3532436600", "type": "kindergarten", "name": "ev. Kindergarten der Christuskirche - Kinderparadies", "source": "OpenStreetMap/Overpass"}}, {"type": "Feature", "geometry": {"type": "Point", "coordinates": [8.49073, 49.4936155]}, "properties": {"id": "osm:node:3870544203", "type": "kindergarten", "name": "KH Cheliusstraße", "source": "OpenStreetMap/Overpass"}}, {"type": "Feature", "geometry": {"type": "Point", "coordinates": [8.4835819, 49.4754338]}, "properties": {"id": "osm:node:4066254797", "type": "kindergarten", "name": "Kinderhaus St. Peter", "source": "OpenStreetMap/Overpass"}}, {"type": "Feature", "geometry": {"type": "Point", "coordinates": [8.4795146, 49.4771744]}, "properties": {"id": "osm:node:4104460838", "type": "school", "name": "Helene-Lange-Schule - Fröbel-Seminar", "source": "OpenStreetMap/Overpass"}}, {"type": "Feature", "geometry": {"type": "Point", "coordinates": [8.4728806, 49.4815569]}, "properties": {"id": "osm:node:4122718259", "type": "school", "name": "Max-Hachenburg-Schule Außenstelle", "source": "OpenStreetMap/Overpass"}}, {"type": "Feature", "geometry": {"type": "Point", "coordinates": [8.4745476, 49.4738638]}, "properties": {"id": "osm:node:4591159489", "type": "kindergarten", "name": "Kindergarten im Mafinex Technologiezentrum", "source": "OpenStreetMap/Overpass"}}, {"type": "Feature", "geometry": {"type": "Point", "coordinates": [8.4677257, 49.4746764]}, "properties": {"id": "osm:node:4754107321", "type": "kindergarten", "name": "Kleine Raupe", "source": "OpenStreetMap/Overpass"}}, {"type": "Feature", "geometry": {"type": "Point", "coordinates": [8.5260223, 49.4907228]}, "properties": {"id": "osm:node:5121431075", "type": "kindergarten", "name": "Kinderladen Rappelkiste", "source": "OpenStreetMap/Overpass"}}, {"type": "Feature", "geometry": {"type": "Point", "coordinates": [8.4325505, 49.4623982]}, "properties": {"id": "osm:node:5136965921", "type": "childcare", "name": "KTS Madenburg Hort", "source": "OpenStreetMap/Overpass"}}, {"type": "Feature", "geometry": {"type": "Point", "coordinates": [8.5646411, 49.4739012]}, "properties": {"id": "osm:node:5142663322", "type": "kindergarten", "name": "Private Kinderbetreuung D(H)EIN Entdeckeruniversum", "source": "OpenStreetMap/Overpass"}}, {"type": "Feature", "geometry": {"type": "Point", "coordinates": [8.5390332, 49.4553194]}, "properties": {"id": "osm:node:5151701122", "type": "kindergarten", "name": "Katholischer Kindergarten", "source": "OpenStreetMap/Overpass"}}, {"type": "Feature", "geometry": {"type": "Point", "coordinates": [8.5534752, 49.4630691]}, "properties": {"id": "osm:node:5250964464", "type": "kindergarten", "name": "Kinderladen Seebärchen e.V.", "source": "OpenStreetMap/Overpass"}}, {"type": "Feature", "geometry": {"type": "Point", "coordinates": [8.5398247, 49.5091001]}, "properties": {"id": "osm:node:5272549773", "type": "kindergarten", "name": "Katholische Kindertagesstätte Zwölf Apostel II", "source": "OpenStreetMap/Overpass"}}, {"type": "Feature", "geometry": {"type": "Point", "coordinates": [8.4907915, 49.531669]}, "properties": {"id": "osm:node:5451201012", "type": "school", "name": "Eugen-Neter-Schule Außenstelle Gartenstadt", "source": "OpenStreetMap/Overpass"}}, {"type": "Feature", "geometry": {"type": "Point", "coordinates": [8.4903938, 49.5313848]}, "properties": {"id": "osm:node:5451270709", "type": "school", "name": "Bildungszentrum Bau Mannheim", "source": "OpenStreetMap/Overpass"}}, {"type": "Feature", "geometry": {"type": "Point", "coordinates": [8.4718952, 49.4899891]}, "properties": {"id": "osm:node:5964359851", "type": "childcare", "name": "Kinderhaus Sickinger", "source": "OpenStreetMap/Overpass"}}, {"type": "Feature", "geometry": {"type": "Point", "coordinates": [8.5006854, 49.5201488]}, "properties": {"id": "osm:node:5974042142", "type": "childcare", "name": "Kinderhaus St. Lioba", "source": "OpenStreetMap/Overpass"}}, {"type": "Feature", "geometry": {"type": "Point", "coordinates": [8.4964953, 49.5301484]}, "properties": {"id": "osm:node:5974132775", "type": "childcare", "name": "Kindergarten St. Elisabeth", "source": "OpenStreetMap/Overpass"}}, {"type": "Feature", "geometry": {"type": "Point", "coordinates": [8.4708906, 49.4892703]}, "properties": {"id": "osm:node:6033876950", "type": "school", "name": "Mannheimer Abendakademie", "source": "OpenStreetMap/Overpass"}}, {"type": "Feature", "geometry": {"type": "Point", "coordinates": [8.5253447, 49.504314]}, "properties": {"id": "osm:node:6088360086", "type": "school", "name": "Bertha-Hirsch-Schule", "source": "OpenStreetMap/Overpass"}}, {"type": "Feature", "geometry": {"type": "Point", "coordinates": [8.5276282, 49.5196683]}, "properties": {"id": "osm:node:7864955515", "type": "childcare", "name": "Espira Kinderbetreuung", "source": "OpenStreetMap/Overpass"}}, {"type": "Feature", "geometry": {"type": "Point", "coordinates": [8.4541956, 49.5430382]}, "properties": {"id": "osm:node:7931254285", "type": "kindergarten", "name": "ev. Kindertagesstätte", "source": "OpenStreetMap/Overpass"}}, {"type": "Feature", "geometry": {"type": "Point", "coordinates": [8.4666342, 49.5005676]}, "properties": {"id": "osm:node:8959325645", "type": "childcare", "name": "Kinderhaus St. Theresia", "source": "OpenStreetMap/Overpass"}}, {"type": "Feature", "geometry": {"type": "Point", "coordinates": [8.4931335, 49.4966035]}, "properties": {"id": "osm:node:9936159445", "type": "school", "name": "Bernd-Blindow-Schulen Mannheim", "source": "OpenStreetMap/Overpass"}}, {"type": "Feature", "geometry": {"type": "Point", "coordinates": [8.4199643, 49.4613123]}, "properties": {"id": "osm:node:9946490781", "type": "kindergarten", "name": "ÖFG KTS Wattstraße", "source": "OpenStreetMap/Overpass"}}, {"type": "Feature", "geometry": {"type": "Point", "coordinates": [8.4771994, 49.4984749]}, "properties": {"id": "osm:node:9975353899", "type": "kindergarten", "name": "Treff Neckarstadt-Ost", "source": "OpenStreetMap/Overpass"}}, {"type": "Feature", "geometry": {"type": "Point", "coordinates": [8.4282346, 49.4841743]}, "properties": {"id": "osm:node:10112086362", "type": "school", "name": "Freilandklassenzimmer", "source": "OpenStreetMap/Overpass"}}, {"type": "Feature", "geometry": {"type": "Point", "coordinates": [8.5006532, 49.5100797]}, "properties": {"id": "osm:node:10588701201", "type": "school", "name": "Franz-Anton-Mai Schule (FAMS)", "source": "OpenStreetMap/Overpass"}}, {"type": "Feature", "geometry": {"type": "Point", "coordinates": [8.4620411, 49.4853202]}, "properties": {"id": "osm:node:10671474505", "type": "childcare", "name": "Justizzwerge", "source": "OpenStreetMap/Overpass"}}, {"type": "Feature", "geometry": {"type": "Point", "coordinates": [8.484904, 49.48897]}, "properties": {"id": "osm:node:10792913231", "type": "school", "name": "Lessing-Gymnasium", "source": "OpenStreetMap/Overpass"}}, {"type": "Feature", "geometry": {"type": "Point", "coordinates": [8.4923659, 49.5005766]}, "properties": {"id": "osm:node:10796770780", "type": "kindergarten", "name": "Metropolitan International School Nursery + Kindergarten", "source": "OpenStreetMap/Overpass"}}, {"type": "Feature", "geometry": {"type": "Point", "coordinates": [8.5604659, 49.4668566]}, "properties": {"id": "osm:node:10911802401", "type": "kindergarten", "name": "Kita Sonnenschein", "source": "OpenStreetMap/Overpass"}}, {"type": "Feature", "geometry": {"type": "Point", "coordinates": [8.5392107, 49.5218393]}, "properties": {"id": "osm:node:11012859621", "type": "kindergarten", "name": "Little Franklin Wald- und Naturkindergarten", "source": "OpenStreetMap/Overpass"}}, {"type": "Feature", "geometry": {"type": "Point", "coordinates": [8.4689604, 49.5044369]}, "properties": {"id": "osm:node:11350800418", "type": "kindergarten", "name": "Evangelischer Kindergarten Paul-Gerhardt-Straße", "source": "OpenStreetMap/Overpass"}}, {"type": "Feature", "geometry": {"type": "Point", "coordinates": [8.434299, 49.4864786]}, "properties": {"id": "osm:node:11771201970", "type": "kindergarten", "name": "Kom. Kindertagesstätte Kanalstraße", "source": "OpenStreetMap/Overpass"}}, {"type": "Feature", "geometry": {"type": "Point", "coordinates": [8.4695811, 49.508297]}, "properties": {"id": "osm:node:12019372829", "type": "kindergarten", "name": "Katholischer Kindergarten Sankt Nikolaus", "source": "OpenStreetMap/Overpass"}}, {"type": "Feature", "geometry": {"type": "Point", "coordinates": [8.468323, 49.5075601]}, "properties": {"id": "osm:node:12029718112", "type": "kindergarten", "name": "Kindergarten Erlenhof", "source": "OpenStreetMap/Overpass"}}, {"type": "Feature", "geometry": {"type": "Point", "coordinates": [8.44546, 49.5828625]}, "properties": {"id": "osm:node:12222112983", "type": "school", "name": "Dietrich-Bonhoeffer-Grundschule Mannheim", "source": "OpenStreetMap/Overpass"}}, {"type": "Feature", "geometry": {"type": "Point", "coordinates": [8.4929337, 49.4968812]}, "properties": {"id": "osm:node:12402785706", "type": "school", "name": "bfw Mannheim", "source": "OpenStreetMap/Overpass"}}, {"type": "Feature", "geometry": {"type": "Point", "coordinates": [8.4682941, 49.5013299]}, "properties": {"id": "osm:node:12750541161", "type": "kindergarten", "name": "Familien-Kita Kleine Riedstraße", "source": "OpenStreetMap/Overpass"}}, {"type": "Feature", "geometry": {"type": "Point", "coordinates": [8.5162375, 49.50495]}, "properties": {"id": "osm:node:13063397252", "type": "kindergarten", "name": "hulii Kita Königskinder", "source": "OpenStreetMap/Overpass"}}, {"type": "Feature", "geometry": {"type": "Point", "coordinates": [8.466951, 49.5024746]}, "properties": {"id": "osm:node:13576116150", "type": "kindergarten", "name": "hulii Kita Mannheim Neckarstadt-West", "source": "OpenStreetMap/Overpass"}}, {"type": "Feature", "geometry": {"type": "Point", "coordinates": [8.4818912, 49.4974936]}, "properties": {"id": "osm:node:13626383962", "type": "kindergarten", "name": "Kinderkrippe Kleckerbande", "source": "OpenStreetMap/Overpass"}}, {"type": "Feature", "geometry": {"type": "Point", "coordinates": [8.5375383, 49.5089537]}, "properties": {"id": "osm:way:35007609", "type": "school", "name": "Geschwister-Scholl-Haupt- und -Realschule", "source": "OpenStreetMap/Overpass"}}, {"type": "Feature", "geometry": {"type": "Point", "coordinates": [8.5367265, 49.4549175]}, "properties": {"id": "osm:way:35555846", "type": "kindergarten", "name": "Evangelischer Kindergarten", "source": "OpenStreetMap/Overpass"}}, {"type": "Feature", "geometry": {"type": "Point", "coordinates": [8.5357651, 49.4556381]}, "properties": {"id": "osm:way:35555847", "type": "school", "name": "Astrid-Lindgren-Schule", "source": "OpenStreetMap/Overpass"}}, {"type": "Feature", "geometry": {"type": "Point", "coordinates": [8.5643774, 49.5357877]}, "properties": {"id": "osm:way:37213889", "type": "kindergarten", "name": "Kindergarten Kleeblatt", "source": "OpenStreetMap/Overpass"}}, {"type": "Feature", "geometry": {"type": "Point", "coordinates": [8.5758621, 49.5379717]}, "properties": {"id": "osm:way:37825822", "type": "school", "name": "Schillerschule", "source": "OpenStreetMap/Overpass"}}, {"type": "Feature", "geometry": {"type": "Point", "coordinates": [8.5358468, 49.5111666]}, "properties": {"id": "osm:way:53277178", "type": "kindergarten", "name": "Evangelischer Kindergarten", "source": "OpenStreetMap/Overpass"}}, {"type": "Feature", "geometry": {"type": "Point", "coordinates": [8.4466794, 49.4775933]}, "properties": {"id": "osm:way:75117707", "type": "kindergarten", "name": "Kindertagesstätte Wörthstraße", "source": "OpenStreetMap/Overpass"}}, {"type": "Feature", "geometry": {"type": "Point", "coordinates": [8.4521833, 49.475893]}, "properties": {"id": "osm:way:75117776", "type": "school", "name": "Brüder-Grimm-Schule", "source": "OpenStreetMap/Overpass"}}, {"type": "Feature", "geometry": {"type": "Point", "coordinates": [8.4253162, 49.4619133]}, "properties": {"id": "osm:way:79432888", "type": "kindergarten", "name": "Kindertagesstätte Christuskirche", "source": "OpenStreetMap/Overpass"}}, {"type": "Feature", "geometry": {"type": "Point", "coordinates": [8.4868657, 49.4952399]}, "properties": {"id": "osm:way:80587515", "type": "school", "name": "Ludwig-Frank-Gymnasium", "source": "OpenStreetMap/Overpass"}}, {"type": "Feature", "geometry": {"type": "Point", "coordinates": [8.566652, 49.4797489]}, "properties": {"id": "osm:way:81663329", "type": "kindergarten", "name": "", "source": "OpenStreetMap/Overpass"}}, {"type": "Feature", "geometry": {"type": "Point", "coordinates": [8.4687903, 49.542174]}, "properties": {"id": "osm:way:100788383", "type": "kindergarten", "name": "Kinderhaus Bromberger Baumgang", "source": "OpenStreetMap/Overpass"}}, {"type": "Feature", "geometry": {"type": "Point", "coordinates": [8.4705317, 49.4487331]}, "properties": {"id": "osm:way:102150981", "type": "school", "name": "Hans-Müller-Wiedemann-Schule", "source": "OpenStreetMap/Overpass"}}, {"type": "Feature", "geometry": {"type": "Point", "coordinates": [8.4793395, 49.5462287]}, "properties": {"id": "osm:way:102409120", "type": "school", "name": "Kerschensteiner-Gemeinschaftsschule", "source": "OpenStreetMap/Overpass"}}, {"type": "Feature", "geometry": {"type": "Point", "coordinates": [8.4749876, 49.5438598]}, "properties": {"id": "osm:way:102546074", "type": "school", "name": "Schönauschule", "source": "OpenStreetMap/Overpass"}}, {"type": "Feature", "geometry": {"type": "Point", "coordinates": [8.4741998, 49.5167089]}, "properties": {"id": "osm:way:102609699", "type": "school", "name": "Luzenbergschule", "source": "OpenStreetMap/Overpass"}}, {"type": "Feature", "geometry": {"type": "Point", "coordinates": [8.4956011, 49.5223154]}, "properties": {"id": "osm:way:103640100", "type": "school", "name": "Friedrich-Ebert-Schule", "source": "OpenStreetMap/Overpass"}}, {"type": "Feature", "geometry": {"type": "Point", "coordinates": [8.5259034, 49.4328595]}, "properties": {"id": "osm:way:106061057", "type": "school", "name": "Rheinauschule", "source": "OpenStreetMap/Overpass"}}, {"type": "Feature", "geometry": {"type": "Point", "coordinates": [8.4691792, 49.4710506]}, "properties": {"id": "osm:way:111832731", "type": "school", "name": "Diesterweg Grundschule", "source": "OpenStreetMap/Overpass"}}, {"type": "Feature", "geometry": {"type": "Point", "coordinates": [8.5430015, 49.5136933]}, "properties": {"id": "osm:way:116111543", "type": "kindergarten", "name": "Waldorfkindergarten Vogelstang", "source": "OpenStreetMap/Overpass"}}, {"type": "Feature", "geometry": {"type": "Point", "coordinates": [8.5337272, 49.4293499]}, "properties": {"id": "osm:way:122076346", "type": "kindergarten", "name": "", "source": "OpenStreetMap/Overpass"}}, {"type": "Feature", "geometry": {"type": "Point", "coordinates": [8.4455394, 49.4745686]}, "properties": {"id": "osm:way:124269529", "type": "school", "name": "Wittelsbachschule", "source": "OpenStreetMap/Overpass"}}, {"type": "Feature", "geometry": {"type": "Point", "coordinates": [8.5393257, 49.5118537]}, "properties": {"id": "osm:way:127226460", "type": "kindergarten", "name": "Katholische Kindertagesstätte Zwölf Apostel I", "source": "OpenStreetMap/Overpass"}}, {"type": "Feature", "geometry": {"type": "Point", "coordinates": [8.5402347, 49.5106076]}, "properties": {"id": "osm:way:127228311", "type": "kindergarten", "name": "Kinderhaus Vogelstang", "source": "OpenStreetMap/Overpass"}}, {"type": "Feature", "geometry": {"type": "Point", "coordinates": [8.5310274, 49.4432889]}, "properties": {"id": "osm:way:127497366", "type": "kindergarten", "name": "KITA Waldblick", "source": "OpenStreetMap/Overpass"}}, {"type": "Feature", "geometry": {"type": "Point", "coordinates": [8.4820419, 49.4796846]}, "properties": {"id": "osm:way:129373853", "type": "school", "name": "Pestalozzischule", "source": "OpenStreetMap/Overpass"}}, {"type": "Feature", "geometry": {"type": "Point", "coordinates": [8.4663344, 49.4932805]}, "properties": {"id": "osm:way:130302894", "type": "school", "name": "Johannes-Kepler-Schule", "source": "OpenStreetMap/Overpass"}}, {"type": "Feature", "geometry": {"type": "Point", "coordinates": [8.482621, 49.4598333]}, "properties": {"id": "osm:way:130345870", "type": "school", "name": "", "source": "OpenStreetMap/Overpass"}}, {"type": "Feature", "geometry": {"type": "Point", "coordinates": [8.5426861, 49.5109256]}, "properties": {"id": "osm:way:131230839", "type": "school", "name": "Heinrich-Lanz-Schule I", "source": "OpenStreetMap/Overpass"}}, {"type": "Feature", "geometry": {"type": "Point", "coordinates": [8.5459039, 49.5113084]}, "properties": {"id": "osm:way:133810172", "type": "kindergarten", "name": "Evangelische Tageseinrichtung für Kinder", "source": "OpenStreetMap/Overpass"}}, {"type": "Feature", "geometry": {"type": "Point", "coordinates": [8.4219451, 49.4576283]}, "properties": {"id": "osm:way:140387098", "type": "kindergarten", "name": "Kindertagesstätte Madenburgstraße", "source": "OpenStreetMap/Overpass"}}, {"type": "Feature", "geometry": {"type": "Point", "coordinates": [8.4692651, 49.4892014]}, "properties": {"id": "osm:way:142038586", "type": "school", "name": "Mozartschule", "source": "OpenStreetMap/Overpass"}}, {"type": "Feature", "geometry": {"type": "Point", "coordinates": [8.5411932, 49.5128474]}, "properties": {"id": "osm:way:142322363", "type": "school", "name": "Vogelstangschule", "source": "OpenStreetMap/Overpass"}}, {"type": "Feature", "geometry": {"type": "Point", "coordinates": [8.4955038, 49.565408]}, "properties": {"id": "osm:way:142773011", "type": "school", "name": "Eugen-Neter-Schule", "source": "OpenStreetMap/Overpass"}}, {"type": "Feature", "geometry": {"type": "Point", "coordinates": [8.5396155, 49.5070703]}, "properties": {"id": "osm:way:143457495", "type": "school", "name": "Geschwister-Scholl-Gymnasium", "source": "OpenStreetMap/Overpass"}}, {"type": "Feature", "geometry": {"type": "Point", "coordinates": [8.4805775, 49.4935427]}, "properties": {"id": "osm:way:144209990", "type": "school", "name": "Heinrich-Lanz-Schule", "source": "OpenStreetMap/Overpass"}}, {"type": "Feature", "geometry": {"type": "Point", "coordinates": [8.4867206, 49.4754668]}, "properties": {"id": "osm:way:145226195", "type": "kindergarten", "name": "Kindergarten", "source": "OpenStreetMap/Overpass"}}, {"type": "Feature", "geometry": {"type": "Point", "coordinates": [8.5171914, 49.5121367]}, "properties": {"id": "osm:way:145944238", "type": "kindergarten", "name": "ev. Kindertagesstätte", "source": "OpenStreetMap/Overpass"}}, {"type": "Feature", "geometry": {"type": "Point", "coordinates": [8.4889074, 49.4537083]}, "properties": {"id": "osm:way:146494790", "type": "kindergarten", "name": "Kath. Kindergarten St. Jakobus", "source": "OpenStreetMap/Overpass"}}, {"type": "Feature", "geometry": {"type": "Point", "coordinates": [8.4904805, 49.4983861]}, "properties": {"id": "osm:way:147060850", "type": "kindergarten", "name": "Katholischer Kindergarten", "source": "OpenStreetMap/Overpass"}}, {"type": "Feature", "geometry": {"type": "Point", "coordinates": [8.4800898, 49.4983844]}, "properties": {"id": "osm:way:147247898", "type": "kindergarten", "name": "ev. Kindergarten", "source": "OpenStreetMap/Overpass"}}, {"type": "Feature", "geometry": {"type": "Point", "coordinates": [8.4829735, 49.4785542]}, "properties": {"id": "osm:way:148660227", "type": "kindergarten", "name": "Kinderhaus Dorothea Wespin", "source": "OpenStreetMap/Overpass"}}, {"type": "Feature", "geometry": {"type": "Point", "coordinates": [8.4820343, 49.4796244]}, "properties": {"id": "osm:way:148665878", "type": "school", "name": "Pestalozzischule", "source": "OpenStreetMap/Overpass"}}, {"type": "Feature", "geometry": {"type": "Point", "coordinates": [8.4796176, 49.4854726]}, "properties": {"id": "osm:way:149758121", "type": "school", "name": "Tulla-Realschule", "source": "OpenStreetMap/Overpass"}}, {"type": "Feature", "geometry": {"type": "Point", "coordinates": [8.4686128, 49.502919]}, "properties": {"id": "osm:way:150675784", "type": "school", "name": "Humboldtschule", "source": "OpenStreetMap/Overpass"}}, {"type": "Feature", "geometry": {"type": "Point", "coordinates": [8.4700027, 49.4612427]}, "properties": {"id": "osm:way:150893552", "type": "school", "name": "Hauptgebäude", "source": "OpenStreetMap/Overpass"}}, {"type": "Feature", "geometry": {"type": "Point", "coordinates": [8.469643, 49.4616231]}, "properties": {"id": "osm:way:150893553", "type": "school", "name": "Musiktrakt", "source": "OpenStreetMap/Overpass"}}, {"type": "Feature", "geometry": {"type": "Point", "coordinates": [8.4706356, 49.4613695]}, "properties": {"id": "osm:way:150893555", "type": "school", "name": "Umkleiden", "source": "OpenStreetMap/Overpass"}}, {"type": "Feature", "geometry": {"type": "Point", "coordinates": [8.4705846, 49.4609318]}, "properties": {"id": "osm:way:150893556", "type": "school", "name": "Naturwissenschafts Trakt", "source": "OpenStreetMap/Overpass"}}, {"type": "Feature", "geometry": {"type": "Point", "coordinates": [8.470722, 49.4614464]}, "properties": {"id": "osm:way:150893557", "type": "school", "name": "Sporthalle", "source": "OpenStreetMap/Overpass"}}, {"type": "Feature", "geometry": {"type": "Point", "coordinates": [8.4703819, 49.4616132]}, "properties": {"id": "osm:way:150893562", "type": "school", "name": "Moll-Gymnasium", "source": "OpenStreetMap/Overpass"}}, {"type": "Feature", "geometry": {"type": "Point", "coordinates": [8.4789974, 49.455122]}, "properties": {"id": "osm:way:151234349", "type": "kindergarten", "name": "Kinderhaus Sentapark", "source": "OpenStreetMap/Overpass"}}, {"type": "Feature", "geometry": {"type": "Point", "coordinates": [8.5048571, 49.4649323]}, "properties": {"id": "osm:way:151777111", "type": "kindergarten", "name": "ev. Kindergarten Thomasgemeinde", "source": "OpenStreetMap/Overpass"}}, {"type": "Feature", "geometry": {"type": "Point", "coordinates": [8.4869648, 49.4774512]}, "properties": {"id": "osm:way:151785729", "type": "school", "name": "Helene-Lange-Schule", "source": "OpenStreetMap/Overpass"}}, {"type": "Feature", "geometry": {"type": "Point", "coordinates": [8.4851683, 49.4786222]}, "properties": {"id": "osm:way:151785735", "type": "school", "name": "Liselotte-Gymnasium", "source": "OpenStreetMap/Overpass"}}, {"type": "Feature", "geometry": {"type": "Point", "coordinates": [8.493116, 49.5850311]}, "properties": {"id": "osm:way:152021542", "type": "school", "name": "Pestalozzischule", "source": "OpenStreetMap/Overpass"}}, {"type": "Feature", "geometry": {"type": "Point", "coordinates": [8.508665, 49.4664588]}, "properties": {"id": "osm:way:152033891", "type": "kindergarten", "name": "Kinderhaus Neuhermsheim", "source": "OpenStreetMap/Overpass"}}, {"type": "Feature", "geometry": {"type": "Point", "coordinates": [8.4954591, 49.4485419]}, "properties": {"id": "osm:way:152301190", "type": "kindergarten", "name": "Spielstube Neckarau-Niederfeld e.V.", "source": "OpenStreetMap/Overpass"}}, {"type": "Feature", "geometry": {"type": "Point", "coordinates": [8.4802418, 49.4671423]}, "properties": {"id": "osm:way:152431967", "type": "kindergarten", "name": "ev. Kindergarten der Markuskirche", "source": "OpenStreetMap/Overpass"}}, {"type": "Feature", "geometry": {"type": "Point", "coordinates": [8.4945452, 49.4487311]}, "properties": {"id": "osm:way:152516048", "type": "school", "name": "Wilhelm-Wundt-Schule", "source": "OpenStreetMap/Overpass"}}, {"type": "Feature", "geometry": {"type": "Point", "coordinates": [8.4788451, 49.4546956]}, "properties": {"id": "osm:way:153523662", "type": "kindergarten", "name": "Kinderburg", "source": "OpenStreetMap/Overpass"}}, {"type": "Feature", "geometry": {"type": "Point", "coordinates": [8.4966111, 49.4552012]}, "properties": {"id": "osm:way:154905553", "type": "school", "name": "IB-GIS mbH - Medizinische Akademie", "source": "OpenStreetMap/Overpass"}}, {"type": "Feature", "geometry": {"type": "Point", "coordinates": [8.5687688, 49.5351213]}, "properties": {"id": "osm:way:155822495", "type": "school", "name": "Friedrich-Fröbel-Schule", "source": "OpenStreetMap/Overpass"}}, {"type": "Feature", "geometry": {"type": "Point", "coordinates": [8.56696, 49.452983]}, "properties": {"id": "osm:way:156425218", "type": "kindergarten", "name": "Katholischer Kindergarten Don Bosco", "source": "OpenStreetMap/Overpass"}}, {"type": "Feature", "geometry": {"type": "Point", "coordinates": [8.5125048, 49.4789117]}, "properties": {"id": "osm:way:156466420", "type": "school", "name": "Johann-Peter-Hebel Schule, Außenstelle Neuostheim", "source": "OpenStreetMap/Overpass"}}, {"type": "Feature", "geometry": {"type": "Point", "coordinates": [8.5028482, 49.4701601]}, "properties": {"id": "osm:way:157458266", "type": "school", "name": "Johann-Peter-Hebel-Schule", "source": "OpenStreetMap/Overpass"}}, {"type": "Feature", "geometry": {"type": "Point", "coordinates": [8.5511, 49.4660429]}, "properties": {"id": "osm:way:157911344", "type": "kindergarten", "name": "Kinderhaus Rastatter Straße", "source": "OpenStreetMap/Overpass"}}, {"type": "Feature", "geometry": {"type": "Point", "coordinates": [8.5641431, 49.4587393]}, "properties": {"id": "osm:way:157911369", "type": "kindergarten", "name": "Kinderhaus Seckenheim Süd", "source": "OpenStreetMap/Overpass"}}, {"type": "Feature", "geometry": {"type": "Point", "coordinates": [8.4593139, 49.4959525]}, "properties": {"id": "osm:way:158755813", "type": "school", "name": "Jungbuschschule", "source": "OpenStreetMap/Overpass"}}, {"type": "Feature", "geometry": {"type": "Point", "coordinates": [8.4622614, 49.494742]}, "properties": {"id": "osm:way:159002781", "type": "kindergarten", "name": "Stadt Mannheim Tageseinrichtung für Kinder", "source": "OpenStreetMap/Overpass"}}, {"type": "Feature", "geometry": {"type": "Point", "coordinates": [8.4991996, 49.5332291]}, "properties": {"id": "osm:way:159226781", "type": "school", "name": "Waldschule", "source": "OpenStreetMap/Overpass"}}, {"type": "Feature", "geometry": {"type": "Point", "coordinates": [8.4534198, 49.5422663]}, "properties": {"id": "osm:way:162756751", "type": "school", "name": "Sandhofenschule", "source": "OpenStreetMap/Overpass"}}, {"type": "Feature", "geometry": {"type": "Point", "coordinates": [8.4900002, 49.5324854]}, "properties": {"id": "osm:way:162785056", "type": "school", "name": "Alfred-Delp-Schule", "source": "OpenStreetMap/Overpass"}}, {"type": "Feature", "geometry": {"type": "Point", "coordinates": [8.4435861, 49.5453449]}, "properties": {"id": "osm:way:163114587", "type": "school", "name": "Gustav-Wiederkehr-Schule", "source": "OpenStreetMap/Overpass"}}, {"type": "Feature", "geometry": {"type": "Point", "coordinates": [8.5646128, 49.4792274]}, "properties": {"id": "osm:way:163258009", "type": "kindergarten", "name": "Rappelkiste", "source": "OpenStreetMap/Overpass"}}, {"type": "Feature", "geometry": {"type": "Point", "coordinates": [8.5287211, 49.4306005]}, "properties": {"id": "osm:way:163621988", "type": "kindergarten", "name": "", "source": "OpenStreetMap/Overpass"}}, {"type": "Feature", "geometry": {"type": "Point", "coordinates": [8.4804304, 49.5247636]}, "properties": {"id": "osm:way:163634838", "type": "school", "name": "Waldhofschule", "source": "OpenStreetMap/Overpass"}}, {"type": "Feature", "geometry": {"type": "Point", "coordinates": [8.4736648, 49.5490611]}, "properties": {"id": "osm:way:163858688", "type": "school", "name": "Musik / Kunst", "source": "OpenStreetMap/Overpass"}}, {"type": "Feature", "geometry": {"type": "Point", "coordinates": [8.4738371, 49.5502305]}, "properties": {"id": "osm:way:163858695", "type": "school", "name": "Verwaltung", "source": "OpenStreetMap/Overpass"}}, {"type": "Feature", "geometry": {"type": "Point", "coordinates": [8.473564, 49.5508837]}, "properties": {"id": "osm:way:163858715", "type": "kindergarten", "name": "Katholischer Kindergarten Sankt Raphael", "source": "OpenStreetMap/Overpass"}}, {"type": "Feature", "geometry": {"type": "Point", "coordinates": [8.4751147, 49.5517836]}, "properties": {"id": "osm:way:163860936", "type": "school", "name": "Hans-Christian-Andersen-Schule", "source": "OpenStreetMap/Overpass"}}, {"type": "Feature", "geometry": {"type": "Point", "coordinates": [8.5289028, 49.485741]}, "properties": {"id": "osm:way:164296273", "type": "school", "name": "Brüder-Grimm-Schule", "source": "OpenStreetMap/Overpass"}}, {"type": "Feature", "geometry": {"type": "Point", "coordinates": [8.5299121, 49.4846996]}, "properties": {"id": "osm:way:164296286", "type": "kindergarten", "name": "Kinderhaus Feudenheim", "source": "OpenStreetMap/Overpass"}}, {"type": "Feature", "geometry": {"type": "Point", "coordinates": [8.5309574, 49.4852182]}, "properties": {"id": "osm:way:164297562", "type": "school", "name": "Feudenheim-Schule", "source": "OpenStreetMap/Overpass"}}, {"type": "Feature", "geometry": {"type": "Point", "coordinates": [8.5492342, 49.4979314]}, "properties": {"id": "osm:way:164312298", "type": "school", "name": "Wallstadt-Grundschule", "source": "OpenStreetMap/Overpass"}}, {"type": "Feature", "geometry": {"type": "Point", "coordinates": [8.4613517, 49.4908285]}, "properties": {"id": "osm:way:164858802", "type": "kindergarten", "name": "Kinderkrippe F7", "source": "OpenStreetMap/Overpass"}}, {"type": "Feature", "geometry": {"type": "Point", "coordinates": [8.5307434, 49.4367932]}, "properties": {"id": "osm:way:165636699", "type": "kindergarten", "name": "Kath. Kindergarten St. Marien", "source": "OpenStreetMap/Overpass"}}, {"type": "Feature", "geometry": {"type": "Point", "coordinates": [8.4709469, 49.5061915]}, "properties": {"id": "osm:way:166333273", "type": "school", "name": "Wilhelm-Busch-Schule", "source": "OpenStreetMap/Overpass"}}, {"type": "Feature", "geometry": {"type": "Point", "coordinates": [8.5163471, 49.5144131]}, "properties": {"id": "osm:way:169830669", "type": "school", "name": "", "source": "OpenStreetMap/Overpass"}}, {"type": "Feature", "geometry": {"type": "Point", "coordinates": [8.5159754, 49.5141826]}, "properties": {"id": "osm:way:169830738", "type": "school", "name": "", "source": "OpenStreetMap/Overpass"}}, {"type": "Feature", "geometry": {"type": "Point", "coordinates": [8.5161924, 49.5143881]}, "properties": {"id": "osm:way:169830739", "type": "school", "name": "", "source": "OpenStreetMap/Overpass"}}, {"type": "Feature", "geometry": {"type": "Point", "coordinates": [8.5164758, 49.5144842]}, "properties": {"id": "osm:way:169831230", "type": "school", "name": "Käfertalschule", "source": "OpenStreetMap/Overpass"}}, {"type": "Feature", "geometry": {"type": "Point", "coordinates": [8.5173891, 49.5145163]}, "properties": {"id": "osm:way:169831749", "type": "school", "name": "Sportplatz der Käfertalschule", "source": "OpenStreetMap/Overpass"}}, {"type": "Feature", "geometry": {"type": "Point", "coordinates": [8.5744224, 49.4389979]}, "properties": {"id": "osm:way:172976557", "type": "kindergarten", "name": "Kindertagesstätte Wallonenstraße", "source": "OpenStreetMap/Overpass"}}, {"type": "Feature", "geometry": {"type": "Point", "coordinates": [8.5750349, 49.4388691]}, "properties": {"id": "osm:way:172976727", "type": "kindergarten", "name": "Katholischer Kindergarten St. Franziskus", "source": "OpenStreetMap/Overpass"}}, {"type": "Feature", "geometry": {"type": "Point", "coordinates": [8.5777035, 49.4392785]}, "properties": {"id": "osm:way:173009372", "type": "school", "name": "Friedrichsfeldschule", "source": "OpenStreetMap/Overpass"}}, {"type": "Feature", "geometry": {"type": "Point", "coordinates": [8.5349937, 49.4169887]}, "properties": {"id": "osm:way:175017414", "type": "kindergarten", "name": "Katholischer Kindergarten St.Johannes", "source": "OpenStreetMap/Overpass"}}, {"type": "Feature", "geometry": {"type": "Point", "coordinates": [8.5297506, 49.4894017]}, "properties": {"id": "osm:way:175386857", "type": "kindergarten", "name": "ehem.kath. Kindergarten", "source": "OpenStreetMap/Overpass"}}, {"type": "Feature", "geometry": {"type": "Point", "coordinates": [8.570854, 49.5439253]}, "properties": {"id": "osm:way:177635727", "type": "school", "name": "Nibelungenschule", "source": "OpenStreetMap/Overpass"}}, {"type": "Feature", "geometry": {"type": "Point", "coordinates": [8.5798781, 49.5505422]}, "properties": {"id": "osm:way:178282913", "type": "school", "name": "Orgelschule Hofmann", "source": "OpenStreetMap/Overpass"}}, {"type": "Feature", "geometry": {"type": "Point", "coordinates": [8.5674839, 49.4738104]}, "properties": {"id": "osm:way:179240005", "type": "kindergarten", "name": "Kindergarten St.Josef", "source": "OpenStreetMap/Overpass"}}, {"type": "Feature", "geometry": {"type": "Point", "coordinates": [8.5655564, 49.4793663]}, "properties": {"id": "osm:way:179412533", "type": "school", "name": "Friedrich-Ebert-Schule", "source": "OpenStreetMap/Overpass"}}, {"type": "Feature", "geometry": {"type": "Point", "coordinates": [8.4875637, 49.5870269]}, "properties": {"id": "osm:way:179921853", "type": "kindergarten", "name": "Kita Europaring", "source": "OpenStreetMap/Overpass"}}, {"type": "Feature", "geometry": {"type": "Point", "coordinates": [8.4692109, 49.484505]}, "properties": {"id": "osm:way:180723744", "type": "kindergarten", "name": "Kinderhaus des Studentenwerks", "source": "OpenStreetMap/Overpass"}}, {"type": "Feature", "geometry": {"type": "Point", "coordinates": [8.4697262, 49.4835298]}, "properties": {"id": "osm:way:180845066", "type": "school", "name": "dasKurpfalz Gymnasium und Realschule Mannheim", "source": "OpenStreetMap/Overpass"}}, {"type": "Feature", "geometry": {"type": "Point", "coordinates": [8.4701944, 49.4835823]}, "properties": {"id": "osm:way:180845533", "type": "school", "name": "Mozartschule", "source": "OpenStreetMap/Overpass"}}, {"type": "Feature", "geometry": {"type": "Point", "coordinates": [8.4757807, 49.5433321]}, "properties": {"id": "osm:way:182014018", "type": "childcare", "name": "Kinderkrippe Krabbelkäfer", "source": "OpenStreetMap/Overpass"}}, {"type": "Feature", "geometry": {"type": "Point", "coordinates": [8.5476715, 49.4709011]}, "properties": {"id": "osm:way:182071838", "type": "kindergarten", "name": "Kath. Kindergarten St. Adalbert", "source": "OpenStreetMap/Overpass"}}, {"type": "Feature", "geometry": {"type": "Point", "coordinates": [8.5563407, 49.464278]}, "properties": {"id": "osm:way:182669694", "type": "kindergarten", "name": "Kath. Kindergarten St. Agnes", "source": "OpenStreetMap/Overpass"}}, {"type": "Feature", "geometry": {"type": "Point", "coordinates": [8.4804053, 49.4711763]}, "properties": {"id": "osm:way:183062438", "type": "kindergarten", "name": "johnny's kids", "source": "OpenStreetMap/Overpass"}}, {"type": "Feature", "geometry": {"type": "Point", "coordinates": [8.4179742, 49.4756033]}, "properties": {"id": "osm:way:185590933", "type": "school", "name": "Schule an der Blies", "source": "OpenStreetMap/Overpass"}}, {"type": "Feature", "geometry": {"type": "Point", "coordinates": [8.4182266, 49.4753681]}, "properties": {"id": "osm:way:185592722", "type": "school", "name": "Schule an der Blies", "source": "OpenStreetMap/Overpass"}}, {"type": "Feature", "geometry": {"type": "Point", "coordinates": [8.471213, 49.4910378]}, "properties": {"id": "osm:way:195760513", "type": "school", "name": "Maria Montessori Schule", "source": "OpenStreetMap/Overpass"}}, {"type": "Feature", "geometry": {"type": "Point", "coordinates": [8.4777745, 49.49479]}, "properties": {"id": "osm:way:199335489", "type": "school", "name": "Carl-Benz-Schule Mannheim", "source": "OpenStreetMap/Overpass"}}, {"type": "Feature", "geometry": {"type": "Point", "coordinates": [8.4219043, 49.4691532]}, "properties": {"id": "osm:way:200033018", "type": "school", "name": "Berufsbildende Schule Naturwissenschaften", "source": "OpenStreetMap/Overpass"}}, {"type": "Feature", "geometry": {"type": "Point", "coordinates": [8.4220777, 49.4701125]}, "properties": {"id": "osm:way:200033019", "type": "school", "name": "Berufsbildende Schule Technik 1 und 2", "source": "OpenStreetMap/Overpass"}}, {"type": "Feature", "geometry": {"type": "Point", "coordinates": [8.4790285, 49.5016894]}, "properties": {"id": "osm:way:204648355", "type": "kindergarten", "name": "Kinderhaus August Kuhn", "source": "OpenStreetMap/Overpass"}}, {"type": "Feature", "geometry": {"type": "Point", "coordinates": [8.4778754, 49.5196153]}, "properties": {"id": "osm:way:206371352", "type": "kindergarten", "name": "", "source": "OpenStreetMap/Overpass"}}, {"type": "Feature", "geometry": {"type": "Point", "coordinates": [8.4835634, 49.5074434]}, "properties": {"id": "osm:way:208410974", "type": "school", "name": "Käthe-Kollwitz-Grundschule", "source": "OpenStreetMap/Overpass"}}, {"type": "Feature", "geometry": {"type": "Point", "coordinates": [8.4518989, 49.4735589]}, "properties": {"id": "osm:way:209233002", "type": "school", "name": "Schule", "source": "OpenStreetMap/Overpass"}}, {"type": "Feature", "geometry": {"type": "Point", "coordinates": [8.4676506, 49.4984439]}, "properties": {"id": "osm:way:209497704", "type": "school", "name": "Neckarschule", "source": "OpenStreetMap/Overpass"}}, {"type": "Feature", "geometry": {"type": "Point", "coordinates": [8.4650393, 49.4993864]}, "properties": {"id": "osm:way:209502460", "type": "kindergarten", "name": "Kindertagesstätte St. Michael", "source": "OpenStreetMap/Overpass"}}, {"type": "Feature", "geometry": {"type": "Point", "coordinates": [8.4647196, 49.5000852]}, "properties": {"id": "osm:way:209538291", "type": "kindergarten", "name": "Eltern-Kind-Zentrum Elfenstraße", "source": "OpenStreetMap/Overpass"}}, {"type": "Feature", "geometry": {"type": "Point", "coordinates": [8.46153, 49.5014805]}, "properties": {"id": "osm:way:209732032", "type": "kindergarten", "name": "Kinderhaus Pumpwerkstraße", "source": "OpenStreetMap/Overpass"}}, {"type": "Feature", "geometry": {"type": "Point", "coordinates": [8.4430581, 49.5451066]}, "properties": {"id": "osm:way:211131665", "type": "kindergarten", "name": "Kinderhaus Sandhofen", "source": "OpenStreetMap/Overpass"}}, {"type": "Feature", "geometry": {"type": "Point", "coordinates": [8.4890329, 49.5009778]}, "properties": {"id": "osm:way:211260488", "type": "school", "name": "Erich-Kästner-Schule", "source": "OpenStreetMap/Overpass"}}, {"type": "Feature", "geometry": {"type": "Point", "coordinates": [8.4421627, 49.5443947]}, "properties": {"id": "osm:way:211364849", "type": "kindergarten", "name": "Kindertagesstätte Abraham", "source": "OpenStreetMap/Overpass"}}, {"type": "Feature", "geometry": {"type": "Point", "coordinates": [8.453632, 49.5415761]}, "properties": {"id": "osm:way:216734246", "type": "kindergarten", "name": "Kindergarten St. Maria", "source": "OpenStreetMap/Overpass"}}, {"type": "Feature", "geometry": {"type": "Point", "coordinates": [8.4822809, 49.459334]}, "properties": {"id": "osm:way:218499695", "type": "school", "name": "", "source": "OpenStreetMap/Overpass"}}, {"type": "Feature", "geometry": {"type": "Point", "coordinates": [8.5083142, 49.508831]}, "properties": {"id": "osm:way:224225379", "type": "school", "name": "", "source": "OpenStreetMap/Overpass"}}, {"type": "Feature", "geometry": {"type": "Point", "coordinates": [8.4852192, 49.456301]}, "properties": {"id": "osm:way:224976490", "type": "school", "name": "Schillerschule - Ganztagsgrundschule", "source": "OpenStreetMap/Overpass"}}, {"type": "Feature", "geometry": {"type": "Point", "coordinates": [8.534369, 49.4859165]}, "properties": {"id": "osm:way:226356725", "type": "kindergarten", "name": "Kath. Kindergarten", "source": "OpenStreetMap/Overpass"}}, {"type": "Feature", "geometry": {"type": "Point", "coordinates": [8.4830326, 49.4594756]}, "properties": {"id": "osm:way:226986369", "type": "school", "name": "", "source": "OpenStreetMap/Overpass"}}, {"type": "Feature", "geometry": {"type": "Point", "coordinates": [8.482394, 49.4595691]}, "properties": {"id": "osm:way:226986397", "type": "school", "name": "", "source": "OpenStreetMap/Overpass"}}, {"type": "Feature", "geometry": {"type": "Point", "coordinates": [8.4816968, 49.4590148]}, "properties": {"id": "osm:way:226994690", "type": "school", "name": "Almenhofschule - Sporthalle", "source": "OpenStreetMap/Overpass"}}, {"type": "Feature", "geometry": {"type": "Point", "coordinates": [8.5024085, 49.5247867]}, "properties": {"id": "osm:way:229535190", "type": "school", "name": "Gretje-Ahlrichs-Schule", "source": "OpenStreetMap/Overpass"}}, {"type": "Feature", "geometry": {"type": "Point", "coordinates": [8.5244156, 49.5039324]}, "properties": {"id": "osm:way:252335828", "type": "school", "name": "Bertha-Hirsch-Schule", "source": "OpenStreetMap/Overpass"}}, {"type": "Feature", "geometry": {"type": "Point", "coordinates": [8.4167988, 49.4466264]}, "properties": {"id": "osm:way:256949773", "type": "school", "name": "Mozartschule Rheingönheim", "source": "OpenStreetMap/Overpass"}}, {"type": "Feature", "geometry": {"type": "Point", "coordinates": [8.5334994, 49.4288656]}, "properties": {"id": "osm:way:258799401", "type": "kindergarten", "name": "Kindergarten", "source": "OpenStreetMap/Overpass"}}, {"type": "Feature", "geometry": {"type": "Point", "coordinates": [8.4719722, 49.4921342]}, "properties": {"id": "osm:way:268877780", "type": "school", "name": "Eberhard-Gothein-Schule", "source": "OpenStreetMap/Overpass"}}, {"type": "Feature", "geometry": {"type": "Point", "coordinates": [8.4239924, 49.4590999]}, "properties": {"id": "osm:way:285816668", "type": "kindergarten", "name": "Kindertagesstätte St. Sebastian II", "source": "OpenStreetMap/Overpass"}}, {"type": "Feature", "geometry": {"type": "Point", "coordinates": [8.4235672, 49.4943174]}, "properties": {"id": "osm:way:288197972", "type": "school", "name": "Max-Planck-Gymnasium", "source": "OpenStreetMap/Overpass"}}, {"type": "Feature", "geometry": {"type": "Point", "coordinates": [8.4750206, 49.5428482]}, "properties": {"id": "osm:way:289875442", "type": "childcare", "name": "Evangelischer Kindergarten Emaus Gemeinde", "source": "OpenStreetMap/Overpass"}}, {"type": "Feature", "geometry": {"type": "Point", "coordinates": [8.4869415, 49.4756795]}, "properties": {"id": "osm:way:291289598", "type": "kindergarten", "name": "Kindertagesstätte \"Weidenstr.\"", "source": "OpenStreetMap/Overpass"}}, {"type": "Feature", "geometry": {"type": "Point", "coordinates": [8.4306565, 49.4883177]}, "properties": {"id": "osm:way:293680061", "type": "school", "name": "Goetheschule Nord", "source": "OpenStreetMap/Overpass"}}, {"type": "Feature", "geometry": {"type": "Point", "coordinates": [8.4219395, 49.4958833]}, "properties": {"id": "osm:way:293680065", "type": "school", "name": "Albert-Einstein-Schule", "source": "OpenStreetMap/Overpass"}}, {"type": "Feature", "geometry": {"type": "Point", "coordinates": [8.4317479, 49.4711587]}, "properties": {"id": "osm:way:294389952", "type": "school", "name": "Albert-Schweitzer-Schule", "source": "OpenStreetMap/Overpass"}}, {"type": "Feature", "geometry": {"type": "Point", "coordinates": [8.4418333, 49.4830772]}, "properties": {"id": "osm:way:294389956", "type": "school", "name": "Carl-Bosch-Gymnasium", "source": "OpenStreetMap/Overpass"}}, {"type": "Feature", "geometry": {"type": "Point", "coordinates": [8.4401139, 49.48066]}, "properties": {"id": "osm:way:294389960", "type": "school", "name": "Erich Kästner-Schule", "source": "OpenStreetMap/Overpass"}}, {"type": "Feature", "geometry": {"type": "Point", "coordinates": [8.5897426, 49.5393264]}, "properties": {"id": "osm:way:295931199", "type": "school", "name": "Albertus-Magnus-Schule", "source": "OpenStreetMap/Overpass"}}, {"type": "Feature", "geometry": {"type": "Point", "coordinates": [8.4982412, 49.5159277]}, "properties": {"id": "osm:way:296796630", "type": "kindergarten", "name": "Kinderhaus Oberer Ried", "source": "OpenStreetMap/Overpass"}}, {"type": "Feature", "geometry": {"type": "Point", "coordinates": [8.4733001, 49.5449086]}, "properties": {"id": "osm:way:298397490", "type": "kindergarten", "name": "Kindergarten Gryphiusweg", "source": "OpenStreetMap/Overpass"}}, {"type": "Feature", "geometry": {"type": "Point", "coordinates": [8.5609124, 49.5290167]}, "properties": {"id": "osm:way:298848631", "type": "kindergarten", "name": "AWO Kindertagesstätte Pirmasenserstraße", "source": "OpenStreetMap/Overpass"}}, {"type": "Feature", "geometry": {"type": "Point", "coordinates": [8.4982631, 49.5158989]}, "properties": {"id": "osm:way:301896401", "type": "kindergarten", "name": "Kinderhaus Oberer Ried", "source": "OpenStreetMap/Overpass"}}, {"type": "Feature", "geometry": {"type": "Point", "coordinates": [8.5722747, 49.549491]}, "properties": {"id": "osm:way:305512814", "type": "kindergarten", "name": "AWO-Familienzentrum Kirschenstraße", "source": "OpenStreetMap/Overpass"}}, {"type": "Feature", "geometry": {"type": "Point", "coordinates": [8.5895909, 49.540758]}, "properties": {"id": "osm:way:311293235", "type": "kindergarten", "name": "Arche Noah", "source": "OpenStreetMap/Overpass"}}, {"type": "Feature", "geometry": {"type": "Point", "coordinates": [8.4638527, 49.50456]}, "properties": {"id": "osm:way:311532350", "type": "kindergarten", "name": "", "source": "OpenStreetMap/Overpass"}}, {"type": "Feature", "geometry": {"type": "Point", "coordinates": [8.5907943, 49.5405567]}, "properties": {"id": "osm:way:311772594", "type": "school", "name": "Alexander-von-Humboldt-Schule", "source": "OpenStreetMap/Overpass"}}, {"type": "Feature", "geometry": {"type": "Point", "coordinates": [8.4514251, 49.4745826]}, "properties": {"id": "osm:way:312407010", "type": "school", "name": "Berufsbildende Schule Wirtschaft 1", "source": "OpenStreetMap/Overpass"}}, {"type": "Feature", "geometry": {"type": "Point", "coordinates": [8.4848773, 49.5231765]}, "properties": {"id": "osm:way:313673443", "type": "kindergarten", "name": "Evangelische Tageseinrichtung für Kinder Eltern-Kind-Zentrum", "source": "OpenStreetMap/Overpass"}}, {"type": "Feature", "geometry": {"type": "Point", "coordinates": [8.5218159, 49.4935007]}, "properties": {"id": "osm:way:313926989", "type": "kindergarten", "name": "Städtischer Kindergarten Aubuckel", "source": "OpenStreetMap/Overpass"}}, {"type": "Feature", "geometry": {"type": "Point", "coordinates": [8.4905406, 49.505425]}, "properties": {"id": "osm:way:313931455", "type": "kindergarten", "name": "Kindergarten Ulmenweg", "source": "OpenStreetMap/Overpass"}}, {"type": "Feature", "geometry": {"type": "Point", "coordinates": [8.4832615, 49.5237645]}, "properties": {"id": "osm:way:314702128", "type": "kindergarten", "name": "Katholischer Kindergarten", "source": "OpenStreetMap/Overpass"}}, {"type": "Feature", "geometry": {"type": "Point", "coordinates": [8.5077665, 49.5279471]}, "properties": {"id": "osm:way:315359422", "type": "kindergarten", "name": "Regenbogen", "source": "OpenStreetMap/Overpass"}}, {"type": "Feature", "geometry": {"type": "Point", "coordinates": [8.5254177, 49.5047961]}, "properties": {"id": "osm:way:316659828", "type": "kindergarten", "name": "ElKiZ Ida-Dehmel", "source": "OpenStreetMap/Overpass"}}, {"type": "Feature", "geometry": {"type": "Point", "coordinates": [8.4861706, 49.4688242]}, "properties": {"id": "osm:way:317375914", "type": "school", "name": "Merkur Akademie International Mannheim", "source": "OpenStreetMap/Overpass"}}, {"type": "Feature", "geometry": {"type": "Point", "coordinates": [8.4589389, 49.4899674]}, "properties": {"id": "osm:way:318677582", "type": "school", "name": "Elisabeth-Gymnasium", "source": "OpenStreetMap/Overpass"}}, {"type": "Feature", "geometry": {"type": "Point", "coordinates": [8.4711197, 49.4922974]}, "properties": {"id": "osm:way:320580996", "type": "school", "name": "Abendakademie", "source": "OpenStreetMap/Overpass"}}, {"type": "Feature", "geometry": {"type": "Point", "coordinates": [8.4379363, 49.4864183]}, "properties": {"id": "osm:way:326489161", "type": "school", "name": "Grundschule Gräfenauschule", "source": "OpenStreetMap/Overpass"}}, {"type": "Feature", "geometry": {"type": "Point", "coordinates": [8.4700778, 49.4609934]}, "properties": {"id": "osm:way:330226727", "type": "school", "name": "Pavillon", "source": "OpenStreetMap/Overpass"}}, {"type": "Feature", "geometry": {"type": "Point", "coordinates": [8.4695758, 49.4629606]}, "properties": {"id": "osm:way:332456313", "type": "kindergarten", "name": "Krippe Belchenstraße", "source": "OpenStreetMap/Overpass"}}, {"type": "Feature", "geometry": {"type": "Point", "coordinates": [8.4672762, 49.4815407]}, "properties": {"id": "osm:way:336136629", "type": "school", "name": "Generation Guide GmbH", "source": "OpenStreetMap/Overpass"}}, {"type": "Feature", "geometry": {"type": "Point", "coordinates": [8.4237116, 49.4887109]}, "properties": {"id": "osm:way:337346706", "type": "school", "name": "Realschule plus am Ebertpark", "source": "OpenStreetMap/Overpass"}}, {"type": "Feature", "geometry": {"type": "Point", "coordinates": [8.5667904, 49.4795785]}, "properties": {"id": "osm:way:339493368", "type": "kindergarten", "name": "Kinderkrippe \"Kinderkiste\"", "source": "OpenStreetMap/Overpass"}}, {"type": "Feature", "geometry": {"type": "Point", "coordinates": [8.4742449, 49.4819455]}, "properties": {"id": "osm:way:349804788", "type": "school", "name": "Max-Hachenburg-Schule", "source": "OpenStreetMap/Overpass"}}, {"type": "Feature", "geometry": {"type": "Point", "coordinates": [8.5062114, 49.4678957]}, "properties": {"id": "osm:way:363735661", "type": "kindergarten", "name": "Kinderhaus Gerhard-Marcks-Straße", "source": "OpenStreetMap/Overpass"}}, {"type": "Feature", "geometry": {"type": "Point", "coordinates": [8.4911279, 49.518051]}, "properties": {"id": "osm:way:364134891", "type": "kindergarten", "name": "Kinderkrippe sternchen", "source": "OpenStreetMap/Overpass"}}, {"type": "Feature", "geometry": {"type": "Point", "coordinates": [8.5445927, 49.5109141]}, "properties": {"id": "osm:way:370386317", "type": "kindergarten", "name": "Kinderhaus Dresdener Straße", "source": "OpenStreetMap/Overpass"}}, {"type": "Feature", "geometry": {"type": "Point", "coordinates": [8.4775756, 49.5018127]}, "properties": {"id": "osm:way:378452892", "type": "kindergarten", "name": "Kinderhaus Am Park", "source": "OpenStreetMap/Overpass"}}, {"type": "Feature", "geometry": {"type": "Point", "coordinates": [8.4706652, 49.54768]}, "properties": {"id": "osm:way:381537682", "type": "kindergarten", "name": "ElKiZ Marienburger Straße", "source": "OpenStreetMap/Overpass"}}, {"type": "Feature", "geometry": {"type": "Point", "coordinates": [8.4936863, 49.5337385]}, "properties": {"id": "osm:way:406668831", "type": "kindergarten", "name": "Evangelische Kindertagesstätte Himmelsstern", "source": "OpenStreetMap/Overpass"}}, {"type": "Feature", "geometry": {"type": "Point", "coordinates": [8.5741592, 49.5300359]}, "properties": {"id": "osm:way:414760685", "type": "kindergarten", "name": "Kapellenberg", "source": "OpenStreetMap/Overpass"}}, {"type": "Feature", "geometry": {"type": "Point", "coordinates": [8.4428949, 49.5497659]}, "properties": {"id": "osm:way:427789605", "type": "childcare", "name": "Krippe Werner Nagel", "source": "OpenStreetMap/Overpass"}}, {"type": "Feature", "geometry": {"type": "Point", "coordinates": [8.520441, 49.5114478]}, "properties": {"id": "osm:way:441904322", "type": "kindergarten", "name": "Kinderhaus", "source": "OpenStreetMap/Overpass"}}, {"type": "Feature", "geometry": {"type": "Point", "coordinates": [8.5888601, 49.5413513]}, "properties": {"id": "osm:way:471845973", "type": "kindergarten", "name": "Kindertagesstätte Sonnenschein", "source": "OpenStreetMap/Overpass"}}, {"type": "Feature", "geometry": {"type": "Point", "coordinates": [8.4970965, 49.5182572]}, "properties": {"id": "osm:way:477536223", "type": "kindergarten", "name": "Ev. Kindergarten Auferstehungskirche", "source": "OpenStreetMap/Overpass"}}, {"type": "Feature", "geometry": {"type": "Point", "coordinates": [8.4917238, 49.5326393]}, "properties": {"id": "osm:way:482795671", "type": "kindergarten", "name": "Kindergarten St. Marien", "source": "OpenStreetMap/Overpass"}}, {"type": "Feature", "geometry": {"type": "Point", "coordinates": [8.476358, 49.4998995]}, "properties": {"id": "osm:way:497236712", "type": "kindergarten", "name": "St. Bernhard", "source": "OpenStreetMap/Overpass"}}, {"type": "Feature", "geometry": {"type": "Point", "coordinates": [8.4849001, 49.4696463]}, "properties": {"id": "osm:way:502861837", "type": "school", "name": "Goethe Institut Mannheim", "source": "OpenStreetMap/Overpass"}}, {"type": "Feature", "geometry": {"type": "Point", "coordinates": [8.5758283, 49.5374012]}, "properties": {"id": "osm:way:512942537", "type": "school", "name": "Albert-Schweitzer-Schule", "source": "OpenStreetMap/Overpass"}}, {"type": "Feature", "geometry": {"type": "Point", "coordinates": [8.478264, 49.5487475]}, "properties": {"id": "osm:way:568354113", "type": "kindergarten", "name": "Kinderhaus Parsevalstraße", "source": "OpenStreetMap/Overpass"}}, {"type": "Feature", "geometry": {"type": "Point", "coordinates": [8.4785095, 49.5608858]}, "properties": {"id": "osm:way:572533351", "type": "kindergarten", "name": "Regenbogenkindergarten II", "source": "OpenStreetMap/Overpass"}}, {"type": "Feature", "geometry": {"type": "Point", "coordinates": [8.5344442, 49.4433795]}, "properties": {"id": "osm:way:626867909", "type": "school", "name": "Pfingstbergschule", "source": "OpenStreetMap/Overpass"}}, {"type": "Feature", "geometry": {"type": "Point", "coordinates": [8.4218657, 49.4696726]}, "properties": {"id": "osm:way:642082253", "type": "school", "name": "Berufsbildende Schule", "source": "OpenStreetMap/Overpass"}}, {"type": "Feature", "geometry": {"type": "Point", "coordinates": [8.5115959, 49.4794737]}, "properties": {"id": "osm:way:682199052", "type": "kindergarten", "name": "Ökumenisches Kinderhaus Neuostheim", "source": "OpenStreetMap/Overpass"}}, {"type": "Feature", "geometry": {"type": "Point", "coordinates": [8.5807963, 49.5371973]}, "properties": {"id": "osm:way:691073059", "type": "school", "name": "Goetheschule", "source": "OpenStreetMap/Overpass"}}, {"type": "Feature", "geometry": {"type": "Point", "coordinates": [8.5330328, 49.5201146]}, "properties": {"id": "osm:way:698991390", "type": "kindergarten", "name": "Kindertagesstätte George-Washington-Straße", "source": "OpenStreetMap/Overpass"}}, {"type": "Feature", "geometry": {"type": "Point", "coordinates": [8.4250515, 49.4733157]}, "properties": {"id": "osm:way:700100048", "type": "kindergarten", "name": "Kindertagesstätte LUfanten", "source": "OpenStreetMap/Overpass"}}, {"type": "Feature", "geometry": {"type": "Point", "coordinates": [8.4972633, 49.5332451]}, "properties": {"id": "osm:way:856347530", "type": "kindergarten", "name": "Kinderhaus Gartenstadt", "source": "OpenStreetMap/Overpass"}}, {"type": "Feature", "geometry": {"type": "Point", "coordinates": [8.5643587, 49.5475339]}, "properties": {"id": "osm:way:860542269", "type": "kindergarten", "name": "", "source": "OpenStreetMap/Overpass"}}, {"type": "Feature", "geometry": {"type": "Point", "coordinates": [8.5242976, 49.5174895]}, "properties": {"id": "osm:way:878764928", "type": "school", "name": "Franklinschule", "source": "OpenStreetMap/Overpass"}}, {"type": "Feature", "geometry": {"type": "Point", "coordinates": [8.5287194, 49.4736407]}, "properties": {"id": "osm:way:911896651", "type": "kindergarten", "name": "ActiveKid-Kita „Hans-Thoma-Straße“", "source": "OpenStreetMap/Overpass"}}, {"type": "Feature", "geometry": {"type": "Point", "coordinates": [8.5808542, 49.5368408]}, "properties": {"id": "osm:way:915842510", "type": "kindergarten", "name": "", "source": "OpenStreetMap/Overpass"}}, {"type": "Feature", "geometry": {"type": "Point", "coordinates": [8.5313916, 49.5041743]}, "properties": {"id": "osm:way:1004975728", "type": "kindergarten", "name": "Kinderhaus Rosa Grünbaum", "source": "OpenStreetMap/Overpass"}}, {"type": "Feature", "geometry": {"type": "Point", "coordinates": [8.5359248, 49.4474881]}, "properties": {"id": "osm:way:1024670995", "type": "kindergarten", "name": "urwüchsig Naturkindergarten - Waldgruppe", "source": "OpenStreetMap/Overpass"}}, {"type": "Feature", "geometry": {"type": "Point", "coordinates": [8.4482059, 49.5624616]}, "properties": {"id": "osm:way:1025080008", "type": "kindergarten", "name": "Kita Füllenweg", "source": "OpenStreetMap/Overpass"}}, {"type": "Feature", "geometry": {"type": "Point", "coordinates": [8.5744821, 49.5466476]}, "properties": {"id": "osm:way:1025144041", "type": "kindergarten", "name": "", "source": "OpenStreetMap/Overpass"}}, {"type": "Feature", "geometry": {"type": "Point", "coordinates": [8.4278736, 49.4268121]}, "properties": {"id": "osm:way:1043654777", "type": "kindergarten", "name": "Kita Schatzkiste", "source": "OpenStreetMap/Overpass"}}, {"type": "Feature", "geometry": {"type": "Point", "coordinates": [8.5244181, 49.4413597]}, "properties": {"id": "osm:way:1052729388", "type": "school", "name": "Konrad-Duden-Schule", "source": "OpenStreetMap/Overpass"}}, {"type": "Feature", "geometry": {"type": "Point", "coordinates": [8.4224711, 49.4195999]}, "properties": {"id": "osm:way:1080866772", "type": "kindergarten", "name": "Kindertagesstätte Villa Kunterbunt", "source": "OpenStreetMap/Overpass"}}, {"type": "Feature", "geometry": {"type": "Point", "coordinates": [8.4174274, 49.4250451]}, "properties": {"id": "osm:way:1080867003", "type": "kindergarten", "name": "Kindertagesstätte Wirbelwind", "source": "OpenStreetMap/Overpass"}}, {"type": "Feature", "geometry": {"type": "Point", "coordinates": [8.4225403, 49.4187249]}, "properties": {"id": "osm:way:1080867437", "type": "kindergarten", "name": "Kindergarten St. Nikolaus", "source": "OpenStreetMap/Overpass"}}, {"type": "Feature", "geometry": {"type": "Point", "coordinates": [8.4212638, 49.4190693]}, "properties": {"id": "osm:way:1080868172", "type": "kindergarten", "name": "Kindertagesstätte Im Pavillon", "source": "OpenStreetMap/Overpass"}}, {"type": "Feature", "geometry": {"type": "Point", "coordinates": [8.4214681, 49.4193578]}, "properties": {"id": "osm:way:1080868174", "type": "school", "name": "Rehbachschule Neuhofen", "source": "OpenStreetMap/Overpass"}}, {"type": "Feature", "geometry": {"type": "Point", "coordinates": [8.4181309, 49.4421992]}, "properties": {"id": "osm:way:1082449540", "type": "kindergarten", "name": "Kindertagesstätte Regenbogenland", "source": "OpenStreetMap/Overpass"}}, {"type": "Feature", "geometry": {"type": "Point", "coordinates": [8.4280777, 49.4467796]}, "properties": {"id": "osm:way:1082450690", "type": "kindergarten", "name": "Kindertagesstätte Brückweg", "source": "OpenStreetMap/Overpass"}}, {"type": "Feature", "geometry": {"type": "Point", "coordinates": [8.4278654, 49.4226429]}, "properties": {"id": "osm:way:1084677388", "type": "kindergarten", "name": "NOVA FamilienZentrum Neuhofen", "source": "OpenStreetMap/Overpass"}}, {"type": "Feature", "geometry": {"type": "Point", "coordinates": [8.4207832, 49.4553297]}, "properties": {"id": "osm:way:1085503298", "type": "kindergarten", "name": "Kindertagesstätte Ebernburgstraße", "source": "OpenStreetMap/Overpass"}}, {"type": "Feature", "geometry": {"type": "Point", "coordinates": [8.4287683, 49.4649786]}, "properties": {"id": "osm:way:1085506130", "type": "kindergarten", "name": "Kindertagesstätte St. Sebastian I", "source": "OpenStreetMap/Overpass"}}, {"type": "Feature", "geometry": {"type": "Point", "coordinates": [8.4790309, 49.4941229]}, "properties": {"id": "osm:way:1088546745", "type": "school", "name": "Justus-von-Liebig-Schule", "source": "OpenStreetMap/Overpass"}}, {"type": "Feature", "geometry": {"type": "Point", "coordinates": [8.4156323, 49.4796981]}, "properties": {"id": "osm:way:1090328130", "type": "kindergarten", "name": "SLS Abenteuerland", "source": "OpenStreetMap/Overpass"}}, {"type": "Feature", "geometry": {"type": "Point", "coordinates": [8.4148713, 49.4791963]}, "properties": {"id": "osm:way:1090328131", "type": "kindergarten", "name": "Emmi-Knauber-Hort", "source": "OpenStreetMap/Overpass"}}, {"type": "Feature", "geometry": {"type": "Point", "coordinates": [8.422447, 49.4788249]}, "properties": {"id": "osm:way:1090328135", "type": "school", "name": "LUKAS-Schule", "source": "OpenStreetMap/Overpass"}}, {"type": "Feature", "geometry": {"type": "Point", "coordinates": [8.4255041, 49.4809708]}, "properties": {"id": "osm:way:1090328138", "type": "kindergarten", "name": "Kindertagesstätte Lummerland", "source": "OpenStreetMap/Overpass"}}, {"type": "Feature", "geometry": {"type": "Point", "coordinates": [8.4269577, 49.478171]}, "properties": {"id": "osm:way:1090328143", "type": "school", "name": "", "source": "OpenStreetMap/Overpass"}}, {"type": "Feature", "geometry": {"type": "Point", "coordinates": [8.4941901, 49.434641]}, "properties": {"id": "osm:way:1095087016", "type": "kindergarten", "name": "Friedrich-Fröbel-Kindertagesstätte", "source": "OpenStreetMap/Overpass"}}, {"type": "Feature", "geometry": {"type": "Point", "coordinates": [8.4945809, 49.4346473]}, "properties": {"id": "osm:way:1095087623", "type": "school", "name": "Albert-Schweitzer-Schule", "source": "OpenStreetMap/Overpass"}}, {"type": "Feature", "geometry": {"type": "Point", "coordinates": [8.4181015, 49.444259]}, "properties": {"id": "osm:way:1097197157", "type": "kindergarten", "name": "Kindertagesstätte Brückweg - Hort Unicum", "source": "OpenStreetMap/Overpass"}}, {"type": "Feature", "geometry": {"type": "Point", "coordinates": [8.4527415, 49.4807249]}, "properties": {"id": "osm:way:1103575609", "type": "kindergarten", "name": "Prot. Kindertagesstätte Dietrich Bonhoeffer Zentrum", "source": "OpenStreetMap/Overpass"}}, {"type": "Feature", "geometry": {"type": "Point", "coordinates": [8.4547058, 49.47245]}, "properties": {"id": "osm:way:1104723416", "type": "kindergarten", "name": "Kindertagesstätte Gneisenaustraße", "source": "OpenStreetMap/Overpass"}}, {"type": "Feature", "geometry": {"type": "Point", "coordinates": [8.4428115, 49.472854]}, "properties": {"id": "osm:way:1104725149", "type": "kindergarten", "name": "Prot. Kindertagesstätte Lukaskirche", "source": "OpenStreetMap/Overpass"}}, {"type": "Feature", "geometry": {"type": "Point", "coordinates": [8.4391837, 49.4706535]}, "properties": {"id": "osm:way:1104752844", "type": "kindergarten", "name": "Kindertagesstätte Von-Weber-Straße", "source": "OpenStreetMap/Overpass"}}, {"type": "Feature", "geometry": {"type": "Point", "coordinates": [8.4477852, 49.4798617]}, "properties": {"id": "osm:way:1105007791", "type": "kindergarten", "name": "Familien-Kindertagesstätte St. Ludwig", "source": "OpenStreetMap/Overpass"}}, {"type": "Feature", "geometry": {"type": "Point", "coordinates": [8.4256367, 49.494783]}, "properties": {"id": "osm:way:1105412078", "type": "kindergarten", "name": "Kindertagesstätte Friedenskirche", "source": "OpenStreetMap/Overpass"}}, {"type": "Feature", "geometry": {"type": "Point", "coordinates": [8.4210066, 49.4966535]}, "properties": {"id": "osm:way:1105413072", "type": "kindergarten", "name": "Kindertagesstätte St. Josef", "source": "OpenStreetMap/Overpass"}}, {"type": "Feature", "geometry": {"type": "Point", "coordinates": [8.4183395, 49.5000543]}, "properties": {"id": "osm:way:1105414374", "type": "kindergarten", "name": "Kindertagesstätte St. Gallus Arche Noah", "source": "OpenStreetMap/Overpass"}}, {"type": "Feature", "geometry": {"type": "Point", "coordinates": [8.4321484, 49.4646876]}, "properties": {"id": "osm:way:1105584519", "type": "school", "name": "Schulzentrum Mundenheim", "source": "OpenStreetMap/Overpass"}}, {"type": "Feature", "geometry": {"type": "Point", "coordinates": [8.4329011, 49.4626882]}, "properties": {"id": "osm:way:1105599447", "type": "kindergarten", "name": "", "source": "OpenStreetMap/Overpass"}}, {"type": "Feature", "geometry": {"type": "Point", "coordinates": [8.4464452, 49.4808168]}, "properties": {"id": "osm:way:1105857839", "type": "kindergarten", "name": "Kindertagesstätte Arche Noah", "source": "OpenStreetMap/Overpass"}}, {"type": "Feature", "geometry": {"type": "Point", "coordinates": [8.4280504, 49.4934465]}, "properties": {"id": "osm:way:1105951850", "type": "kindergarten", "name": "LuKids", "source": "OpenStreetMap/Overpass"}}, {"type": "Feature", "geometry": {"type": "Point", "coordinates": [8.4213238, 49.4955476]}, "properties": {"id": "osm:way:1106491127", "type": "school", "name": "Rupprechtschule", "source": "OpenStreetMap/Overpass"}}, {"type": "Feature", "geometry": {"type": "Point", "coordinates": [8.4290717, 49.482043]}, "properties": {"id": "osm:way:1109900367", "type": "kindergarten", "name": "Kindertagesstätte Heilig Kreuz", "source": "OpenStreetMap/Overpass"}}, {"type": "Feature", "geometry": {"type": "Point", "coordinates": [8.4260885, 49.4593332]}, "properties": {"id": "osm:way:1110462915", "type": "school", "name": "Grundschule Schillerschule Mundenheim", "source": "OpenStreetMap/Overpass"}}, {"type": "Feature", "geometry": {"type": "Point", "coordinates": [8.4522341, 49.4764469]}, "properties": {"id": "osm:way:1115926417", "type": "kindergarten", "name": "Kindertagesstätte Süd", "source": "OpenStreetMap/Overpass"}}, {"type": "Feature", "geometry": {"type": "Point", "coordinates": [8.4516413, 49.4738079]}, "properties": {"id": "osm:way:1118232975", "type": "kindergarten", "name": "Kindertagesstätte Herz-Jesu", "source": "OpenStreetMap/Overpass"}}, {"type": "Feature", "geometry": {"type": "Point", "coordinates": [8.4539319, 49.4724267]}, "properties": {"id": "osm:way:1118235236", "type": "kindergarten", "name": "Kindertagesstätte Karl-Krämer-Straße", "source": "OpenStreetMap/Overpass"}}, {"type": "Feature", "geometry": {"type": "Point", "coordinates": [8.4368735, 49.4726619]}, "properties": {"id": "osm:way:1118241137", "type": "kindergarten", "name": "Kindertagesstätte Heilig Geist", "source": "OpenStreetMap/Overpass"}}, {"type": "Feature", "geometry": {"type": "Point", "coordinates": [8.4317242, 49.471553]}, "properties": {"id": "osm:way:1118245510", "type": "kindergarten", "name": "Kindertagesstätte Albert-Schweitzer", "source": "OpenStreetMap/Overpass"}}, {"type": "Feature", "geometry": {"type": "Point", "coordinates": [8.4337605, 49.4698414]}, "properties": {"id": "osm:way:1118246543", "type": "kindergarten", "name": "Kindertagesstätte Hummelnest", "source": "OpenStreetMap/Overpass"}}, {"type": "Feature", "geometry": {"type": "Point", "coordinates": [8.4402765, 49.4779689]}, "properties": {"id": "osm:way:1119292845", "type": "kindergarten", "name": "Kindertagesstätte Mitte", "source": "OpenStreetMap/Overpass"}}, {"type": "Feature", "geometry": {"type": "Point", "coordinates": [8.4377008, 49.4813666]}, "properties": {"id": "osm:way:1119293708", "type": "kindergarten", "name": "Kindertagesstätte Heinigstraße", "source": "OpenStreetMap/Overpass"}}, {"type": "Feature", "geometry": {"type": "Point", "coordinates": [8.440166, 49.4809292]}, "properties": {"id": "osm:way:1120015955", "type": "kindergarten", "name": "Kindertagesstätte Erich-Kästner-Hort", "source": "OpenStreetMap/Overpass"}}, {"type": "Feature", "geometry": {"type": "Point", "coordinates": [8.4469658, 49.4748991]}, "properties": {"id": "osm:way:1120058322", "type": "kindergarten", "name": "Schultagesstätte Grimmburg", "source": "OpenStreetMap/Overpass"}}, {"type": "Feature", "geometry": {"type": "Point", "coordinates": [8.5744965, 49.5465169]}, "properties": {"id": "osm:way:1131775038", "type": "kindergarten", "name": "Bewegte AWO-Kindertagesstätte Lorscher Straße", "source": "OpenStreetMap/Overpass"}}, {"type": "Feature", "geometry": {"type": "Point", "coordinates": [8.4647764, 49.4986104]}, "properties": {"id": "osm:way:1142118338", "type": "school", "name": "Marie-Curie-Realschule", "source": "OpenStreetMap/Overpass"}}, {"type": "Feature", "geometry": {"type": "Point", "coordinates": [8.4757923, 49.495556]}, "properties": {"id": "osm:way:1162470024", "type": "school", "name": "Werner-von-Siemens-Schule Mannheim", "source": "OpenStreetMap/Overpass"}}, {"type": "Feature", "geometry": {"type": "Point", "coordinates": [8.5896038, 49.5410377]}, "properties": {"id": "osm:way:1202713792", "type": "kindergarten", "name": "", "source": "OpenStreetMap/Overpass"}}, {"type": "Feature", "geometry": {"type": "Point", "coordinates": [8.4604598, 49.5028314]}, "properties": {"id": "osm:way:1223712257", "type": "school", "name": "Hans-Zulliger-Schule", "source": "OpenStreetMap/Overpass"}}, {"type": "Feature", "geometry": {"type": "Point", "coordinates": [8.4775224, 49.5071688]}, "properties": {"id": "osm:way:1223737297", "type": "school", "name": "Integrierte Gesamtschule Mannheim-Herzogenried", "source": "OpenStreetMap/Overpass"}}, {"type": "Feature", "geometry": {"type": "Point", "coordinates": [8.4640523, 49.503716]}, "properties": {"id": "osm:way:1236505428", "type": "kindergarten", "name": "", "source": "OpenStreetMap/Overpass"}}, {"type": "Feature", "geometry": {"type": "Point", "coordinates": [8.4346651, 49.486244]}, "properties": {"id": "osm:way:1267378548", "type": "kindergarten", "name": "", "source": "OpenStreetMap/Overpass"}}, {"type": "Feature", "geometry": {"type": "Point", "coordinates": [8.5254621, 49.4175144]}, "properties": {"id": "osm:way:1273560985", "type": "kindergarten", "name": "ev. Kindergarten", "source": "OpenStreetMap/Overpass"}}, {"type": "Feature", "geometry": {"type": "Point", "coordinates": [8.5169921, 49.4406757]}, "properties": {"id": "osm:way:1304068322", "type": "kindergarten", "name": "Kindertagesstätte St. Konrad", "source": "OpenStreetMap/Overpass"}}, {"type": "Feature", "geometry": {"type": "Point", "coordinates": [8.4269141, 49.4592624]}, "properties": {"id": "osm:way:1321662344", "type": "school", "name": "Förderschule Schillerschule Mundenheim", "source": "OpenStreetMap/Overpass"}}, {"type": "Feature", "geometry": {"type": "Point", "coordinates": [8.4276329, 49.4812036]}, "properties": {"id": "osm:way:1340233493", "type": "school", "name": "Kinderhort Don Bosco", "source": "OpenStreetMap/Overpass"}}, {"type": "Feature", "geometry": {"type": "Point", "coordinates": [8.5072646, 49.5090414]}, "properties": {"id": "osm:way:1411772922", "type": "childcare", "name": "Kinderhaus Käfertal", "source": "OpenStreetMap/Overpass"}}, {"type": "Feature", "geometry": {"type": "Point", "coordinates": [8.4674684, 49.4721842]}, "properties": {"id": "osm:way:1416695258", "type": "kindergarten", "name": "Kindernest Waldpark", "source": "OpenStreetMap/Overpass"}}, {"type": "Feature", "geometry": {"type": "Point", "coordinates": [8.5166902, 49.5050271]}, "properties": {"id": "osm:way:1421533486", "type": "kindergarten", "name": "", "source": "OpenStreetMap/Overpass"}}, {"type": "Feature", "geometry": {"type": "Point", "coordinates": [8.5155519, 49.5052217]}, "properties": {"id": "osm:way:1421895106", "type": "school", "name": "Spinelli-Grundschule", "source": "OpenStreetMap/Overpass"}}, {"type": "Feature", "geometry": {"type": "Point", "coordinates": [8.4884797, 49.4544386]}, "properties": {"id": "osm:way:1425532553", "type": "school", "name": "Johann-Sebastian-Bach-Gymnasium", "source": "OpenStreetMap/Overpass"}}, {"type": "Feature", "geometry": {"type": "Point", "coordinates": [8.5196166, 49.4498407]}, "properties": {"id": "osm:way:1430201187", "type": "school", "name": "Privatgymnasium Mannheim", "source": "OpenStreetMap/Overpass"}}, {"type": "Feature", "geometry": {"type": "Point", "coordinates": [8.5321114, 49.4732734]}, "properties": {"id": "osm:way:1430304877", "type": "school", "name": "Karl-von-Drais-Schule", "source": "OpenStreetMap/Overpass"}}, {"type": "Feature", "geometry": {"type": "Point", "coordinates": [8.4677614, 49.4997834]}, "properties": {"id": "osm:way:1436781030", "type": "kindergarten", "name": "Kinderladen Alphörnchen", "source": "OpenStreetMap/Overpass"}}, {"type": "Feature", "geometry": {"type": "Point", "coordinates": [8.4795576, 49.4986842]}, "properties": {"id": "osm:way:1445871733", "type": "school", "name": "Uhlandschule", "source": "OpenStreetMap/Overpass"}}, {"type": "Feature", "geometry": {"type": "Point", "coordinates": [8.5071724, 49.524187]}, "properties": {"id": "osm:way:1447721791", "type": "kindergarten", "name": "Evangelischer Kindergarten Abendröte", "source": "OpenStreetMap/Overpass"}}, {"type": "Feature", "geometry": {"type": "Point", "coordinates": [8.5270415, 49.5142488]}, "properties": {"id": "osm:way:1453028994", "type": "kindergarten", "name": "Kindergarten Forum Franklin", "source": "OpenStreetMap/Overpass"}}, {"type": "Feature", "geometry": {"type": "Point", "coordinates": [8.480308, 49.4838482]}, "properties": {"id": "osm:way:1457502469", "type": "school", "name": "Oststadtschule", "source": "OpenStreetMap/Overpass"}}, {"type": "Feature", "geometry": {"type": "Point", "coordinates": [8.4712886, 49.4483544]}, "properties": {"id": "osm:way:1460224600", "type": "school", "name": "Odilien-Schule", "source": "OpenStreetMap/Overpass"}}, {"type": "Feature", "geometry": {"type": "Point", "coordinates": [8.4741089, 49.4486251]}, "properties": {"id": "osm:way:1460224601", "type": "kindergarten", "name": "Waldorfkindergarten Gänsweide", "source": "OpenStreetMap/Overpass"}}, {"type": "Feature", "geometry": {"type": "Point", "coordinates": [8.4722347, 49.4486614]}, "properties": {"id": "osm:way:1460230489", "type": "school", "name": "", "source": "OpenStreetMap/Overpass"}}, {"type": "Feature", "geometry": {"type": "Point", "coordinates": [8.5410179, 49.413961]}, "properties": {"id": "osm:way:1462109021", "type": "school", "name": "", "source": "OpenStreetMap/Overpass"}}, {"type": "Feature", "geometry": {"type": "Point", "coordinates": [8.5399223, 49.4142031]}, "properties": {"id": "osm:way:1462109022", "type": "kindergarten", "name": "", "source": "OpenStreetMap/Overpass"}}, {"type": "Feature", "geometry": {"type": "Point", "coordinates": [8.485704, 49.4505543]}, "properties": {"id": "osm:way:1473408744", "type": "kindergarten", "name": "Im Aufi", "source": "OpenStreetMap/Overpass"}}, {"type": "Feature", "geometry": {"type": "Point", "coordinates": [8.4657604, 49.5022844]}, "properties": {"id": "osm:way:1481102077", "type": "kindergarten", "name": "Familien-Kita Neckarstadt-West", "source": "OpenStreetMap/Overpass"}}, {"type": "Feature", "geometry": {"type": "Point", "coordinates": [8.4834101, 49.4648652]}, "properties": {"id": "osm:way:1481369182", "type": "kindergarten", "name": "Kinderhaus Maria und Josef", "source": "OpenStreetMap/Overpass"}}, {"type": "Feature", "geometry": {"type": "Point", "coordinates": [8.4481804, 49.4804529]}, "properties": {"id": "osm:way:1484168608", "type": "school", "name": "Berufsbildende Schule Wirtschaft II Ludwigshafen", "source": "OpenStreetMap/Overpass"}}, {"type": "Feature", "geometry": {"type": "Point", "coordinates": [8.4605514, 49.4883681]}, "properties": {"id": "osm:way:1497177083", "type": "school", "name": "Friedrich-List-Schule", "source": "OpenStreetMap/Overpass"}}, {"type": "Feature", "geometry": {"type": "Point", "coordinates": [8.4737601, 49.5509068]}, "properties": {"id": "osm:relation:2186277", "type": "kindergarten", "name": "Katholischer Kindergarten Sankt Raphael", "source": "OpenStreetMap/Overpass"}}, {"type": "Feature", "geometry": {"type": "Point", "coordinates": [8.4742703, 49.5494822]}, "properties": {"id": "osm:relation:3202737", "type": "school", "name": "Unterrichtsgebäude", "source": "OpenStreetMap/Overpass"}}, {"type": "Feature", "geometry": {"type": "Point", "coordinates": [8.4746558, 49.5499568]}, "properties": {"id": "osm:relation:8682983", "type": "school", "name": "Johanna-Geissmar-Gymnasium", "source": "OpenStreetMap/Overpass"}}, {"type": "Feature", "geometry": {"type": "Point", "coordinates": [8.4268455, 49.4781644]}, "properties": {"id": "osm:relation:12454474", "type": "school", "name": "Theodor-Heuss-Gymnasium", "source": "OpenStreetMap/Overpass"}}, {"type": "Feature", "geometry": {"type": "Point", "coordinates": [8.4258352, 49.4776551]}, "properties": {"id": "osm:relation:12454475", "type": "school", "name": "Anne-Frank-Realschule plus", "source": "OpenStreetMap/Overpass"}}, {"type": "Feature", "geometry": {"type": "Point", "coordinates": [8.4603312, 49.4860747]}, "properties": {"id": "osm:relation:13838072", "type": "school", "name": "Ursulinen-Gymnasium", "source": "OpenStreetMap/Overpass"}}, {"type": "Feature", "geometry": {"type": "Point", "coordinates": [8.5691701, 49.4737221]}, "properties": {"id": "osm:relation:17690930", "type": "school", "name": "Schloss-Schule Ilvesheim", "source": "OpenStreetMap/Overpass"}}, {"type": "Feature", "geometry": {"type": "Point", "coordinates": [8.5607824, 49.4634756]}, "properties": {"id": "osm:relation:17690997", "type": "school", "name": "Seckenheim-Grundschule", "source": "OpenStreetMap/Overpass"}}, {"type": "Feature", "geometry": {"type": "Point", "coordinates": [8.4758445, 49.4820226]}, "properties": {"id": "osm:relation:20071446", "type": "school", "name": "Karl-Friedrich Gymnasium", "source": "OpenStreetMap/Overpass"}}]}
