{"type": "FeatureCollection", "features": [{"type": "Feature", "geometry": {"type": "Point", "coordinates": [10.821477, 48.2679579]}, "properties": {"id": "osm:node:271120289", "type": "school", "name": "Realschule Bobingen", "source": "OpenStreetMap/Overpass"}}, {"type": "Feature", "geometry": {"type": "Point", "coordinates": [10.8205409, 48.2674671]}, "properties": {"id": "osm:node:271120339", "type": "school", "name": "Grundschule an der Singold", "source": "OpenStreetMap/Overpass"}}, {"type": "Feature", "geometry": {"type": "Point", "coordinates": [10.8650638, 48.3387639]}, "properties": {"id": "osm:node:620875809", "type": "kindergarten", "name": "Integratives Kinderhaus des Hessing-Förderzentrums für Kinder", "source": "OpenStreetMap/Overpass"}}, {"type": "Feature", "geometry": {"type": "Point", "coordinates": [10.9005916, 48.3091189]}, "properties": {"id": "osm:node:638943753", "type": "kindergarten", "name": "Evang. Kindergarten", "source": "OpenStreetMap/Overpass"}}, {"type": "Feature", "geometry": {"type": "Point", "coordinates": [10.8358717, 48.3494759]}, "properties": {"id": "osm:node:665302299", "type": "kindergarten", "name": "DJK-Waldkindergarten", "source": "OpenStreetMap/Overpass"}}, {"type": "Feature", "geometry": {"type": "Point", "coordinates": [10.8621719, 48.3775351]}, "properties": {"id": "osm:node:715703718", "type": "kindergarten", "name": "Kindertagesstätte Langemarckstraße", "source": "OpenStreetMap/Overpass"}}, {"type": "Feature", "geometry": {"type": "Point", "coordinates": [10.8680077, 48.3494224]}, "properties": {"id": "osm:node:738290078", "type": "kindergarten", "name": "Villa Kunterbunt", "source": "OpenStreetMap/Overpass"}}, {"type": "Feature", "geometry": {"type": "Point", "coordinates": [10.9205359, 48.3796989]}, "properties": {"id": "osm:node:741671405", "type": "kindergarten", "name": "Ev. Kindertagesstätte St. Markus", "source": "OpenStreetMap/Overpass"}}, {"type": "Feature", "geometry": {"type": "Point", "coordinates": [10.8696262, 48.3418945]}, "properties": {"id": "osm:node:833164312", "type": "childcare", "name": "WillkommensKITA Klausenberg", "source": "OpenStreetMap/Overpass"}}, {"type": "Feature", "geometry": {"type": "Point", "coordinates": [10.9034677, 48.3558295]}, "properties": {"id": "osm:node:833711146", "type": "kindergarten", "name": "Kindernest", "source": "OpenStreetMap/Overpass"}}, {"type": "Feature", "geometry": {"type": "Point", "coordinates": [10.8610412, 48.3581808]}, "properties": {"id": "osm:node:851328261", "type": "kindergarten", "name": "Private Schulvorbereitende Einrichtung (SVE)", "source": "OpenStreetMap/Overpass"}}, {"type": "Feature", "geometry": {"type": "Point", "coordinates": [10.8610312, 48.3580935]}, "properties": {"id": "osm:node:851328372", "type": "school", "name": "Martinschule - Sonderpädagogisches Förderzentrum Augsburg III", "source": "OpenStreetMap/Overpass"}}, {"type": "Feature", "geometry": {"type": "Point", "coordinates": [10.8983987, 48.3732319]}, "properties": {"id": "osm:node:853813772", "type": "school", "name": "Fachakademie für Sozialpädagogik", "source": "OpenStreetMap/Overpass"}}, {"type": "Feature", "geometry": {"type": "Point", "coordinates": [10.8981331, 48.3732734]}, "properties": {"id": "osm:node:853813886", "type": "school", "name": "Berufsfachschule für Ernährung und Versorgung", "source": "OpenStreetMap/Overpass"}}, {"type": "Feature", "geometry": {"type": "Point", "coordinates": [10.874753, 48.3374349]}, "properties": {"id": "osm:node:868100172", "type": "kindergarten", "name": "Kinderstube St. Johannes", "source": "OpenStreetMap/Overpass"}}, {"type": "Feature", "geometry": {"type": "Point", "coordinates": [10.8643953, 48.3407093]}, "properties": {"id": "osm:node:874407718", "type": "kindergarten", "name": "KIDS Unibärchen", "source": "OpenStreetMap/Overpass"}}, {"type": "Feature", "geometry": {"type": "Point", "coordinates": [10.902553, 48.3474197]}, "properties": {"id": "osm:node:902659584", "type": "school", "name": "Gewerbliche Berufsschule 7 - Bebo-Wager-Schule", "source": "OpenStreetMap/Overpass"}}, {"type": "Feature", "geometry": {"type": "Point", "coordinates": [10.9025191, 48.3477323]}, "properties": {"id": "osm:node:902659585", "type": "school", "name": "Kaufmännische Berufsschule 5", "source": "OpenStreetMap/Overpass"}}, {"type": "Feature", "geometry": {"type": "Point", "coordinates": [10.9024386, 48.3481914]}, "properties": {"id": "osm:node:902659586", "type": "school", "name": "Gewerbliche Berufsschule 2 - Bebo-Wager-Schule", "source": "OpenStreetMap/Overpass"}}, {"type": "Feature", "geometry": {"type": "Point", "coordinates": [10.9024174, 48.3485181]}, "properties": {"id": "osm:node:902659587", "type": "school", "name": "Gewerbliche Berufsschule 1 - Bebo-Wager-Schule", "source": "OpenStreetMap/Overpass"}}, {"type": "Feature", "geometry": {"type": "Point", "coordinates": [10.858161, 48.3954258]}, "properties": {"id": "osm:node:914687634", "type": "school", "name": "", "source": "OpenStreetMap/Overpass"}}, {"type": "Feature", "geometry": {"type": "Point", "coordinates": [10.8643964, 48.3406848]}, "properties": {"id": "osm:node:944967452", "type": "kindergarten", "name": "Mini Kids", "source": "OpenStreetMap/Overpass"}}, {"type": "Feature", "geometry": {"type": "Point", "coordinates": [10.8747699, 48.3423326]}, "properties": {"id": "osm:node:1122119811", "type": "school", "name": "Berufsfachschule für Altenpflege", "source": "OpenStreetMap/Overpass"}}, {"type": "Feature", "geometry": {"type": "Point", "coordinates": [10.8747828, 48.3423849]}, "properties": {"id": "osm:node:1122119961", "type": "school", "name": "Berufsfachschule für pharmazeutisch technische Assistenten", "source": "OpenStreetMap/Overpass"}}, {"type": "Feature", "geometry": {"type": "Point", "coordinates": [10.8749123, 48.3428081]}, "properties": {"id": "osm:node:1122119981", "type": "school", "name": "Berufsvorbereitende Bildungsmaßnahmen", "source": "OpenStreetMap/Overpass"}}, {"type": "Feature", "geometry": {"type": "Point", "coordinates": [10.8932468, 48.3705372]}, "properties": {"id": "osm:node:1160893116", "type": "school", "name": "Heimerer Schule - Berufsfachschule für Altenpflege und Altenpflegehilfe", "source": "OpenStreetMap/Overpass"}}, {"type": "Feature", "geometry": {"type": "Point", "coordinates": [10.8558235, 48.3653921]}, "properties": {"id": "osm:node:1367658645", "type": "school", "name": "Landwirtschaftsschule Augsburg – Abteilung Landwirtschaft", "source": "OpenStreetMap/Overpass"}}, {"type": "Feature", "geometry": {"type": "Point", "coordinates": [10.9128339, 48.3678441]}, "properties": {"id": "osm:node:1422319768", "type": "childcare", "name": "Großtagespflege Drachenstern", "source": "OpenStreetMap/Overpass"}}, {"type": "Feature", "geometry": {"type": "Point", "coordinates": [10.8561143, 48.3720485]}, "properties": {"id": "osm:node:1561299834", "type": "school", "name": "Fachakademie für Sozialpädagogik", "source": "OpenStreetMap/Overpass"}}, {"type": "Feature", "geometry": {"type": "Point", "coordinates": [10.8577048, 48.3719448]}, "properties": {"id": "osm:node:1562197297", "type": "childcare", "name": "Graceland - Kinderkrippe", "source": "OpenStreetMap/Overpass"}}, {"type": "Feature", "geometry": {"type": "Point", "coordinates": [10.900705, 48.3380693]}, "properties": {"id": "osm:node:1574566674", "type": "school", "name": "Technikerschule Augsburg", "source": "OpenStreetMap/Overpass"}}, {"type": "Feature", "geometry": {"type": "Point", "coordinates": [10.8379195, 48.3841311]}, "properties": {"id": "osm:node:1592558748", "type": "school", "name": "Berufsfachschule des Klinikums Augsburg", "source": "OpenStreetMap/Overpass"}}, {"type": "Feature", "geometry": {"type": "Point", "coordinates": [10.8568852, 48.3810103]}, "properties": {"id": "osm:node:1594712452", "type": "school", "name": "Berufsfachschulen der bfz", "source": "OpenStreetMap/Overpass"}}, {"type": "Feature", "geometry": {"type": "Point", "coordinates": [10.8562346, 48.3720122]}, "properties": {"id": "osm:node:1594765335", "type": "school", "name": "Berufsfachschule für Altenpflege und Altenpflegehilfe", "source": "OpenStreetMap/Overpass"}}, {"type": "Feature", "geometry": {"type": "Point", "coordinates": [10.9479174, 48.3804671]}, "properties": {"id": "osm:node:1605507255", "type": "school", "name": "ABZ - Ausbildunszentrum Baugewerbe", "source": "OpenStreetMap/Overpass"}}, {"type": "Feature", "geometry": {"type": "Point", "coordinates": [10.8611653, 48.3766149]}, "properties": {"id": "osm:node:1766123922", "type": "school", "name": "Berufsfachschule für Physiotherapie", "source": "OpenStreetMap/Overpass"}}, {"type": "Feature", "geometry": {"type": "Point", "coordinates": [10.927662, 48.3758353]}, "properties": {"id": "osm:node:1767408330", "type": "kindergarten", "name": "Kindergarten Unsere Liebe Frau", "source": "OpenStreetMap/Overpass"}}, {"type": "Feature", "geometry": {"type": "Point", "coordinates": [10.9026956, 48.3736552]}, "properties": {"id": "osm:node:1882126823", "type": "school", "name": "Staatsinstitut für die Ausbildung von Fachlehrern", "source": "OpenStreetMap/Overpass"}}, {"type": "Feature", "geometry": {"type": "Point", "coordinates": [10.9030414, 48.3737072]}, "properties": {"id": "osm:node:1882126834", "type": "kindergarten", "name": "Montessori-Kinderhaus", "source": "OpenStreetMap/Overpass"}}, {"type": "Feature", "geometry": {"type": "Point", "coordinates": [10.902909, 48.3860038]}, "properties": {"id": "osm:node:2560228618", "type": "kindergarten", "name": "Kindertagesstätte Dr.-Otto-Meyer-Straße", "source": "OpenStreetMap/Overpass"}}, {"type": "Feature", "geometry": {"type": "Point", "coordinates": [10.9044466, 48.3337749]}, "properties": {"id": "osm:node:3208610676", "type": "childcare", "name": "Glühwürmchen e.V.", "source": "OpenStreetMap/Overpass"}}, {"type": "Feature", "geometry": {"type": "Point", "coordinates": [10.8660249, 48.3642335]}, "properties": {"id": "osm:node:4046470101", "type": "school", "name": "Heilpraktikerschule Centrum Novem", "source": "OpenStreetMap/Overpass"}}, {"type": "Feature", "geometry": {"type": "Point", "coordinates": [10.9157088, 48.3782808]}, "properties": {"id": "osm:node:4519260847", "type": "kindergarten", "name": "Kindertagespflege BayKiBiG", "source": "OpenStreetMap/Overpass"}}, {"type": "Feature", "geometry": {"type": "Point", "coordinates": [10.9461401, 48.3568043]}, "properties": {"id": "osm:node:4571682160", "type": "kindergarten", "name": "Hort (ev)", "source": "OpenStreetMap/Overpass"}}, {"type": "Feature", "geometry": {"type": "Point", "coordinates": [10.9460458, 48.3568033]}, "properties": {"id": "osm:node:4571682161", "type": "kindergarten", "name": "Hort (rk)", "source": "OpenStreetMap/Overpass"}}, {"type": "Feature", "geometry": {"type": "Point", "coordinates": [10.8842849, 48.2661659]}, "properties": {"id": "osm:node:4783994563", "type": "kindergarten", "name": "Kinderkrippe St. Johannes", "source": "OpenStreetMap/Overpass"}}, {"type": "Feature", "geometry": {"type": "Point", "coordinates": [10.8769101, 48.380366]}, "properties": {"id": "osm:node:4902935064", "type": "kindergarten", "name": "Kalimero", "source": "OpenStreetMap/Overpass"}}, {"type": "Feature", "geometry": {"type": "Point", "coordinates": [10.8593622, 48.3959447]}, "properties": {"id": "osm:node:5124388823", "type": "kindergarten", "name": "Kindergarten St. Konrad", "source": "OpenStreetMap/Overpass"}}, {"type": "Feature", "geometry": {"type": "Point", "coordinates": [10.8926558, 48.374661]}, "properties": {"id": "osm:node:5218092883", "type": "school", "name": "Abendrealschule für Berufstätige", "source": "OpenStreetMap/Overpass"}}, {"type": "Feature", "geometry": {"type": "Point", "coordinates": [10.9191482, 48.3771514]}, "properties": {"id": "osm:node:5333540978", "type": "kindergarten", "name": "Kinderkrippe Neißestraße", "source": "OpenStreetMap/Overpass"}}, {"type": "Feature", "geometry": {"type": "Point", "coordinates": [10.8682275, 48.3393825]}, "properties": {"id": "osm:node:6109179079", "type": "childcare", "name": "Kinderlachen", "source": "OpenStreetMap/Overpass"}}, {"type": "Feature", "geometry": {"type": "Point", "coordinates": [10.8916334, 48.3704148]}, "properties": {"id": "osm:node:6184701985", "type": "school", "name": "Kosmetikschule Gebauer", "source": "OpenStreetMap/Overpass"}}, {"type": "Feature", "geometry": {"type": "Point", "coordinates": [10.8593966, 48.3141074]}, "properties": {"id": "osm:node:6205890266", "type": "kindergarten", "name": "Zauberkreisel Vorkindergarten", "source": "OpenStreetMap/Overpass"}}, {"type": "Feature", "geometry": {"type": "Point", "coordinates": [10.9077769, 48.3693723]}, "properties": {"id": "osm:node:6612922041", "type": "childcare", "name": "Hort an der Elias-Holl-Grundschule", "source": "OpenStreetMap/Overpass"}}, {"type": "Feature", "geometry": {"type": "Point", "coordinates": [10.8991341, 48.3643162]}, "properties": {"id": "osm:node:7643973888", "type": "school", "name": "Ulrichschule Sonderpädagogisches Förderzentrum", "source": "OpenStreetMap/Overpass"}}, {"type": "Feature", "geometry": {"type": "Point", "coordinates": [10.9367958, 48.3877845]}, "properties": {"id": "osm:node:8528654823", "type": "school", "name": "Atropa Akademie Heilpraktikerschule", "source": "OpenStreetMap/Overpass"}}, {"type": "Feature", "geometry": {"type": "Point", "coordinates": [10.9144549, 48.2939594]}, "properties": {"id": "osm:node:8544649822", "type": "childcare", "name": "Waldkindergarten \"Eichhörnchen\"", "source": "OpenStreetMap/Overpass"}}, {"type": "Feature", "geometry": {"type": "Point", "coordinates": [10.8825709, 48.3821013]}, "properties": {"id": "osm:node:8580551994", "type": "school", "name": "Martinschule - Sonderpädagogisches Förderzentrum II", "source": "OpenStreetMap/Overpass"}}, {"type": "Feature", "geometry": {"type": "Point", "coordinates": [10.9124842, 48.2712851]}, "properties": {"id": "osm:node:8600048614", "type": "kindergarten", "name": "Waldwichtel", "source": "OpenStreetMap/Overpass"}}, {"type": "Feature", "geometry": {"type": "Point", "coordinates": [10.8887086, 48.3274763]}, "properties": {"id": "osm:node:8658754925", "type": "kindergarten", "name": "Kitarino – Karl-Drais-Straße", "source": "OpenStreetMap/Overpass"}}, {"type": "Feature", "geometry": {"type": "Point", "coordinates": [10.9143185, 48.3386132]}, "properties": {"id": "osm:node:9128889003", "type": "childcare", "name": "Bauwagen des Waldkindergarten Regenstrahlen Augsburg", "source": "OpenStreetMap/Overpass"}}, {"type": "Feature", "geometry": {"type": "Point", "coordinates": [10.9075511, 48.3278799]}, "properties": {"id": "osm:node:9130079473", "type": "childcare", "name": "Bauwagen des Waldkindergarten Farntasie Augsburg", "source": "OpenStreetMap/Overpass"}}, {"type": "Feature", "geometry": {"type": "Point", "coordinates": [10.869597, 48.374062]}, "properties": {"id": "osm:node:9198957018", "type": "school", "name": "Bischof-Ulrich-Grundschule", "source": "OpenStreetMap/Overpass"}}, {"type": "Feature", "geometry": {"type": "Point", "coordinates": [10.8689064, 48.3740727]}, "properties": {"id": "osm:node:9198957039", "type": "school", "name": "Bischof-Ulrich-Realschule", "source": "OpenStreetMap/Overpass"}}, {"type": "Feature", "geometry": {"type": "Point", "coordinates": [10.9099509, 48.3718321]}, "properties": {"id": "osm:node:9270780238", "type": "childcare", "name": "Außenstelle Kindertageseinrichtung Hort Obere Jakobermauer", "source": "OpenStreetMap/Overpass"}}, {"type": "Feature", "geometry": {"type": "Point", "coordinates": [10.9466469, 48.3556297]}, "properties": {"id": "osm:node:9287209356", "type": "kindergarten", "name": "Kinderkrippe Zwergenland", "source": "OpenStreetMap/Overpass"}}, {"type": "Feature", "geometry": {"type": "Point", "coordinates": [10.8972834, 48.3588866]}, "properties": {"id": "osm:node:9624549131", "type": "kindergarten", "name": "teddy & bär", "source": "OpenStreetMap/Overpass"}}, {"type": "Feature", "geometry": {"type": "Point", "coordinates": [10.8879784, 48.3279377]}, "properties": {"id": "osm:node:10130723269", "type": "school", "name": "TÜV Süd Akademie", "source": "OpenStreetMap/Overpass"}}, {"type": "Feature", "geometry": {"type": "Point", "coordinates": [10.9016639, 48.3389219]}, "properties": {"id": "osm:node:10201381063", "type": "childcare", "name": "Kinderwelt TONI Park", "source": "OpenStreetMap/Overpass"}}, {"type": "Feature", "geometry": {"type": "Point", "coordinates": [10.7953586, 48.3814064]}, "properties": {"id": "osm:node:10245401654", "type": "kindergarten", "name": "Städtischer Kindergarten Hainhofen", "source": "OpenStreetMap/Overpass"}}, {"type": "Feature", "geometry": {"type": "Point", "coordinates": [10.8996961, 48.3302833]}, "properties": {"id": "osm:node:10248934765", "type": "school", "name": "Berufsfachschule", "source": "OpenStreetMap/Overpass"}}, {"type": "Feature", "geometry": {"type": "Point", "coordinates": [10.9003913, 48.3302833]}, "properties": {"id": "osm:node:10248934766", "type": "school", "name": "Fachakademie", "source": "OpenStreetMap/Overpass"}}, {"type": "Feature", "geometry": {"type": "Point", "coordinates": [10.8859996, 48.3782369]}, "properties": {"id": "osm:node:10689096085", "type": "childcare", "name": "Mini-Kita Wertachstraße", "source": "OpenStreetMap/Overpass"}}, {"type": "Feature", "geometry": {"type": "Point", "coordinates": [10.8853473, 48.3570732]}, "properties": {"id": "osm:node:10912841504", "type": "kindergarten", "name": "Kindergarten und Hort St. Anton", "source": "OpenStreetMap/Overpass"}}, {"type": "Feature", "geometry": {"type": "Point", "coordinates": [10.8832497, 48.4327319]}, "properties": {"id": "osm:node:10977566517", "type": "kindergarten", "name": "Hort St. Ulrich", "source": "OpenStreetMap/Overpass"}}, {"type": "Feature", "geometry": {"type": "Point", "coordinates": [10.8934609, 48.3769832]}, "properties": {"id": "osm:node:11152337405", "type": "school", "name": "KidsLab gGmbH", "source": "OpenStreetMap/Overpass"}}, {"type": "Feature", "geometry": {"type": "Point", "coordinates": [10.8890164, 48.3502906]}, "properties": {"id": "osm:node:11240984649", "type": "kindergarten", "name": "Infanterix", "source": "OpenStreetMap/Overpass"}}, {"type": "Feature", "geometry": {"type": "Point", "coordinates": [10.8796088, 48.3540951]}, "properties": {"id": "osm:node:11394907756", "type": "kindergarten", "name": "Kindercafé Augsburg", "source": "OpenStreetMap/Overpass"}}, {"type": "Feature", "geometry": {"type": "Point", "coordinates": [10.9084001, 48.3705414]}, "properties": {"id": "osm:node:11778222952", "type": "childcare", "name": "Großtagespflege Krümelkekse", "source": "OpenStreetMap/Overpass"}}, {"type": "Feature", "geometry": {"type": "Point", "coordinates": [10.9344703, 48.3801764]}, "properties": {"id": "osm:node:11917648728", "type": "kindergarten", "name": "Kita Zentralhort Brixener Straße", "source": "OpenStreetMap/Overpass"}}, {"type": "Feature", "geometry": {"type": "Point", "coordinates": [10.9456633, 48.3485749]}, "properties": {"id": "osm:node:12115531265", "type": "kindergarten", "name": "Kindertagespflege Niños", "source": "OpenStreetMap/Overpass"}}, {"type": "Feature", "geometry": {"type": "Point", "coordinates": [10.9007218, 48.3380146]}, "properties": {"id": "osm:node:12185683713", "type": "school", "name": "Berufsbildungszentrum der Lehmbaugruppe", "source": "OpenStreetMap/Overpass"}}, {"type": "Feature", "geometry": {"type": "Point", "coordinates": [10.8740675, 48.3855358]}, "properties": {"id": "osm:node:12522879470", "type": "school", "name": "Schule für Kranke St. Josef", "source": "OpenStreetMap/Overpass"}}, {"type": "Feature", "geometry": {"type": "Point", "coordinates": [10.8740127, 48.3857229]}, "properties": {"id": "osm:node:12522879471", "type": "school", "name": "Schule für Gesundheitsberufe", "source": "OpenStreetMap/Overpass"}}, {"type": "Feature", "geometry": {"type": "Point", "coordinates": [10.9176939, 48.3660666]}, "properties": {"id": "osm:node:12778889250", "type": "kindergarten", "name": "Martini Bambini", "source": "OpenStreetMap/Overpass"}}, {"type": "Feature", "geometry": {"type": "Point", "coordinates": [10.8987268, 48.3630444]}, "properties": {"id": "osm:node:12919217074", "type": "kindergarten", "name": "Mini-Kita Armenhausgasse", "source": "OpenStreetMap/Overpass"}}, {"type": "Feature", "geometry": {"type": "Point", "coordinates": [10.8773366, 48.3648952]}, "properties": {"id": "osm:node:13247904346", "type": "school", "name": "Nähkurs Augsburg", "source": "OpenStreetMap/Overpass"}}, {"type": "Feature", "geometry": {"type": "Point", "coordinates": [10.9107613, 48.3116763]}, "properties": {"id": "osm:node:13376647571", "type": "childcare", "name": "Haunstetter Haselmäuse", "source": "OpenStreetMap/Overpass"}}, {"type": "Feature", "geometry": {"type": "Point", "coordinates": [10.9076543, 48.387913]}, "properties": {"id": "osm:node:13566972808", "type": "kindergarten", "name": "Kita Bayernkolleg", "source": "OpenStreetMap/Overpass"}}, {"type": "Feature", "geometry": {"type": "Point", "coordinates": [10.8613928, 48.3127963]}, "properties": {"id": "osm:way:30046156", "type": "school", "name": "Grundschule Inningen", "source": "OpenStreetMap/Overpass"}}, {"type": "Feature", "geometry": {"type": "Point", "coordinates": [10.8622617, 48.3121326]}, "properties": {"id": "osm:way:30046157", "type": "kindergarten", "name": "Theodor-Sachs-Kindergarten", "source": "OpenStreetMap/Overpass"}}, {"type": "Feature", "geometry": {"type": "Point", "coordinates": [10.8599069, 48.3098881]}, "properties": {"id": "osm:way:30072566", "type": "kindergarten", "name": "Johannes-Kindergarten", "source": "OpenStreetMap/Overpass"}}, {"type": "Feature", "geometry": {"type": "Point", "coordinates": [10.8343893, 48.2682523]}, "properties": {"id": "osm:way:31508420", "type": "school", "name": "Dr.-Jaufmann-Schule Bobingen - Mittelschule", "source": "OpenStreetMap/Overpass"}}, {"type": "Feature", "geometry": {"type": "Point", "coordinates": [10.8930347, 48.2599785]}, "properties": {"id": "osm:way:37683149", "type": "school", "name": "Rübezahlschule, Volksschule Königsbrunn-Süd (Grundschule)", "source": "OpenStreetMap/Overpass"}}, {"type": "Feature", "geometry": {"type": "Point", "coordinates": [10.8846455, 48.2698266]}, "properties": {"id": "osm:way:40381817", "type": "school", "name": "Gymnasium Königsbrunn", "source": "OpenStreetMap/Overpass"}}, {"type": "Feature", "geometry": {"type": "Point", "coordinates": [10.881662, 48.2643427]}, "properties": {"id": "osm:way:41274858", "type": "school", "name": "Mittelschule Königsbrunn-Süd auf dem Lechfeld", "source": "OpenStreetMap/Overpass"}}, {"type": "Feature", "geometry": {"type": "Point", "coordinates": [10.8897, 48.3691015]}, "properties": {"id": "osm:way:42024521", "type": "school", "name": "Maria-Theresia-Gymnasium", "source": "OpenStreetMap/Overpass"}}, {"type": "Feature", "geometry": {"type": "Point", "coordinates": [10.8738309, 48.345465]}, "properties": {"id": "osm:way:48009943", "type": "school", "name": "Gymnasium und Realschule Maria Stern", "source": "OpenStreetMap/Overpass"}}, {"type": "Feature", "geometry": {"type": "Point", "coordinates": [10.8657548, 48.3423669]}, "properties": {"id": "osm:way:48017957", "type": "kindergarten", "name": "Kindertagesstätte Fabrikstraße", "source": "OpenStreetMap/Overpass"}}, {"type": "Feature", "geometry": {"type": "Point", "coordinates": [10.8608583, 48.3307521]}, "properties": {"id": "osm:way:48171706", "type": "school", "name": "Hessing Förderzentrum für Kinder", "source": "OpenStreetMap/Overpass"}}, {"type": "Feature", "geometry": {"type": "Point", "coordinates": [10.8717567, 48.3460778]}, "properties": {"id": "osm:way:48952864", "type": "kindergarten", "name": "Sankt Anna Kindergarten", "source": "OpenStreetMap/Overpass"}}, {"type": "Feature", "geometry": {"type": "Point", "coordinates": [10.8826534, 48.3564016]}, "properties": {"id": "osm:way:49710556", "type": "kindergarten", "name": "Albertus Kindergarten", "source": "OpenStreetMap/Overpass"}}, {"type": "Feature", "geometry": {"type": "Point", "coordinates": [10.8937714, 48.3621754]}, "properties": {"id": "osm:way:50014826", "type": "school", "name": "Bertolt-Brecht-Realschule", "source": "OpenStreetMap/Overpass"}}, {"type": "Feature", "geometry": {"type": "Point", "coordinates": [10.8968434, 48.3754462]}, "properties": {"id": "osm:way:50055647", "type": "school", "name": "Maria-Ward-Gymnasium und -Realschule", "source": "OpenStreetMap/Overpass"}}, {"type": "Feature", "geometry": {"type": "Point", "coordinates": [10.8753456, 48.384434]}, "properties": {"id": "osm:way:50576106", "type": "school", "name": "Kapellen-Mittelschule", "source": "OpenStreetMap/Overpass"}}, {"type": "Feature", "geometry": {"type": "Point", "coordinates": [10.8530746, 48.3817175]}, "properties": {"id": "osm:way:51229090", "type": "kindergarten", "name": "Kindertageseinrichtung Dr.-Dürrwanger-Straße", "source": "OpenStreetMap/Overpass"}}, {"type": "Feature", "geometry": {"type": "Point", "coordinates": [10.9462683, 48.3493694]}, "properties": {"id": "osm:way:52249200", "type": "school", "name": "Grundschule Hochzoll-Süd", "source": "OpenStreetMap/Overpass"}}, {"type": "Feature", "geometry": {"type": "Point", "coordinates": [10.9066478, 48.3210179]}, "properties": {"id": "osm:way:53104785", "type": "kindergarten", "name": "St. Albert Kindertagesstätte", "source": "OpenStreetMap/Overpass"}}, {"type": "Feature", "geometry": {"type": "Point", "coordinates": [10.8955012, 48.2961505]}, "properties": {"id": "osm:way:53842845", "type": "kindergarten", "name": "Januz Korczak Kindergarten", "source": "OpenStreetMap/Overpass"}}, {"type": "Feature", "geometry": {"type": "Point", "coordinates": [10.8943377, 48.2965071]}, "properties": {"id": "osm:way:53842857", "type": "school", "name": "Franz-von-Assisi-Schule", "source": "OpenStreetMap/Overpass"}}, {"type": "Feature", "geometry": {"type": "Point", "coordinates": [10.894122, 48.3539867]}, "properties": {"id": "osm:way:54847206", "type": "childcare", "name": "Kindertagesstätte Spatzennest", "source": "OpenStreetMap/Overpass"}}, {"type": "Feature", "geometry": {"type": "Point", "coordinates": [10.8853085, 48.3920621]}, "properties": {"id": "osm:way:55381404", "type": "school", "name": "Drei-Auen-Grundschule", "source": "OpenStreetMap/Overpass"}}, {"type": "Feature", "geometry": {"type": "Point", "coordinates": [10.8838839, 48.3705872]}, "properties": {"id": "osm:way:59349496", "type": "school", "name": "Jakob-Fugger-Gymnasium", "source": "OpenStreetMap/Overpass"}}, {"type": "Feature", "geometry": {"type": "Point", "coordinates": [10.8925914, 48.375293]}, "properties": {"id": "osm:way:61187162", "type": "kindergarten", "name": "Montessori Kinderhaus", "source": "OpenStreetMap/Overpass"}}, {"type": "Feature", "geometry": {"type": "Point", "coordinates": [10.8932803, 48.3741074]}, "properties": {"id": "osm:way:61219746", "type": "school", "name": "St.-Georg Grund- und Mittelschule", "source": "OpenStreetMap/Overpass"}}, {"type": "Feature", "geometry": {"type": "Point", "coordinates": [10.8941049, 48.3739749]}, "properties": {"id": "osm:way:61274388", "type": "school", "name": "Kaufmännische Berufsschule IV - Welserschule", "source": "OpenStreetMap/Overpass"}}, {"type": "Feature", "geometry": {"type": "Point", "coordinates": [10.8889923, 48.3550809]}, "properties": {"id": "osm:way:62360440", "type": "school", "name": "Gymnasium bei St. Anna", "source": "OpenStreetMap/Overpass"}}, {"type": "Feature", "geometry": {"type": "Point", "coordinates": [10.9027375, 48.3570968]}, "properties": {"id": "osm:way:69024965", "type": "school", "name": "Benedikt-von-Nursia-Berufsschule", "source": "OpenStreetMap/Overpass"}}, {"type": "Feature", "geometry": {"type": "Point", "coordinates": [10.8990491, 48.3642792]}, "properties": {"id": "osm:way:70187970", "type": "school", "name": "Ulrichschule", "source": "OpenStreetMap/Overpass"}}, {"type": "Feature", "geometry": {"type": "Point", "coordinates": [10.9002297, 48.3668641]}, "properties": {"id": "osm:way:70192895", "type": "kindergarten", "name": "Kindergarten Altstadt", "source": "OpenStreetMap/Overpass"}}, {"type": "Feature", "geometry": {"type": "Point", "coordinates": [10.8999102, 48.3669619]}, "properties": {"id": "osm:way:70192902", "type": "kindergarten", "name": "Kindernest", "source": "OpenStreetMap/Overpass"}}, {"type": "Feature", "geometry": {"type": "Point", "coordinates": [10.8913263, 48.36983]}, "properties": {"id": "osm:way:70194312", "type": "school", "name": "St.-Anna-Grundschule Augsburg", "source": "OpenStreetMap/Overpass"}}, {"type": "Feature", "geometry": {"type": "Point", "coordinates": [10.8986288, 48.3490282]}, "properties": {"id": "osm:way:70194608", "type": "kindergarten", "name": "Kindertagesstätte Immelmannstraße", "source": "OpenStreetMap/Overpass"}}, {"type": "Feature", "geometry": {"type": "Point", "coordinates": [10.9045739, 48.3493645]}, "properties": {"id": "osm:way:70194613", "type": "school", "name": "Städtische Berufsschule 6", "source": "OpenStreetMap/Overpass"}}, {"type": "Feature", "geometry": {"type": "Point", "coordinates": [10.902988, 48.2970987]}, "properties": {"id": "osm:way:70209026", "type": "kindergarten", "name": "AWO Kindergarten und -hort", "source": "OpenStreetMap/Overpass"}}, {"type": "Feature", "geometry": {"type": "Point", "coordinates": [10.9089545, 48.3093039]}, "properties": {"id": "osm:way:70209036", "type": "kindergarten", "name": "Städtische Kindertagesstätte Dudenstraße", "source": "OpenStreetMap/Overpass"}}, {"type": "Feature", "geometry": {"type": "Point", "coordinates": [10.898756, 48.3096316]}, "properties": {"id": "osm:way:70209037", "type": "school", "name": "Albert Einstein Mittelschule", "source": "OpenStreetMap/Overpass"}}, {"type": "Feature", "geometry": {"type": "Point", "coordinates": [10.8852286, 48.4017226]}, "properties": {"id": "osm:way:70214427", "type": "kindergarten", "name": "Kindertagesstätte Schönbachstraße", "source": "OpenStreetMap/Overpass"}}, {"type": "Feature", "geometry": {"type": "Point", "coordinates": [10.9075273, 48.3720788]}, "properties": {"id": "osm:way:70215645", "type": "school", "name": "Montessori-Schule", "source": "OpenStreetMap/Overpass"}}, {"type": "Feature", "geometry": {"type": "Point", "coordinates": [10.9071178, 48.376968]}, "properties": {"id": "osm:way:70215656", "type": "kindergarten", "name": "Kindertagesstätte Reischlestraße", "source": "OpenStreetMap/Overpass"}}, {"type": "Feature", "geometry": {"type": "Point", "coordinates": [10.8536234, 48.3921584]}, "properties": {"id": "osm:way:70219734", "type": "kindergarten", "name": "Kindertagesstätte Meisenweg", "source": "OpenStreetMap/Overpass"}}, {"type": "Feature", "geometry": {"type": "Point", "coordinates": [10.8720696, 48.3858522]}, "properties": {"id": "osm:way:70219748", "type": "school", "name": "MTLA - Berufsfachschule für medizinisch-technische Laboratoriumsassistenten", "source": "OpenStreetMap/Overpass"}}, {"type": "Feature", "geometry": {"type": "Point", "coordinates": [10.8752579, 48.3681402]}, "properties": {"id": "osm:way:70219938", "type": "kindergarten", "name": "Kita Hessenbachstraße", "source": "OpenStreetMap/Overpass"}}, {"type": "Feature", "geometry": {"type": "Point", "coordinates": [10.8804584, 48.3787812]}, "properties": {"id": "osm:way:70220207", "type": "kindergarten", "name": "Evangelische Kindertagesstätte St. Johannes", "source": "OpenStreetMap/Overpass"}}, {"type": "Feature", "geometry": {"type": "Point", "coordinates": [10.898541, 48.3760819]}, "properties": {"id": "osm:way:70243019", "type": "school", "name": "Gymnasium bei St. Stephan", "source": "OpenStreetMap/Overpass"}}, {"type": "Feature", "geometry": {"type": "Point", "coordinates": [10.900279, 48.3640537]}, "properties": {"id": "osm:way:70246633", "type": "school", "name": "Städtische Fachakademie für Hauswirtschaft", "source": "OpenStreetMap/Overpass"}}, {"type": "Feature", "geometry": {"type": "Point", "coordinates": [10.9204998, 48.3812901]}, "properties": {"id": "osm:way:70259716", "type": "school", "name": "Luitpold-Grundschule", "source": "OpenStreetMap/Overpass"}}, {"type": "Feature", "geometry": {"type": "Point", "coordinates": [10.9094645, 48.3826904]}, "properties": {"id": "osm:way:70259717", "type": "school", "name": "Birkenau-Grundschule", "source": "OpenStreetMap/Overpass"}}, {"type": "Feature", "geometry": {"type": "Point", "coordinates": [10.9079557, 48.3690857]}, "properties": {"id": "osm:way:70259957", "type": "school", "name": "Elias-Holl-Grundschule", "source": "OpenStreetMap/Overpass"}}, {"type": "Feature", "geometry": {"type": "Point", "coordinates": [10.854201, 48.3807506]}, "properties": {"id": "osm:way:70260216", "type": "school", "name": "Grundschule Augsburg-Kriegshaber", "source": "OpenStreetMap/Overpass"}}, {"type": "Feature", "geometry": {"type": "Point", "coordinates": [10.8762058, 48.386823]}, "properties": {"id": "osm:way:70261268", "type": "school", "name": "Grundschule Augsburg-Oberhausen-Mitte", "source": "OpenStreetMap/Overpass"}}, {"type": "Feature", "geometry": {"type": "Point", "coordinates": [10.9238977, 48.3828345]}, "properties": {"id": "osm:way:70262097", "type": "school", "name": "Pankratiusschule Sonderpädagogisches Förderzentrum III", "source": "OpenStreetMap/Overpass"}}, {"type": "Feature", "geometry": {"type": "Point", "coordinates": [10.8928445, 48.407337]}, "properties": {"id": "osm:way:70262098", "type": "school", "name": "Grund- und Mittelschule Firnhaberau", "source": "OpenStreetMap/Overpass"}}, {"type": "Feature", "geometry": {"type": "Point", "coordinates": [10.9136147, 48.4009722]}, "properties": {"id": "osm:way:70262100", "type": "school", "name": "Grundschule Hammerschmiede", "source": "OpenStreetMap/Overpass"}}, {"type": "Feature", "geometry": {"type": "Point", "coordinates": [10.8972972, 48.3480775]}, "properties": {"id": "osm:way:70266213", "type": "school", "name": "Kerschensteiner Grund- und Mittelschule", "source": "OpenStreetMap/Overpass"}}, {"type": "Feature", "geometry": {"type": "Point", "coordinates": [10.9045504, 48.3487102]}, "properties": {"id": "osm:way:70559696", "type": "school", "name": "Schulturnhalle", "source": "OpenStreetMap/Overpass"}}, {"type": "Feature", "geometry": {"type": "Point", "coordinates": [10.9048959, 48.3492366]}, "properties": {"id": "osm:way:70559715", "type": "school", "name": "Baltasar-Neumann-Berufsbildungszentrum", "source": "OpenStreetMap/Overpass"}}, {"type": "Feature", "geometry": {"type": "Point", "coordinates": [10.9268257, 48.3575515]}, "properties": {"id": "osm:way:70573137", "type": "kindergarten", "name": "Kindergarten und Hort Don Bosco", "source": "OpenStreetMap/Overpass"}}, {"type": "Feature", "geometry": {"type": "Point", "coordinates": [10.9315273, 48.3581278]}, "properties": {"id": "osm:way:70573355", "type": "school", "name": "Grund- und Mittelschule Augsburg-Herrenbach", "source": "OpenStreetMap/Overpass"}}, {"type": "Feature", "geometry": {"type": "Point", "coordinates": [10.8972482, 48.364529]}, "properties": {"id": "osm:way:70610516", "type": "school", "name": "Holbein-Gymnasium", "source": "OpenStreetMap/Overpass"}}, {"type": "Feature", "geometry": {"type": "Point", "coordinates": [10.9105767, 48.3092807]}, "properties": {"id": "osm:way:70655434", "type": "school", "name": "Eichendorff-Volksschule Augsburg-Haunstetten", "source": "OpenStreetMap/Overpass"}}, {"type": "Feature", "geometry": {"type": "Point", "coordinates": [10.899225, 48.3092515]}, "properties": {"id": "osm:way:70655435", "type": "school", "name": "Albert-Einstein-Mittelschule Haunstetten", "source": "OpenStreetMap/Overpass"}}, {"type": "Feature", "geometry": {"type": "Point", "coordinates": [10.8611466, 48.3584115]}, "properties": {"id": "osm:way:70810782", "type": "kindergarten", "name": "Columbus", "source": "OpenStreetMap/Overpass"}}, {"type": "Feature", "geometry": {"type": "Point", "coordinates": [10.9290449, 48.3603447]}, "properties": {"id": "osm:way:70810948", "type": "kindergarten", "name": "Integrative Kindertageseinrichtung Herrenbachstraße", "source": "OpenStreetMap/Overpass"}}, {"type": "Feature", "geometry": {"type": "Point", "coordinates": [10.9059126, 48.3692039]}, "properties": {"id": "osm:way:70811023", "type": "kindergarten", "name": "Kindertagesstätte Remshartgäßchen", "source": "OpenStreetMap/Overpass"}}, {"type": "Feature", "geometry": {"type": "Point", "coordinates": [10.8991451, 48.3615677]}, "properties": {"id": "osm:way:70936683", "type": "kindergarten", "name": "Evang. Kindertagesstätte St. Ulrich", "source": "OpenStreetMap/Overpass"}}, {"type": "Feature", "geometry": {"type": "Point", "coordinates": [10.9012976, 48.3648369]}, "properties": {"id": "osm:way:70955891", "type": "school", "name": "Städtisches Berufsschulzentrum für soziale Berufe", "source": "OpenStreetMap/Overpass"}}, {"type": "Feature", "geometry": {"type": "Point", "coordinates": [10.9240347, 48.352479]}, "properties": {"id": "osm:way:71149498", "type": "school", "name": "Grundschule Herrenbach, Außenstelle Spickel", "source": "OpenStreetMap/Overpass"}}, {"type": "Feature", "geometry": {"type": "Point", "coordinates": [10.9507185, 48.3539722]}, "properties": {"id": "osm:way:71524396", "type": "school", "name": "Rudolf-Diesel-Gymnasium", "source": "OpenStreetMap/Overpass"}}, {"type": "Feature", "geometry": {"type": "Point", "coordinates": [10.8681845, 48.356498]}, "properties": {"id": "osm:way:71550543", "type": "kindergarten", "name": "Kindergarten Herz Jesu", "source": "OpenStreetMap/Overpass"}}, {"type": "Feature", "geometry": {"type": "Point", "coordinates": [10.8593164, 48.3716639]}, "properties": {"id": "osm:way:71731316", "type": "kindergarten", "name": "Kindertagesstätte Graceland", "source": "OpenStreetMap/Overpass"}}, {"type": "Feature", "geometry": {"type": "Point", "coordinates": [10.8566487, 48.3709779]}, "properties": {"id": "osm:way:71731322", "type": "school", "name": "Centerville-Süd Grund und Mittelschule Augsburg", "source": "OpenStreetMap/Overpass"}}, {"type": "Feature", "geometry": {"type": "Point", "coordinates": [10.8832819, 48.3833082]}, "properties": {"id": "osm:way:71739183", "type": "kindergarten", "name": "Städtische Kindertagesstätte Eichlerstraße", "source": "OpenStreetMap/Overpass"}}, {"type": "Feature", "geometry": {"type": "Point", "coordinates": [10.8548671, 48.3803214]}, "properties": {"id": "osm:way:72223891", "type": "kindergarten", "name": "Kindertagesstätte Ulmer Straße", "source": "OpenStreetMap/Overpass"}}, {"type": "Feature", "geometry": {"type": "Point", "coordinates": [10.9045043, 48.375073]}, "properties": {"id": "osm:way:72350215", "type": "kindergarten", "name": "Kindertagesstätte Zum Schutzengel - St. Max", "source": "OpenStreetMap/Overpass"}}, {"type": "Feature", "geometry": {"type": "Point", "coordinates": [10.8892353, 48.3744643]}, "properties": {"id": "osm:way:72788983", "type": "school", "name": "A.B. von Stettensches Institut", "source": "OpenStreetMap/Overpass"}}, {"type": "Feature", "geometry": {"type": "Point", "coordinates": [10.9165599, 48.3570012]}, "properties": {"id": "osm:way:73236586", "type": "school", "name": "Private Wirtschaftsschule Frenzel", "source": "OpenStreetMap/Overpass"}}, {"type": "Feature", "geometry": {"type": "Point", "coordinates": [10.8787248, 48.3818406]}, "properties": {"id": "osm:way:73986043", "type": "kindergarten", "name": "Integratives kath. Kinderhaus St. Joseph", "source": "OpenStreetMap/Overpass"}}, {"type": "Feature", "geometry": {"type": "Point", "coordinates": [10.8502288, 48.3719251]}, "properties": {"id": "osm:way:75219281", "type": "kindergarten", "name": "Katholischer Reggio-Kindergarten im Thaddäus-Zentrum", "source": "OpenStreetMap/Overpass"}}, {"type": "Feature", "geometry": {"type": "Point", "coordinates": [10.8536567, 48.3923997]}, "properties": {"id": "osm:way:75374221", "type": "kindergarten", "name": "Kindertagesstätte Meisenweg", "source": "OpenStreetMap/Overpass"}}, {"type": "Feature", "geometry": {"type": "Point", "coordinates": [10.8559386, 48.3981051]}, "properties": {"id": "osm:way:75377627", "type": "kindergarten", "name": "Kindertagesstätte Pumuckl", "source": "OpenStreetMap/Overpass"}}, {"type": "Feature", "geometry": {"type": "Point", "coordinates": [10.9268741, 48.3714799]}, "properties": {"id": "osm:way:78390818", "type": "kindergarten", "name": "Waldorfkindergarten", "source": "OpenStreetMap/Overpass"}}, {"type": "Feature", "geometry": {"type": "Point", "coordinates": [10.9264265, 48.3719247]}, "properties": {"id": "osm:way:78390822", "type": "kindergarten", "name": "Kindertagesstätte Euler-Chelpin-Straße", "source": "OpenStreetMap/Overpass"}}, {"type": "Feature", "geometry": {"type": "Point", "coordinates": [10.8384005, 48.3686105]}, "properties": {"id": "osm:way:79345238", "type": "kindergarten", "name": "Kindergarten u. Kinderkrippe Reiterweg", "source": "OpenStreetMap/Overpass"}}, {"type": "Feature", "geometry": {"type": "Point", "coordinates": [10.8855303, 48.3578856]}, "properties": {"id": "osm:way:79435091", "type": "school", "name": "Wittelsbacher-Grundschule", "source": "OpenStreetMap/Overpass"}}, {"type": "Feature", "geometry": {"type": "Point", "coordinates": [10.9046201, 48.3105544]}, "properties": {"id": "osm:way:79696442", "type": "kindergarten", "name": "Kita Märchenburg", "source": "OpenStreetMap/Overpass"}}, {"type": "Feature", "geometry": {"type": "Point", "coordinates": [10.9022103, 48.3659502]}, "properties": {"id": "osm:way:89397731", "type": "school", "name": "Mädchenrealschule St. Ursula", "source": "OpenStreetMap/Overpass"}}, {"type": "Feature", "geometry": {"type": "Point", "coordinates": [10.9028369, 48.3614129]}, "properties": {"id": "osm:way:89941810", "type": "kindergarten", "name": "Kinderhort Ulrichsviertel", "source": "OpenStreetMap/Overpass"}}, {"type": "Feature", "geometry": {"type": "Point", "coordinates": [10.901298, 48.3607331]}, "properties": {"id": "osm:way:90319729", "type": "kindergarten", "name": "Rasselbande-Kleinkindergruppe Ulrichsviertel", "source": "OpenStreetMap/Overpass"}}, {"type": "Feature", "geometry": {"type": "Point", "coordinates": [10.8998132, 48.3720924]}, "properties": {"id": "osm:way:91662010", "type": "kindergarten", "name": "Heilpädagogische Tagesstätte", "source": "OpenStreetMap/Overpass"}}, {"type": "Feature", "geometry": {"type": "Point", "coordinates": [10.8761509, 48.3477642]}, "properties": {"id": "osm:way:91932518", "type": "kindergarten", "name": "Kitarino", "source": "OpenStreetMap/Overpass"}}, {"type": "Feature", "geometry": {"type": "Point", "coordinates": [10.9008107, 48.3750124]}, "properties": {"id": "osm:way:92421269", "type": "kindergarten", "name": "Kinderkrippe Sonnenschein", "source": "OpenStreetMap/Overpass"}}, {"type": "Feature", "geometry": {"type": "Point", "coordinates": [10.9177636, 48.3063502]}, "properties": {"id": "osm:way:95359872", "type": "kindergarten", "name": "Bauwagen vom Waldkindergarten Fuchsbau", "source": "OpenStreetMap/Overpass"}}, {"type": "Feature", "geometry": {"type": "Point", "coordinates": [10.9448358, 48.339252]}, "properties": {"id": "osm:way:96414658", "type": "kindergarten", "name": "Kindertagesstätte Mittenwalder Straße", "source": "OpenStreetMap/Overpass"}}, {"type": "Feature", "geometry": {"type": "Point", "coordinates": [10.8937869, 48.3764369]}, "properties": {"id": "osm:way:96593963", "type": "kindergarten", "name": "Kindertagesstätte St. Georg", "source": "OpenStreetMap/Overpass"}}, {"type": "Feature", "geometry": {"type": "Point", "coordinates": [10.8976807, 48.3091435]}, "properties": {"id": "osm:way:98700197", "type": "kindergarten", "name": "Katholischer Kindergarten und Hort St. Pius", "source": "OpenStreetMap/Overpass"}}, {"type": "Feature", "geometry": {"type": "Point", "coordinates": [10.8889877, 48.2678757]}, "properties": {"id": "osm:way:99729368", "type": "kindergarten", "name": "Johannes Kindergarten", "source": "OpenStreetMap/Overpass"}}, {"type": "Feature", "geometry": {"type": "Point", "coordinates": [10.9457968, 48.3578418]}, "properties": {"id": "osm:way:100142024", "type": "school", "name": "Werner-von-Siemens Grund- und Mittelschule", "source": "OpenStreetMap/Overpass"}}, {"type": "Feature", "geometry": {"type": "Point", "coordinates": [10.9444615, 48.3608811]}, "properties": {"id": "osm:way:101332090", "type": "kindergarten", "name": "Kindergarten Heilig Geist", "source": "OpenStreetMap/Overpass"}}, {"type": "Feature", "geometry": {"type": "Point", "coordinates": [10.8991562, 48.3621102]}, "properties": {"id": "osm:way:101494467", "type": "kindergarten", "name": "Kath. Kindertagesstätte St. Ulrich und Afra", "source": "OpenStreetMap/Overpass"}}, {"type": "Feature", "geometry": {"type": "Point", "coordinates": [10.8524424, 48.3410648]}, "properties": {"id": "osm:way:102576273", "type": "kindergarten", "name": "Kindertagesstätte Rumpelstilzchen", "source": "OpenStreetMap/Overpass"}}, {"type": "Feature", "geometry": {"type": "Point", "coordinates": [10.9222884, 48.3687671]}, "properties": {"id": "osm:way:102860370", "type": "kindergarten", "name": "Hort an der Simpertschule", "source": "OpenStreetMap/Overpass"}}, {"type": "Feature", "geometry": {"type": "Point", "coordinates": [10.9218053, 48.3686059]}, "properties": {"id": "osm:way:102860384", "type": "school", "name": "Simpertschule", "source": "OpenStreetMap/Overpass"}}, {"type": "Feature", "geometry": {"type": "Point", "coordinates": [10.8739164, 48.3330354]}, "properties": {"id": "osm:way:103146346", "type": "kindergarten", "name": "Kindertagesstätte Josef-Felder-Straße", "source": "OpenStreetMap/Overpass"}}, {"type": "Feature", "geometry": {"type": "Point", "coordinates": [10.9242336, 48.3745386]}, "properties": {"id": "osm:way:104380516", "type": "school", "name": "Schiller Grund- und Mittelschule", "source": "OpenStreetMap/Overpass"}}, {"type": "Feature", "geometry": {"type": "Point", "coordinates": [10.9299988, 48.3529724]}, "properties": {"id": "osm:way:106271777", "type": "kindergarten", "name": "Montessori Kinderhaus Spickel", "source": "OpenStreetMap/Overpass"}}, {"type": "Feature", "geometry": {"type": "Point", "coordinates": [10.9269409, 48.3519579]}, "properties": {"id": "osm:way:106272038", "type": "kindergarten", "name": "Kindergarten St. Wolfgang", "source": "OpenStreetMap/Overpass"}}, {"type": "Feature", "geometry": {"type": "Point", "coordinates": [10.9154348, 48.3633028]}, "properties": {"id": "osm:way:107609342", "type": "school", "name": "Rudolf-Steiner-Schule Augsburg", "source": "OpenStreetMap/Overpass"}}, {"type": "Feature", "geometry": {"type": "Point", "coordinates": [10.917181, 48.3773518]}, "properties": {"id": "osm:way:109895953", "type": "kindergarten", "name": "Großtagespflege Sternenstaub", "source": "OpenStreetMap/Overpass"}}, {"type": "Feature", "geometry": {"type": "Point", "coordinates": [10.9196088, 48.3796732]}, "properties": {"id": "osm:way:109917503", "type": "school", "name": "Goethe-Mittelschule Augsburg-Lechhausen", "source": "OpenStreetMap/Overpass"}}, {"type": "Feature", "geometry": {"type": "Point", "coordinates": [10.9191528, 48.3795468]}, "properties": {"id": "osm:way:109918292", "type": "kindergarten", "name": "Kindertageseinrichtung Schleiermacherstraße", "source": "OpenStreetMap/Overpass"}}, {"type": "Feature", "geometry": {"type": "Point", "coordinates": [10.8954809, 48.2762076]}, "properties": {"id": "osm:way:111678133", "type": "school", "name": "König-Otto I.-Volksschule Königsbrunn-Nord (Grundschule)", "source": "OpenStreetMap/Overpass"}}, {"type": "Feature", "geometry": {"type": "Point", "coordinates": [10.8511507, 48.3655164]}, "properties": {"id": "osm:way:113870792", "type": "childcare", "name": "AWO Kinderkrippe Stadtbergen", "source": "OpenStreetMap/Overpass"}}, {"type": "Feature", "geometry": {"type": "Point", "coordinates": [10.8815052, 48.4038464]}, "properties": {"id": "osm:way:114514417", "type": "school", "name": "Berufsbildungszentrum Augsburg der Lehmbaugruppe – Mindelheimer Straße", "source": "OpenStreetMap/Overpass"}}, {"type": "Feature", "geometry": {"type": "Point", "coordinates": [10.8277458, 48.3880871]}, "properties": {"id": "osm:way:116945356", "type": "kindergarten", "name": "Städtischer Kindergarten Westheim", "source": "OpenStreetMap/Overpass"}}, {"type": "Feature", "geometry": {"type": "Point", "coordinates": [10.8427199, 48.3484378]}, "properties": {"id": "osm:way:118241412", "type": "childcare", "name": "", "source": "OpenStreetMap/Overpass"}}, {"type": "Feature", "geometry": {"type": "Point", "coordinates": [10.8410602, 48.3507845]}, "properties": {"id": "osm:way:118246419", "type": "school", "name": "Leopold-Mozart-Grundschule", "source": "OpenStreetMap/Overpass"}}, {"type": "Feature", "geometry": {"type": "Point", "coordinates": [10.9113099, 48.3630151]}, "properties": {"id": "osm:way:124894159", "type": "kindergarten", "name": "Universitätskindergarten e. V.", "source": "OpenStreetMap/Overpass"}}, {"type": "Feature", "geometry": {"type": "Point", "coordinates": [10.8951392, 48.332206]}, "properties": {"id": "osm:way:125457857", "type": "childcare", "name": "Uni Augsburg Kindertagesstätte", "source": "OpenStreetMap/Overpass"}}, {"type": "Feature", "geometry": {"type": "Point", "coordinates": [10.8921071, 48.2597464]}, "properties": {"id": "osm:way:127075188", "type": "kindergarten", "name": "Hort an der Grundschule Süd", "source": "OpenStreetMap/Overpass"}}, {"type": "Feature", "geometry": {"type": "Point", "coordinates": [10.8911593, 48.260441]}, "properties": {"id": "osm:way:127075236", "type": "kindergarten", "name": "Katholischer Kindergarten zur göttlichen Vorsehung", "source": "OpenStreetMap/Overpass"}}, {"type": "Feature", "geometry": {"type": "Point", "coordinates": [10.8338567, 48.3929804]}, "properties": {"id": "osm:way:137218668", "type": "kindergarten", "name": "Städtischer Kindergarten Neusäß", "source": "OpenStreetMap/Overpass"}}, {"type": "Feature", "geometry": {"type": "Point", "coordinates": [10.8608076, 48.361568]}, "properties": {"id": "osm:way:139804469", "type": "school", "name": "Westparkschule", "source": "OpenStreetMap/Overpass"}}, {"type": "Feature", "geometry": {"type": "Point", "coordinates": [10.894832, 48.3318927]}, "properties": {"id": "osm:way:145676786", "type": "childcare", "name": "Uni Augsburg Kindertagesstätte", "source": "OpenStreetMap/Overpass"}}, {"type": "Feature", "geometry": {"type": "Point", "coordinates": [10.9067648, 48.3953715]}, "properties": {"id": "osm:way:146728738", "type": "school", "name": "Freie Waldorfschule Augsburg", "source": "OpenStreetMap/Overpass"}}, {"type": "Feature", "geometry": {"type": "Point", "coordinates": [10.9063389, 48.3729695]}, "properties": {"id": "osm:way:147176428", "type": "school", "name": "St.-Max-Volksschule", "source": "OpenStreetMap/Overpass"}}, {"type": "Feature", "geometry": {"type": "Point", "coordinates": [10.9074058, 48.388083]}, "properties": {"id": "osm:way:147367418", "type": "school", "name": "Bayernkolleg Augsburg", "source": "OpenStreetMap/Overpass"}}, {"type": "Feature", "geometry": {"type": "Point", "coordinates": [10.8889104, 48.372776]}, "properties": {"id": "osm:way:148799588", "type": "school", "name": "Peutinger-Gymnasium", "source": "OpenStreetMap/Overpass"}}, {"type": "Feature", "geometry": {"type": "Point", "coordinates": [10.9216115, 48.370179]}, "properties": {"id": "osm:way:149370532", "type": "school", "name": "Bildungszentrum des Fleischerhandwerks", "source": "OpenStreetMap/Overpass"}}, {"type": "Feature", "geometry": {"type": "Point", "coordinates": [10.9121729, 48.4015956]}, "properties": {"id": "osm:way:149976456", "type": "kindergarten", "name": "Kindertagesstätte Christkönig", "source": "OpenStreetMap/Overpass"}}, {"type": "Feature", "geometry": {"type": "Point", "coordinates": [10.881272, 48.2775208]}, "properties": {"id": "osm:way:151765508", "type": "school", "name": "Grundschule West", "source": "OpenStreetMap/Overpass"}}, {"type": "Feature", "geometry": {"type": "Point", "coordinates": [10.8203897, 48.2669992]}, "properties": {"id": "osm:way:159720828", "type": "school", "name": "", "source": "OpenStreetMap/Overpass"}}, {"type": "Feature", "geometry": {"type": "Point", "coordinates": [10.8944459, 48.38107]}, "properties": {"id": "osm:way:169683905", "type": "kindergarten", "name": "Kindertagesstätte MAN Energy Solutions", "source": "OpenStreetMap/Overpass"}}, {"type": "Feature", "geometry": {"type": "Point", "coordinates": [10.9043934, 48.3992976]}, "properties": {"id": "osm:way:171070264", "type": "kindergarten", "name": "Kindertagesstätte Villa Kunterbunt", "source": "OpenStreetMap/Overpass"}}, {"type": "Feature", "geometry": {"type": "Point", "coordinates": [10.904676, 48.3177899]}, "properties": {"id": "osm:way:187450525", "type": "school", "name": "Fröbelschule (Grundschule)", "source": "OpenStreetMap/Overpass"}}, {"type": "Feature", "geometry": {"type": "Point", "coordinates": [10.915458, 48.3623403]}, "properties": {"id": "osm:way:188798163", "type": "kindergarten", "name": "Internationales Kinderhaus Augsburg e. V.", "source": "OpenStreetMap/Overpass"}}, {"type": "Feature", "geometry": {"type": "Point", "coordinates": [10.8841469, 48.2658107]}, "properties": {"id": "osm:way:190609251", "type": "kindergarten", "name": "Kindergarten Arche Noah", "source": "OpenStreetMap/Overpass"}}, {"type": "Feature", "geometry": {"type": "Point", "coordinates": [10.9068494, 48.3306897]}, "properties": {"id": "osm:way:205228976", "type": "kindergarten", "name": "Kindertagesstätte Josef-Priller-Straße", "source": "OpenStreetMap/Overpass"}}, {"type": "Feature", "geometry": {"type": "Point", "coordinates": [10.8498864, 48.3721103]}, "properties": {"id": "osm:way:205543168", "type": "kindergarten", "name": "Katholische Reggio-Kinderkrippe", "source": "OpenStreetMap/Overpass"}}, {"type": "Feature", "geometry": {"type": "Point", "coordinates": [10.854847, 48.3619837]}, "properties": {"id": "osm:way:205543169", "type": "kindergarten", "name": "Kinderparadies im Park", "source": "OpenStreetMap/Overpass"}}, {"type": "Feature", "geometry": {"type": "Point", "coordinates": [10.8692537, 48.3741128]}, "properties": {"id": "osm:way:210851649", "type": "school", "name": "Bischof-Ulrich-Schulen", "source": "OpenStreetMap/Overpass"}}, {"type": "Feature", "geometry": {"type": "Point", "coordinates": [10.817236, 48.3624368]}, "properties": {"id": "osm:way:218520491", "type": "kindergarten", "name": "AWO Kindergarten Deuringen", "source": "OpenStreetMap/Overpass"}}, {"type": "Feature", "geometry": {"type": "Point", "coordinates": [10.8654874, 48.3737598]}, "properties": {"id": "osm:way:225004476", "type": "kindergarten", "name": "Kindertagesstätte Kleine Freunde Haus Süd", "source": "OpenStreetMap/Overpass"}}, {"type": "Feature", "geometry": {"type": "Point", "coordinates": [10.8586697, 48.3947061]}, "properties": {"id": "osm:way:227912544", "type": "school", "name": "Grund- und Mittelschule Augsburg Bärenkeller", "source": "OpenStreetMap/Overpass"}}, {"type": "Feature", "geometry": {"type": "Point", "coordinates": [10.9033605, 48.3357096]}, "properties": {"id": "osm:way:228900864", "type": "school", "name": "Blériot-Grundschule", "source": "OpenStreetMap/Overpass"}}, {"type": "Feature", "geometry": {"type": "Point", "coordinates": [10.8735928, 48.3618335]}, "properties": {"id": "osm:way:230058250", "type": "kindergarten", "name": "Kindergarten und Hort Mühlbachviertel", "source": "OpenStreetMap/Overpass"}}, {"type": "Feature", "geometry": {"type": "Point", "coordinates": [10.8060223, 48.3963757]}, "properties": {"id": "osm:way:242477675", "type": "kindergarten", "name": "Städtischer Kindergarten Ottmarshausen", "source": "OpenStreetMap/Overpass"}}, {"type": "Feature", "geometry": {"type": "Point", "coordinates": [10.9053066, 48.3751728]}, "properties": {"id": "osm:way:247609856", "type": "kindergarten", "name": "Kindertagesstätte Die Wassergeister", "source": "OpenStreetMap/Overpass"}}, {"type": "Feature", "geometry": {"type": "Point", "coordinates": [10.9019489, 48.3466558]}, "properties": {"id": "osm:way:247657125", "type": "kindergarten", "name": "Kinderwelt Augsburg", "source": "OpenStreetMap/Overpass"}}, {"type": "Feature", "geometry": {"type": "Point", "coordinates": [10.8409362, 48.3857937]}, "properties": {"id": "osm:way:251387111", "type": "kindergarten", "name": "Kindertagesstätte \"Klinikum Kids\"", "source": "OpenStreetMap/Overpass"}}, {"type": "Feature", "geometry": {"type": "Point", "coordinates": [10.7962789, 48.2750793]}, "properties": {"id": "osm:way:254055248", "type": "kindergarten", "name": "Waldwichtel", "source": "OpenStreetMap/Overpass"}}, {"type": "Feature", "geometry": {"type": "Point", "coordinates": [10.7981541, 48.2739379]}, "properties": {"id": "osm:way:254056210", "type": "kindergarten", "name": "Zur Heiligen Familie", "source": "OpenStreetMap/Overpass"}}, {"type": "Feature", "geometry": {"type": "Point", "coordinates": [10.9159655, 48.3889826]}, "properties": {"id": "osm:way:255422553", "type": "childcare", "name": "Kinderbauernhaus Lechhausen", "source": "OpenStreetMap/Overpass"}}, {"type": "Feature", "geometry": {"type": "Point", "coordinates": [10.879024, 48.3895184]}, "properties": {"id": "osm:way:257065058", "type": "school", "name": "Heinrich-von-Buz Realschule (Staatliche Realschule Augsburg II)", "source": "OpenStreetMap/Overpass"}}, {"type": "Feature", "geometry": {"type": "Point", "coordinates": [10.820997, 48.3989911]}, "properties": {"id": "osm:way:264834643", "type": "school", "name": "Grund- und Mittelschule Am Eichenwald", "source": "OpenStreetMap/Overpass"}}, {"type": "Feature", "geometry": {"type": "Point", "coordinates": [10.7752826, 48.3573077]}, "properties": {"id": "osm:way:275096922", "type": "school", "name": "Schmuttertal-Gymnasium Diedorf", "source": "OpenStreetMap/Overpass"}}, {"type": "Feature", "geometry": {"type": "Point", "coordinates": [10.8989649, 48.3466853]}, "properties": {"id": "osm:way:280814825", "type": "kindergarten", "name": "Krümelkiste", "source": "OpenStreetMap/Overpass"}}, {"type": "Feature", "geometry": {"type": "Point", "coordinates": [10.8920647, 48.3615549]}, "properties": {"id": "osm:way:286842759", "type": "kindergarten", "name": "Kinderkrippe Kinderkiste", "source": "OpenStreetMap/Overpass"}}, {"type": "Feature", "geometry": {"type": "Point", "coordinates": [10.8771413, 48.4162078]}, "properties": {"id": "osm:way:295056048", "type": "school", "name": "Paul-Klee-Gymnasium", "source": "OpenStreetMap/Overpass"}}, {"type": "Feature", "geometry": {"type": "Point", "coordinates": [10.8807749, 48.4195183]}, "properties": {"id": "osm:way:295081501", "type": "school", "name": "Goethe-Grundschule", "source": "OpenStreetMap/Overpass"}}, {"type": "Feature", "geometry": {"type": "Point", "coordinates": [10.8749812, 48.4191393]}, "properties": {"id": "osm:way:295192709", "type": "school", "name": "Franziskus-Schule SFZ", "source": "OpenStreetMap/Overpass"}}, {"type": "Feature", "geometry": {"type": "Point", "coordinates": [10.873356, 48.4179669]}, "properties": {"id": "osm:way:295196482", "type": "school", "name": "Anna-Pröll-Mittelschule", "source": "OpenStreetMap/Overpass"}}, {"type": "Feature", "geometry": {"type": "Point", "coordinates": [10.8813595, 48.4149755]}, "properties": {"id": "osm:way:299039306", "type": "kindergarten", "name": "Kolping Kindergarten", "source": "OpenStreetMap/Overpass"}}, {"type": "Feature", "geometry": {"type": "Point", "coordinates": [10.8737968, 48.4191283]}, "properties": {"id": "osm:way:300014163", "type": "kindergarten", "name": "Kindergarten und Krippe St. Elisabeth", "source": "OpenStreetMap/Overpass"}}, {"type": "Feature", "geometry": {"type": "Point", "coordinates": [10.8701497, 48.3576335]}, "properties": {"id": "osm:way:308246179", "type": "school", "name": "Hans-Adlhoch-Schule", "source": "OpenStreetMap/Overpass"}}, {"type": "Feature", "geometry": {"type": "Point", "coordinates": [10.7829191, 48.3545128]}, "properties": {"id": "osm:way:323714641", "type": "kindergarten", "name": "Kita Herz Mariä", "source": "OpenStreetMap/Overpass"}}, {"type": "Feature", "geometry": {"type": "Point", "coordinates": [10.9457993, 48.4406874]}, "properties": {"id": "osm:way:336862702", "type": "kindergarten", "name": "Kindertagesstätte Bergen", "source": "OpenStreetMap/Overpass"}}, {"type": "Feature", "geometry": {"type": "Point", "coordinates": [10.9456499, 48.4400166]}, "properties": {"id": "osm:way:336862704", "type": "school", "name": "Staatliche Realschule Affing", "source": "OpenStreetMap/Overpass"}}, {"type": "Feature", "geometry": {"type": "Point", "coordinates": [10.7858648, 48.2719729]}, "properties": {"id": "osm:way:338050087", "type": "school", "name": "Ludger-Hölker-Grundschule", "source": "OpenStreetMap/Overpass"}}, {"type": "Feature", "geometry": {"type": "Point", "coordinates": [10.8774496, 48.3871243]}, "properties": {"id": "osm:way:340507485", "type": "kindergarten", "name": "Kindertagesstätte Zollernstraße", "source": "OpenStreetMap/Overpass"}}, {"type": "Feature", "geometry": {"type": "Point", "coordinates": [10.8244437, 48.3775785]}, "properties": {"id": "osm:way:342492283", "type": "kindergarten", "name": "Katholische Kindertagesstätte St. Gallus", "source": "OpenStreetMap/Overpass"}}, {"type": "Feature", "geometry": {"type": "Point", "coordinates": [10.8830644, 48.4323464]}, "properties": {"id": "osm:way:351894933", "type": "school", "name": "Mozart-Grundschule", "source": "OpenStreetMap/Overpass"}}, {"type": "Feature", "geometry": {"type": "Point", "coordinates": [10.8770914, 48.4275634]}, "properties": {"id": "osm:way:360144883", "type": "school", "name": "Pestalozzi-Grundschule", "source": "OpenStreetMap/Overpass"}}, {"type": "Feature", "geometry": {"type": "Point", "coordinates": [10.8715687, 48.4105512]}, "properties": {"id": "osm:way:360161730", "type": "school", "name": "International School Augsburg", "source": "OpenStreetMap/Overpass"}}, {"type": "Feature", "geometry": {"type": "Point", "coordinates": [10.8724307, 48.4173533]}, "properties": {"id": "osm:way:360161735", "type": "kindergarten", "name": "Krippe Blumenwiese", "source": "OpenStreetMap/Overpass"}}, {"type": "Feature", "geometry": {"type": "Point", "coordinates": [10.8416411, 48.2781044]}, "properties": {"id": "osm:way:363561583", "type": "kindergarten", "name": "Kinderhaus Sankt Felizitas", "source": "OpenStreetMap/Overpass"}}, {"type": "Feature", "geometry": {"type": "Point", "coordinates": [10.9214431, 48.3679217]}, "properties": {"id": "osm:way:367108607", "type": "kindergarten", "name": "Ellinor-Holland-Haus", "source": "OpenStreetMap/Overpass"}}, {"type": "Feature", "geometry": {"type": "Point", "coordinates": [10.9218088, 48.36789]}, "properties": {"id": "osm:way:367108608", "type": "kindergarten", "name": "Ellinor-Holland-Kinderhaus", "source": "OpenStreetMap/Overpass"}}, {"type": "Feature", "geometry": {"type": "Point", "coordinates": [10.8805861, 48.3924464]}, "properties": {"id": "osm:way:369689203", "type": "kindergarten", "name": "Kindertageseinrichtung Hort Bleicherbreite", "source": "OpenStreetMap/Overpass"}}, {"type": "Feature", "geometry": {"type": "Point", "coordinates": [10.8348031, 48.398031]}, "properties": {"id": "osm:way:370323812", "type": "school", "name": "Staatliche Realschule Neusäß", "source": "OpenStreetMap/Overpass"}}, {"type": "Feature", "geometry": {"type": "Point", "coordinates": [10.8198379, 48.4517483]}, "properties": {"id": "osm:way:381026612", "type": "school", "name": "Grundschule Gablingen", "source": "OpenStreetMap/Overpass"}}, {"type": "Feature", "geometry": {"type": "Point", "coordinates": [10.9031381, 48.3616411]}, "properties": {"id": "osm:way:384017541", "type": "kindergarten", "name": "Montessori-Kinderhaus Spitalgasse", "source": "OpenStreetMap/Overpass"}}, {"type": "Feature", "geometry": {"type": "Point", "coordinates": [10.8288721, 48.2732671]}, "properties": {"id": "osm:way:385742686", "type": "kindergarten", "name": "AWO Kindergarten Singoldwichtel Bobingen", "source": "OpenStreetMap/Overpass"}}, {"type": "Feature", "geometry": {"type": "Point", "coordinates": [10.7845491, 48.3534121]}, "properties": {"id": "osm:way:386327542", "type": "school", "name": "Grund- und Mittelschule Diedorf", "source": "OpenStreetMap/Overpass"}}, {"type": "Feature", "geometry": {"type": "Point", "coordinates": [10.7739992, 48.4058098]}, "properties": {"id": "osm:way:386898925", "type": "school", "name": "Grundschule Aystetten", "source": "OpenStreetMap/Overpass"}}, {"type": "Feature", "geometry": {"type": "Point", "coordinates": [10.7747579, 48.4059664]}, "properties": {"id": "osm:way:386898927", "type": "kindergarten", "name": "Kindergarten Schneeweißchen & Rosenrot", "source": "OpenStreetMap/Overpass"}}, {"type": "Feature", "geometry": {"type": "Point", "coordinates": [10.8320443, 48.2640978]}, "properties": {"id": "osm:way:387006234", "type": "kindergarten", "name": "Arche Noah - kath. Kindergarten", "source": "OpenStreetMap/Overpass"}}, {"type": "Feature", "geometry": {"type": "Point", "coordinates": [10.8301417, 48.2628]}, "properties": {"id": "osm:way:387477713", "type": "kindergarten", "name": "Regenbogen-Mäuse und Regenbogen-Treff", "source": "OpenStreetMap/Overpass"}}, {"type": "Feature", "geometry": {"type": "Point", "coordinates": [10.8346, 48.2690842]}, "properties": {"id": "osm:way:394191778", "type": "school", "name": "Laurentius Grundschule Bobingen", "source": "OpenStreetMap/Overpass"}}, {"type": "Feature", "geometry": {"type": "Point", "coordinates": [10.8349301, 48.2692866]}, "properties": {"id": "osm:way:394191780", "type": "school", "name": "Laurentius Grundschule Bobingen", "source": "OpenStreetMap/Overpass"}}, {"type": "Feature", "geometry": {"type": "Point", "coordinates": [10.7710955, 48.33928]}, "properties": {"id": "osm:way:410064315", "type": "school", "name": "Grund- und Mittelschule Diedorf - Nebenstelle Anhausen", "source": "OpenStreetMap/Overpass"}}, {"type": "Feature", "geometry": {"type": "Point", "coordinates": [10.7712445, 48.3392074]}, "properties": {"id": "osm:way:416812355", "type": "kindergarten", "name": "Kindergarten Anhausen", "source": "OpenStreetMap/Overpass"}}, {"type": "Feature", "geometry": {"type": "Point", "coordinates": [10.8492994, 48.3651986]}, "properties": {"id": "osm:way:435026132", "type": "school", "name": "Parkschule Stadtbergen", "source": "OpenStreetMap/Overpass"}}, {"type": "Feature", "geometry": {"type": "Point", "coordinates": [10.8708534, 48.3948445]}, "properties": {"id": "osm:way:449762612", "type": "kindergarten", "name": "Integrative Kindergartengruppe \"Krümelzwerge\"", "source": "OpenStreetMap/Overpass"}}, {"type": "Feature", "geometry": {"type": "Point", "coordinates": [10.8842015, 48.278209]}, "properties": {"id": "osm:way:463519891", "type": "kindergarten", "name": "Sankt Michael", "source": "OpenStreetMap/Overpass"}}, {"type": "Feature", "geometry": {"type": "Point", "coordinates": [10.8169837, 48.3837694]}, "properties": {"id": "osm:way:471968480", "type": "school", "name": "Grundschule Westheim", "source": "OpenStreetMap/Overpass"}}, {"type": "Feature", "geometry": {"type": "Point", "coordinates": [10.898365, 48.301585]}, "properties": {"id": "osm:way:478727716", "type": "school", "name": "Johann-Strauß-Grundschule", "source": "OpenStreetMap/Overpass"}}, {"type": "Feature", "geometry": {"type": "Point", "coordinates": [10.8387141, 48.392379]}, "properties": {"id": "osm:way:509057073", "type": "school", "name": "Grundschule bei Sankt Ägidius", "source": "OpenStreetMap/Overpass"}}, {"type": "Feature", "geometry": {"type": "Point", "coordinates": [10.9032574, 48.3581662]}, "properties": {"id": "osm:way:509101368", "type": "school", "name": "Grundschule Augsburg Vor dem Roten Tor", "source": "OpenStreetMap/Overpass"}}, {"type": "Feature", "geometry": {"type": "Point", "coordinates": [10.8682781, 48.3434355]}, "properties": {"id": "osm:way:529714845", "type": "school", "name": "Grundschule Göggingen-West (Parkschule)", "source": "OpenStreetMap/Overpass"}}, {"type": "Feature", "geometry": {"type": "Point", "coordinates": [10.8734023, 48.3614515]}, "properties": {"id": "osm:way:544318824", "type": "school", "name": "Liroschule", "source": "OpenStreetMap/Overpass"}}, {"type": "Feature", "geometry": {"type": "Point", "coordinates": [10.8776341, 48.4110618]}, "properties": {"id": "osm:way:609895682", "type": "kindergarten", "name": "Kindervilla", "source": "OpenStreetMap/Overpass"}}, {"type": "Feature", "geometry": {"type": "Point", "coordinates": [10.8804691, 48.3753433]}, "properties": {"id": "osm:way:636287926", "type": "kindergarten", "name": "Kindertageseinrichtung Schwimmschulstraße", "source": "OpenStreetMap/Overpass"}}, {"type": "Feature", "geometry": {"type": "Point", "coordinates": [10.8672134, 48.3731528]}, "properties": {"id": "osm:way:639848798", "type": "school", "name": "Förderzentrum Augsburg - Förderschwerpunkt Hören", "source": "OpenStreetMap/Overpass"}}, {"type": "Feature", "geometry": {"type": "Point", "coordinates": [10.8599543, 48.3154339]}, "properties": {"id": "osm:way:662936714", "type": "kindergarten", "name": "Kindertageseinrichtung Zwergenhaus", "source": "OpenStreetMap/Overpass"}}, {"type": "Feature", "geometry": {"type": "Point", "coordinates": [10.8781378, 48.3372843]}, "properties": {"id": "osm:way:680460186", "type": "kindergarten", "name": "Evang. Kindertageseinrichtung Habakuk", "source": "OpenStreetMap/Overpass"}}, {"type": "Feature", "geometry": {"type": "Point", "coordinates": [10.8769441, 48.3365091]}, "properties": {"id": "osm:way:680460188", "type": "school", "name": "Friedrich-Ebert-Mittelschule", "source": "OpenStreetMap/Overpass"}}, {"type": "Feature", "geometry": {"type": "Point", "coordinates": [10.8764809, 48.3371697]}, "properties": {"id": "osm:way:680460189", "type": "school", "name": "Friedrich-Ebert-Grundschule", "source": "OpenStreetMap/Overpass"}}, {"type": "Feature", "geometry": {"type": "Point", "coordinates": [10.9000948, 48.3297225]}, "properties": {"id": "osm:way:687183262", "type": "school", "name": "KJF Berufsschule Sankt Elisabeth", "source": "OpenStreetMap/Overpass"}}, {"type": "Feature", "geometry": {"type": "Point", "coordinates": [10.8359859, 48.3974817]}, "properties": {"id": "osm:way:700151743", "type": "school", "name": "Justus-von-Liebig-Gymnasium", "source": "OpenStreetMap/Overpass"}}, {"type": "Feature", "geometry": {"type": "Point", "coordinates": [10.8367846, 48.3988802]}, "properties": {"id": "osm:way:700151745", "type": "school", "name": "Staatliches Berufliches Schulzentrum Neusäß", "source": "OpenStreetMap/Overpass"}}, {"type": "Feature", "geometry": {"type": "Point", "coordinates": [10.8357543, 48.3964332]}, "properties": {"id": "osm:way:700151746", "type": "school", "name": "", "source": "OpenStreetMap/Overpass"}}, {"type": "Feature", "geometry": {"type": "Point", "coordinates": [10.8319992, 48.3955428]}, "properties": {"id": "osm:way:700151747", "type": "kindergarten", "name": "Evangelische Kindertagesstätte Regenbogen", "source": "OpenStreetMap/Overpass"}}, {"type": "Feature", "geometry": {"type": "Point", "coordinates": [10.8235386, 48.4000057]}, "properties": {"id": "osm:way:700170183", "type": "kindergarten", "name": "Kindergarten St. Thomas Morus", "source": "OpenStreetMap/Overpass"}}, {"type": "Feature", "geometry": {"type": "Point", "coordinates": [10.8386035, 48.3783424]}, "properties": {"id": "osm:way:707849029", "type": "kindergarten", "name": "Virchow-Kindergarten", "source": "OpenStreetMap/Overpass"}}, {"type": "Feature", "geometry": {"type": "Point", "coordinates": [10.8243397, 48.3769762]}, "properties": {"id": "osm:way:708004019", "type": "kindergarten", "name": "Evangelische Kindertageseinrichtung Philippus", "source": "OpenStreetMap/Overpass"}}, {"type": "Feature", "geometry": {"type": "Point", "coordinates": [10.8980289, 48.2830471]}, "properties": {"id": "osm:way:795589514", "type": "kindergarten", "name": "Kita am See", "source": "OpenStreetMap/Overpass"}}, {"type": "Feature", "geometry": {"type": "Point", "coordinates": [10.8712285, 48.362106]}, "properties": {"id": "osm:way:833157887", "type": "kindergarten", "name": "Evangelische Kindertageseinrichtung St. Paul", "source": "OpenStreetMap/Overpass"}}, {"type": "Feature", "geometry": {"type": "Point", "coordinates": [10.8340397, 48.3929924]}, "properties": {"id": "osm:way:850301946", "type": "kindergarten", "name": "", "source": "OpenStreetMap/Overpass"}}, {"type": "Feature", "geometry": {"type": "Point", "coordinates": [10.8290822, 48.387951]}, "properties": {"id": "osm:way:887890352", "type": "kindergarten", "name": "Haus für Kinder", "source": "OpenStreetMap/Overpass"}}, {"type": "Feature", "geometry": {"type": "Point", "coordinates": [10.8472598, 48.3656048]}, "properties": {"id": "osm:way:893604496", "type": "kindergarten", "name": "Kindergarten Elias-Holl", "source": "OpenStreetMap/Overpass"}}, {"type": "Feature", "geometry": {"type": "Point", "coordinates": [10.8478652, 48.3656285]}, "properties": {"id": "osm:way:893604497", "type": "childcare", "name": "Kinderhort Maria Hilf", "source": "OpenStreetMap/Overpass"}}, {"type": "Feature", "geometry": {"type": "Point", "coordinates": [10.8471499, 48.3652184]}, "properties": {"id": "osm:way:893604503", "type": "kindergarten", "name": "Kinderkrippe Arche Noah", "source": "OpenStreetMap/Overpass"}}, {"type": "Feature", "geometry": {"type": "Point", "coordinates": [10.8477682, 48.3652577]}, "properties": {"id": "osm:way:893604506", "type": "kindergarten", "name": "Kindergarten Arche Noah", "source": "OpenStreetMap/Overpass"}}, {"type": "Feature", "geometry": {"type": "Point", "coordinates": [10.8257582, 48.3341123]}, "properties": {"id": "osm:way:893920355", "type": "kindergarten", "name": "Naturkrippe KiKu Wellenburg", "source": "OpenStreetMap/Overpass"}}, {"type": "Feature", "geometry": {"type": "Point", "coordinates": [10.7835191, 48.2716817]}, "properties": {"id": "osm:way:906742152", "type": "childcare", "name": "Kindertagesstätte Kleine Farm", "source": "OpenStreetMap/Overpass"}}, {"type": "Feature", "geometry": {"type": "Point", "coordinates": [10.9594467, 48.3551785]}, "properties": {"id": "osm:way:906935371", "type": "kindergarten", "name": "Kindergarten Maria Alber", "source": "OpenStreetMap/Overpass"}}, {"type": "Feature", "geometry": {"type": "Point", "coordinates": [10.8647463, 48.3406599]}, "properties": {"id": "osm:way:918846095", "type": "kindergarten", "name": "Unibärchen e.V. Eltern-Kind-Initiative Kinderbetreuung", "source": "OpenStreetMap/Overpass"}}, {"type": "Feature", "geometry": {"type": "Point", "coordinates": [10.8804226, 48.3919243]}, "properties": {"id": "osm:way:924452622", "type": "kindergarten", "name": "Integrative Kindertageseinrichtung Bleicherbreite", "source": "OpenStreetMap/Overpass"}}, {"type": "Feature", "geometry": {"type": "Point", "coordinates": [10.8779481, 48.3957308]}, "properties": {"id": "osm:way:924452623", "type": "kindergarten", "name": "Integrative Kindertagesstätte \"Zirbelzwerge\"", "source": "OpenStreetMap/Overpass"}}, {"type": "Feature", "geometry": {"type": "Point", "coordinates": [10.8741957, 48.3827319]}, "properties": {"id": "osm:way:924452624", "type": "kindergarten", "name": "Kindertagesstätte Maria Stern", "source": "OpenStreetMap/Overpass"}}, {"type": "Feature", "geometry": {"type": "Point", "coordinates": [10.8901481, 48.3737663]}, "properties": {"id": "osm:way:924452647", "type": "kindergarten", "name": "St. Gregor Kinderhaus", "source": "OpenStreetMap/Overpass"}}, {"type": "Feature", "geometry": {"type": "Point", "coordinates": [10.8925069, 48.3747896]}, "properties": {"id": "osm:way:924452650", "type": "school", "name": "Agnes-Bernauer-Schule", "source": "OpenStreetMap/Overpass"}}, {"type": "Feature", "geometry": {"type": "Point", "coordinates": [10.8939909, 48.3748376]}, "properties": {"id": "osm:way:924452651", "type": "kindergarten", "name": "Kita \"Die kleinen Strolche\"", "source": "OpenStreetMap/Overpass"}}, {"type": "Feature", "geometry": {"type": "Point", "coordinates": [10.8766139, 48.3783801]}, "properties": {"id": "osm:way:924519577", "type": "school", "name": "Martinschule - Sonderpädagogisches Förderzentrum II Augsburg Nord", "source": "OpenStreetMap/Overpass"}}, {"type": "Feature", "geometry": {"type": "Point", "coordinates": [10.8832957, 48.3821089]}, "properties": {"id": "osm:way:924519578", "type": "school", "name": "Löweneckschule", "source": "OpenStreetMap/Overpass"}}, {"type": "Feature", "geometry": {"type": "Point", "coordinates": [10.8800245, 48.3839177]}, "properties": {"id": "osm:way:924519580", "type": "kindergarten", "name": "Familienzentrum Peter&Paul KJF Kindertagesstätte", "source": "OpenStreetMap/Overpass"}}, {"type": "Feature", "geometry": {"type": "Point", "coordinates": [10.8789801, 48.3841613]}, "properties": {"id": "osm:way:924519583", "type": "school", "name": "Frère-Roger-Schule", "source": "OpenStreetMap/Overpass"}}, {"type": "Feature", "geometry": {"type": "Point", "coordinates": [10.7991974, 48.2743033]}, "properties": {"id": "osm:way:925035365", "type": "school", "name": "Grundschule Bobingen an der Singold", "source": "OpenStreetMap/Overpass"}}, {"type": "Feature", "geometry": {"type": "Point", "coordinates": [10.9039211, 48.3574675]}, "properties": {"id": "osm:way:932527256", "type": "childcare", "name": "Teddy & Bär", "source": "OpenStreetMap/Overpass"}}, {"type": "Feature", "geometry": {"type": "Point", "coordinates": [10.9191279, 48.3685899]}, "properties": {"id": "osm:way:958636768", "type": "kindergarten", "name": "Kindertagesstätte St. Simpert", "source": "OpenStreetMap/Overpass"}}, {"type": "Feature", "geometry": {"type": "Point", "coordinates": [10.8388154, 48.3929741]}, "properties": {"id": "osm:way:968144821", "type": "kindergarten", "name": "Kath. Kindertagesstätte St. Ägidius", "source": "OpenStreetMap/Overpass"}}, {"type": "Feature", "geometry": {"type": "Point", "coordinates": [10.867879, 48.3780214]}, "properties": {"id": "osm:way:987006475", "type": "kindergarten", "name": "Kindertagesstätte Kleine Freunde Haus Nord", "source": "OpenStreetMap/Overpass"}}, {"type": "Feature", "geometry": {"type": "Point", "coordinates": [10.9169175, 48.3406749]}, "properties": {"id": "osm:way:987751664", "type": "childcare", "name": "Waldplatz des Waldkindergarten Regenstrahlen Augsburg", "source": "OpenStreetMap/Overpass"}}, {"type": "Feature", "geometry": {"type": "Point", "coordinates": [10.945482, 48.345552]}, "properties": {"id": "osm:way:997767372", "type": "kindergarten", "name": "Kindertagesstätte 12 Apostel", "source": "OpenStreetMap/Overpass"}}, {"type": "Feature", "geometry": {"type": "Point", "coordinates": [10.9484077, 48.3438898]}, "properties": {"id": "osm:way:998165430", "type": "kindergarten", "name": "Kindertagesstätte Auferstehungskirche", "source": "OpenStreetMap/Overpass"}}, {"type": "Feature", "geometry": {"type": "Point", "coordinates": [10.8420962, 48.3483839]}, "properties": {"id": "osm:way:1013506972", "type": "kindergarten", "name": "Evangelischer Immanuel-Kindergarten", "source": "OpenStreetMap/Overpass"}}, {"type": "Feature", "geometry": {"type": "Point", "coordinates": [10.8424495, 48.3485012]}, "properties": {"id": "osm:way:1013526574", "type": "kindergarten", "name": "Katholische Kindertagesstätte St. Oswald", "source": "OpenStreetMap/Overpass"}}, {"type": "Feature", "geometry": {"type": "Point", "coordinates": [10.9484278, 48.3582576]}, "properties": {"id": "osm:way:1018248662", "type": "kindergarten", "name": "Kindergarten & Hort St. Matthäus", "source": "OpenStreetMap/Overpass"}}, {"type": "Feature", "geometry": {"type": "Point", "coordinates": [10.8732468, 48.435214]}, "properties": {"id": "osm:way:1020562583", "type": "kindergarten", "name": "Kinderhaus am Ballonstartplatz", "source": "OpenStreetMap/Overpass"}}, {"type": "Feature", "geometry": {"type": "Point", "coordinates": [10.8778475, 48.4352894]}, "properties": {"id": "osm:way:1020562585", "type": "kindergarten", "name": "Evang. Kita Via Claudia", "source": "OpenStreetMap/Overpass"}}, {"type": "Feature", "geometry": {"type": "Point", "coordinates": [10.8615266, 48.3751675]}, "properties": {"id": "osm:way:1021981194", "type": "kindergarten", "name": "Kath. Kindertagesstätte St. Thaddäus", "source": "OpenStreetMap/Overpass"}}, {"type": "Feature", "geometry": {"type": "Point", "coordinates": [10.8908932, 48.2706468]}, "properties": {"id": "osm:way:1026812170", "type": "school", "name": "Mittelschule Königsbrunn-Nord, König-Ludwig-Schule", "source": "OpenStreetMap/Overpass"}}, {"type": "Feature", "geometry": {"type": "Point", "coordinates": [10.8763973, 48.4476808]}, "properties": {"id": "osm:way:1030434604", "type": "kindergarten", "name": "Kindergarten St. Hedwig", "source": "OpenStreetMap/Overpass"}}, {"type": "Feature", "geometry": {"type": "Point", "coordinates": [10.894122, 48.3538803]}, "properties": {"id": "osm:way:1043481069", "type": "kindergarten", "name": "Spatzennest - Kindertagesstätte", "source": "OpenStreetMap/Overpass"}}, {"type": "Feature", "geometry": {"type": "Point", "coordinates": [10.8978646, 48.3445203]}, "properties": {"id": "osm:way:1044282235", "type": "kindergarten", "name": "Kindergarten Paul-Gerhardt", "source": "OpenStreetMap/Overpass"}}, {"type": "Feature", "geometry": {"type": "Point", "coordinates": [10.9265764, 48.3740842]}, "properties": {"id": "osm:way:1063477521", "type": "kindergarten", "name": "Katholischer Lechpark-Kindergarten Unsere Liebe Frau", "source": "OpenStreetMap/Overpass"}}, {"type": "Feature", "geometry": {"type": "Point", "coordinates": [10.8285913, 48.280309]}, "properties": {"id": "osm:way:1077374295", "type": "kindergarten", "name": "Evangelische Kindertagesstätte", "source": "OpenStreetMap/Overpass"}}, {"type": "Feature", "geometry": {"type": "Point", "coordinates": [10.8790272, 48.3554204]}, "properties": {"id": "osm:way:1082100962", "type": "kindergarten", "name": "Kinder heute - Kinderkrippe am Wittelsbacher Park", "source": "OpenStreetMap/Overpass"}}, {"type": "Feature", "geometry": {"type": "Point", "coordinates": [10.9034194, 48.3286714]}, "properties": {"id": "osm:way:1082301150", "type": "kindergarten", "name": "Kindertagesstätte Ulrich-Schiegg-Straße", "source": "OpenStreetMap/Overpass"}}, {"type": "Feature", "geometry": {"type": "Point", "coordinates": [10.9069715, 48.3336961]}, "properties": {"id": "osm:way:1085778153", "type": "kindergarten", "name": "Kindertagesstätte Hermann-Köhl-Straße", "source": "OpenStreetMap/Overpass"}}, {"type": "Feature", "geometry": {"type": "Point", "coordinates": [10.8664181, 48.3625162]}, "properties": {"id": "osm:way:1090774367", "type": "kindergarten", "name": "Kindernest Gruppe Pfersee", "source": "OpenStreetMap/Overpass"}}, {"type": "Feature", "geometry": {"type": "Point", "coordinates": [10.8686552, 48.3631189]}, "properties": {"id": "osm:way:1091497259", "type": "kindergarten", "name": "Kindertagesstätte Maria Stern", "source": "OpenStreetMap/Overpass"}}, {"type": "Feature", "geometry": {"type": "Point", "coordinates": [10.875427, 48.3680366]}, "properties": {"id": "osm:way:1095689037", "type": "kindergarten", "name": "Kindertageseinrichtung Hessenbachstraße", "source": "OpenStreetMap/Overpass"}}, {"type": "Feature", "geometry": {"type": "Point", "coordinates": [10.8841101, 48.3503666]}, "properties": {"id": "osm:way:1116254466", "type": "kindergarten", "name": "HPT AKAD", "source": "OpenStreetMap/Overpass"}}, {"type": "Feature", "geometry": {"type": "Point", "coordinates": [10.8594594, 48.3721503]}, "properties": {"id": "osm:way:1116357552", "type": "kindergarten", "name": "Graceland Kinderhaus", "source": "OpenStreetMap/Overpass"}}, {"type": "Feature", "geometry": {"type": "Point", "coordinates": [10.8222919, 48.4106066]}, "properties": {"id": "osm:way:1117343561", "type": "school", "name": "Grundschule Täfertingen", "source": "OpenStreetMap/Overpass"}}, {"type": "Feature", "geometry": {"type": "Point", "coordinates": [10.8215275, 48.4103816]}, "properties": {"id": "osm:way:1117343563", "type": "kindergarten", "name": "Kindergarten Mariä Himmelfahrt", "source": "OpenStreetMap/Overpass"}}, {"type": "Feature", "geometry": {"type": "Point", "coordinates": [10.821601, 48.3176953]}, "properties": {"id": "osm:way:1120499701", "type": "kindergarten", "name": "Kindergarten St. Remigius", "source": "OpenStreetMap/Overpass"}}, {"type": "Feature", "geometry": {"type": "Point", "coordinates": [10.8163794, 48.3829222]}, "properties": {"id": "osm:way:1125049333", "type": "kindergarten", "name": "Sankt Dorothea", "source": "OpenStreetMap/Overpass"}}, {"type": "Feature", "geometry": {"type": "Point", "coordinates": [10.8697089, 48.3574289]}, "properties": {"id": "osm:way:1127875032", "type": "kindergarten", "name": "Kindertagesstätte Pfiffikus", "source": "OpenStreetMap/Overpass"}}, {"type": "Feature", "geometry": {"type": "Point", "coordinates": [10.8561248, 48.3715845]}, "properties": {"id": "osm:way:1147325699", "type": "kindergarten", "name": "Kindernest", "source": "OpenStreetMap/Overpass"}}, {"type": "Feature", "geometry": {"type": "Point", "coordinates": [10.7962875, 48.3603527]}, "properties": {"id": "osm:way:1147545419", "type": "kindergarten", "name": "Kindertagesstätte Anna & Jakob", "source": "OpenStreetMap/Overpass"}}, {"type": "Feature", "geometry": {"type": "Point", "coordinates": [10.7927989, 48.3616915]}, "properties": {"id": "osm:way:1147707259", "type": "kindergarten", "name": "Villa Kunterbunt", "source": "OpenStreetMap/Overpass"}}, {"type": "Feature", "geometry": {"type": "Point", "coordinates": [10.8233342, 48.3746514]}, "properties": {"id": "osm:way:1157884672", "type": "kindergarten", "name": "Städtischer Kindergarten Steppach", "source": "OpenStreetMap/Overpass"}}, {"type": "Feature", "geometry": {"type": "Point", "coordinates": [10.8892338, 48.3693832]}, "properties": {"id": "osm:way:1159404246", "type": "kindergarten", "name": "Heilpädagogische Tagesstätte „Villa Frölich“", "source": "OpenStreetMap/Overpass"}}, {"type": "Feature", "geometry": {"type": "Point", "coordinates": [10.8253534, 48.3783182]}, "properties": {"id": "osm:way:1165651967", "type": "school", "name": "Grundschule Steppach", "source": "OpenStreetMap/Overpass"}}, {"type": "Feature", "geometry": {"type": "Point", "coordinates": [10.881842, 48.4305242]}, "properties": {"id": "osm:way:1182096638", "type": "kindergarten", "name": "Hort", "source": "OpenStreetMap/Overpass"}}, {"type": "Feature", "geometry": {"type": "Point", "coordinates": [10.881435, 48.4308114]}, "properties": {"id": "osm:way:1182096639", "type": "kindergarten", "name": "Evang. Johanneskindergarten", "source": "OpenStreetMap/Overpass"}}, {"type": "Feature", "geometry": {"type": "Point", "coordinates": [10.8924759, 48.4064697]}, "properties": {"id": "osm:way:1211256435", "type": "kindergarten", "name": "Hort St. Franziskus", "source": "OpenStreetMap/Overpass"}}, {"type": "Feature", "geometry": {"type": "Point", "coordinates": [10.890388, 48.4062038]}, "properties": {"id": "osm:way:1211531622", "type": "kindergarten", "name": "Kinderkrippe St. Franziskus", "source": "OpenStreetMap/Overpass"}}, {"type": "Feature", "geometry": {"type": "Point", "coordinates": [10.8906446, 48.405921]}, "properties": {"id": "osm:way:1211531623", "type": "kindergarten", "name": "Kindertagesstätte St. Franziskus", "source": "OpenStreetMap/Overpass"}}, {"type": "Feature", "geometry": {"type": "Point", "coordinates": [10.9092337, 48.3837664]}, "properties": {"id": "osm:way:1211907079", "type": "kindergarten", "name": "evang. Kindertageststätte St. Petrus", "source": "OpenStreetMap/Overpass"}}, {"type": "Feature", "geometry": {"type": "Point", "coordinates": [10.8961007, 48.2697261]}, "properties": {"id": "osm:way:1220530080", "type": "school", "name": "Internat der Fritz-Felsenstein-Schule", "source": "OpenStreetMap/Overpass"}}, {"type": "Feature", "geometry": {"type": "Point", "coordinates": [10.8980707, 48.2703107]}, "properties": {"id": "osm:way:1220530081", "type": "school", "name": "Christophorusschule Sonderpädagogisches Förderzentrum Lernen", "source": "OpenStreetMap/Overpass"}}, {"type": "Feature", "geometry": {"type": "Point", "coordinates": [10.8961263, 48.270139]}, "properties": {"id": "osm:way:1220530082", "type": "school", "name": "Tagesstätte Brunnenschule", "source": "OpenStreetMap/Overpass"}}, {"type": "Feature", "geometry": {"type": "Point", "coordinates": [10.8961541, 48.2689632]}, "properties": {"id": "osm:way:1220530083", "type": "school", "name": "Fritz-Felsenstein-Haus für Körperbehinderte e.V.", "source": "OpenStreetMap/Overpass"}}, {"type": "Feature", "geometry": {"type": "Point", "coordinates": [10.8976773, 48.2690975]}, "properties": {"id": "osm:way:1220530086", "type": "school", "name": "Brunnenschule Lebenshilfe e.V. Geistige Entwicklung", "source": "OpenStreetMap/Overpass"}}, {"type": "Feature", "geometry": {"type": "Point", "coordinates": [10.8927733, 48.2716269]}, "properties": {"id": "osm:way:1220530091", "type": "school", "name": "Via-Claudia-Realschule", "source": "OpenStreetMap/Overpass"}}, {"type": "Feature", "geometry": {"type": "Point", "coordinates": [10.8883778, 48.2724708]}, "properties": {"id": "osm:way:1226928250", "type": "kindergarten", "name": "Kindergarten St. Ulrich", "source": "OpenStreetMap/Overpass"}}, {"type": "Feature", "geometry": {"type": "Point", "coordinates": [10.915116, 48.3815808]}, "properties": {"id": "osm:way:1227214485", "type": "kindergarten", "name": "Kinderhaus St. Pankratius", "source": "OpenStreetMap/Overpass"}}, {"type": "Feature", "geometry": {"type": "Point", "coordinates": [10.914556, 48.3807243]}, "properties": {"id": "osm:way:1227392017", "type": "kindergarten", "name": "K.I.D.S. Familienstützpunkt Ost", "source": "OpenStreetMap/Overpass"}}, {"type": "Feature", "geometry": {"type": "Point", "coordinates": [10.8917568, 48.3612686]}, "properties": {"id": "osm:way:1259799598", "type": "kindergarten", "name": "Kindergarten der Stadtsparkasse", "source": "OpenStreetMap/Overpass"}}, {"type": "Feature", "geometry": {"type": "Point", "coordinates": [10.9074638, 48.3767522]}, "properties": {"id": "osm:way:1279448389", "type": "kindergarten", "name": "Städtische Kindertagesstätte Reischlestraße 51", "source": "OpenStreetMap/Overpass"}}, {"type": "Feature", "geometry": {"type": "Point", "coordinates": [10.9007332, 48.3656093]}, "properties": {"id": "osm:way:1279996898", "type": "kindergarten", "name": "St. Moritz", "source": "OpenStreetMap/Overpass"}}, {"type": "Feature", "geometry": {"type": "Point", "coordinates": [10.8689199, 48.3430345]}, "properties": {"id": "osm:way:1293089894", "type": "school", "name": "Ulrichschule Göggingen", "source": "OpenStreetMap/Overpass"}}, {"type": "Feature", "geometry": {"type": "Point", "coordinates": [10.8827445, 48.415795]}, "properties": {"id": "osm:way:1314578096", "type": "kindergarten", "name": "Kindertagesstätte Lechstrolche", "source": "OpenStreetMap/Overpass"}}, {"type": "Feature", "geometry": {"type": "Point", "coordinates": [10.8757246, 48.4265017]}, "properties": {"id": "osm:way:1329958266", "type": "school", "name": "Pestalozzischule Mittagsbetreuung", "source": "OpenStreetMap/Overpass"}}, {"type": "Feature", "geometry": {"type": "Point", "coordinates": [10.9465403, 48.349149]}, "properties": {"id": "osm:way:1346954292", "type": "kindergarten", "name": "Kinderhaus Sonnenschein", "source": "OpenStreetMap/Overpass"}}, {"type": "Feature", "geometry": {"type": "Point", "coordinates": [10.9222713, 48.3923166]}, "properties": {"id": "osm:way:1384342527", "type": "kindergarten", "name": "Kindertageseinrichtung Steinerne Furt", "source": "OpenStreetMap/Overpass"}}, {"type": "Feature", "geometry": {"type": "Point", "coordinates": [10.9013093, 48.3010921]}, "properties": {"id": "osm:way:1462019258", "type": "kindergarten", "name": "städt. Kindertagesstätte Johann-Strauß-Straße", "source": "OpenStreetMap/Overpass"}}, {"type": "Feature", "geometry": {"type": "Point", "coordinates": [10.7872058, 48.3487718]}, "properties": {"id": "osm:way:1462267218", "type": "kindergarten", "name": "Waldkindergarten Wimmelwald Diedorf", "source": "OpenStreetMap/Overpass"}}, {"type": "Feature", "geometry": {"type": "Point", "coordinates": [10.8289962, 48.2690561]}, "properties": {"id": "osm:way:1467032517", "type": "kindergarten", "name": "Kita Wasserschloss", "source": "OpenStreetMap/Overpass"}}, {"type": "Feature", "geometry": {"type": "Point", "coordinates": [10.944827, 48.3392625]}, "properties": {"id": "osm:relation:1105391", "type": "kindergarten", "name": "Kindertagesstätte Mittenwalder Straße", "source": "OpenStreetMap/Overpass"}}, {"type": "Feature", "geometry": {"type": "Point", "coordinates": [10.9002361, 48.328543]}, "properties": {"id": "osm:relation:1442314", "type": "school", "name": "Berufsbildungswerk Augsburg", "source": "OpenStreetMap/Overpass"}}]}
