{"type": "FeatureCollection", "features": [{"type": "Feature", "geometry": {"type": "Point", "coordinates": [10.6354659, 52.2152663]}, "properties": {"id": "osm:node:258768907", "type": "school", "name": "Oberschule Sickte", "source": "OpenStreetMap/Overpass"}}, {"type": "Feature", "geometry": {"type": "Point", "coordinates": [10.6108064, 52.252711]}, "properties": {"id": "osm:node:267520192", "type": "kindergarten", "name": "Kindertagesstätte Moorbusch", "source": "OpenStreetMap/Overpass"}}, {"type": "Feature", "geometry": {"type": "Point", "coordinates": [10.5830074, 52.3408053]}, "properties": {"id": "osm:node:277899951", "type": "kindergarten", "name": "Kindergarten", "source": "OpenStreetMap/Overpass"}}, {"type": "Feature", "geometry": {"type": "Point", "coordinates": [10.4798859, 52.1878175]}, "properties": {"id": "osm:node:279176411", "type": "kindergarten", "name": "KITA Adalbert-Stifter-Straße", "source": "OpenStreetMap/Overpass"}}, {"type": "Feature", "geometry": {"type": "Point", "coordinates": [10.4775386, 52.1918432]}, "properties": {"id": "osm:node:279282100", "type": "school", "name": "Realschule Salzgitter-Thiede", "source": "OpenStreetMap/Overpass"}}, {"type": "Feature", "geometry": {"type": "Point", "coordinates": [10.6372766, 52.2153254]}, "properties": {"id": "osm:node:344710221", "type": "school", "name": "Grundschule Sickte", "source": "OpenStreetMap/Overpass"}}, {"type": "Feature", "geometry": {"type": "Point", "coordinates": [10.5327357, 52.2422794]}, "properties": {"id": "osm:node:618923081", "type": "kindergarten", "name": "Kindergruppe Rumpelstilzchen e.V.", "source": "OpenStreetMap/Overpass"}}, {"type": "Feature", "geometry": {"type": "Point", "coordinates": [10.5648598, 52.2237512]}, "properties": {"id": "osm:node:625870120", "type": "kindergarten", "name": "Ev.Luth.Kindergarten", "source": "OpenStreetMap/Overpass"}}, {"type": "Feature", "geometry": {"type": "Point", "coordinates": [10.5238996, 52.2744161]}, "properties": {"id": "osm:node:632595887", "type": "kindergarten", "name": "Krippe Klitzeklein", "source": "OpenStreetMap/Overpass"}}, {"type": "Feature", "geometry": {"type": "Point", "coordinates": [10.6394205, 52.2168166]}, "properties": {"id": "osm:node:708043613", "type": "school", "name": "Fachschule Heilerziehungspflege", "source": "OpenStreetMap/Overpass"}}, {"type": "Feature", "geometry": {"type": "Point", "coordinates": [10.4721747, 52.2453572]}, "properties": {"id": "osm:node:840120034", "type": "kindergarten", "name": "Kinderkrippe DRK", "source": "OpenStreetMap/Overpass"}}, {"type": "Feature", "geometry": {"type": "Point", "coordinates": [10.4772323, 52.2453295]}, "properties": {"id": "osm:node:840120049", "type": "kindergarten", "name": "", "source": "OpenStreetMap/Overpass"}}, {"type": "Feature", "geometry": {"type": "Point", "coordinates": [10.4945824, 52.3069939]}, "properties": {"id": "osm:node:855329131", "type": "kindergarten", "name": "Kindertagesstätte Veltenhof", "source": "OpenStreetMap/Overpass"}}, {"type": "Feature", "geometry": {"type": "Point", "coordinates": [10.5082546, 52.2737697]}, "properties": {"id": "osm:node:1393969453", "type": "kindergarten", "name": "Kindertagesstätte Stadt Braunschweig", "source": "OpenStreetMap/Overpass"}}, {"type": "Feature", "geometry": {"type": "Point", "coordinates": [10.5296352, 52.2855005]}, "properties": {"id": "osm:node:1487080439", "type": "kindergarten", "name": "Kindergarten St. Georg", "source": "OpenStreetMap/Overpass"}}, {"type": "Feature", "geometry": {"type": "Point", "coordinates": [10.5310187, 52.2506574]}, "properties": {"id": "osm:node:1644683566", "type": "school", "name": "Oskar Kämmer Schule", "source": "OpenStreetMap/Overpass"}}, {"type": "Feature", "geometry": {"type": "Point", "coordinates": [10.476408, 52.2509065]}, "properties": {"id": "osm:node:1686584911", "type": "kindergarten", "name": "", "source": "OpenStreetMap/Overpass"}}, {"type": "Feature", "geometry": {"type": "Point", "coordinates": [10.5439813, 52.2751034]}, "properties": {"id": "osm:node:1873271503", "type": "kindergarten", "name": "Kita Karlstraße", "source": "OpenStreetMap/Overpass"}}, {"type": "Feature", "geometry": {"type": "Point", "coordinates": [10.6139518, 52.243211]}, "properties": {"id": "osm:node:1876777760", "type": "kindergarten", "name": "Waldkindergarten Cremlingen e.V.", "source": "OpenStreetMap/Overpass"}}, {"type": "Feature", "geometry": {"type": "Point", "coordinates": [10.4138186, 52.2705242]}, "properties": {"id": "osm:node:1931829832", "type": "kindergarten", "name": "KiGa Wedtlenstedt", "source": "OpenStreetMap/Overpass"}}, {"type": "Feature", "geometry": {"type": "Point", "coordinates": [10.5278539, 52.2601363]}, "properties": {"id": "osm:node:2381124912", "type": "kindergarten", "name": "Kindertagespflege “Glückskäfer”", "source": "OpenStreetMap/Overpass"}}, {"type": "Feature", "geometry": {"type": "Point", "coordinates": [10.5118923, 52.2754574]}, "properties": {"id": "osm:node:2454866552", "type": "kindergarten", "name": "Kindertagesstätte \"Die Okerpiraten\" (DRK)", "source": "OpenStreetMap/Overpass"}}, {"type": "Feature", "geometry": {"type": "Point", "coordinates": [10.5218915, 52.2785026]}, "properties": {"id": "osm:node:2987181657", "type": "school", "name": "Johannes-Selenka-Schule Außenstelle Hamburger Straße", "source": "OpenStreetMap/Overpass"}}, {"type": "Feature", "geometry": {"type": "Point", "coordinates": [10.535839, 52.2540807]}, "properties": {"id": "osm:node:3199122436", "type": "kindergarten", "name": "Till Eulenspiegel e.V.", "source": "OpenStreetMap/Overpass"}}, {"type": "Feature", "geometry": {"type": "Point", "coordinates": [10.5739938, 52.2529677]}, "properties": {"id": "osm:node:3221678907", "type": "childcare", "name": "Kindergruppe \"Die sieben Zwerge e.V.\"", "source": "OpenStreetMap/Overpass"}}, {"type": "Feature", "geometry": {"type": "Point", "coordinates": [10.5311826, 52.2526596]}, "properties": {"id": "osm:node:3236667757", "type": "kindergarten", "name": "Kita St. Nikolaus (Caritas Familienzentrum St. Nikolaus)", "source": "OpenStreetMap/Overpass"}}, {"type": "Feature", "geometry": {"type": "Point", "coordinates": [10.5134526, 52.2533742]}, "properties": {"id": "osm:node:4288428003", "type": "kindergarten", "name": "AWO Kinderkrippe Kinderwerk", "source": "OpenStreetMap/Overpass"}}, {"type": "Feature", "geometry": {"type": "Point", "coordinates": [10.511062, 52.3107586]}, "properties": {"id": "osm:node:4545601859", "type": "kindergarten", "name": "Kindergruppe Till Eulenspiegel e. V.", "source": "OpenStreetMap/Overpass"}}, {"type": "Feature", "geometry": {"type": "Point", "coordinates": [10.6139144, 52.3172681]}, "properties": {"id": "osm:node:5011403876", "type": "kindergarten", "name": "Kita Kind in Hondelage", "source": "OpenStreetMap/Overpass"}}, {"type": "Feature", "geometry": {"type": "Point", "coordinates": [10.5432435, 52.2596675]}, "properties": {"id": "osm:node:5078547560", "type": "childcare", "name": "Bimbambinis", "source": "OpenStreetMap/Overpass"}}, {"type": "Feature", "geometry": {"type": "Point", "coordinates": [10.429346, 52.3547365]}, "properties": {"id": "osm:node:5085534644", "type": "kindergarten", "name": "Kita Groß Schwülper", "source": "OpenStreetMap/Overpass"}}, {"type": "Feature", "geometry": {"type": "Point", "coordinates": [10.4631472, 52.3463628]}, "properties": {"id": "osm:node:5085536132", "type": "kindergarten", "name": "Kinderkrippe Lagesbüttel", "source": "OpenStreetMap/Overpass"}}, {"type": "Feature", "geometry": {"type": "Point", "coordinates": [10.4390797, 52.3554524]}, "properties": {"id": "osm:node:5085536133", "type": "kindergarten", "name": "Kinderkrippe Groß Schwülper", "source": "OpenStreetMap/Overpass"}}, {"type": "Feature", "geometry": {"type": "Point", "coordinates": [10.437406, 52.3485551]}, "properties": {"id": "osm:node:5085536134", "type": "kindergarten", "name": "Kinderkrippe Schwülper Eichenkamp", "source": "OpenStreetMap/Overpass"}}, {"type": "Feature", "geometry": {"type": "Point", "coordinates": [10.5312999, 52.2567286]}, "properties": {"id": "osm:node:6177051925", "type": "kindergarten", "name": "die magnis", "source": "OpenStreetMap/Overpass"}}, {"type": "Feature", "geometry": {"type": "Point", "coordinates": [10.5255924, 52.2755499]}, "properties": {"id": "osm:node:6223319037", "type": "childcare", "name": "Kindertagespflege Rappelkiste", "source": "OpenStreetMap/Overpass"}}, {"type": "Feature", "geometry": {"type": "Point", "coordinates": [10.5278344, 52.260516]}, "properties": {"id": "osm:node:7282103276", "type": "kindergarten", "name": "Kindergruppe \"Bunte Kuh\"", "source": "OpenStreetMap/Overpass"}}, {"type": "Feature", "geometry": {"type": "Point", "coordinates": [10.5160869, 52.2608847]}, "properties": {"id": "osm:node:7725572987", "type": "childcare", "name": "Nane und Boe", "source": "OpenStreetMap/Overpass"}}, {"type": "Feature", "geometry": {"type": "Point", "coordinates": [10.510082, 52.2925909]}, "properties": {"id": "osm:node:8238666399", "type": "kindergarten", "name": "Tagespflege Peter Plan", "source": "OpenStreetMap/Overpass"}}, {"type": "Feature", "geometry": {"type": "Point", "coordinates": [10.5319901, 52.2822256]}, "properties": {"id": "osm:node:8504722869", "type": "kindergarten", "name": "Kindertagesstätte Mitgaustraße", "source": "OpenStreetMap/Overpass"}}, {"type": "Feature", "geometry": {"type": "Point", "coordinates": [10.5390114, 52.2736263]}, "properties": {"id": "osm:node:9837083919", "type": "kindergarten", "name": "Kinderzimmer Ost", "source": "OpenStreetMap/Overpass"}}, {"type": "Feature", "geometry": {"type": "Point", "coordinates": [10.5446152, 52.2760092]}, "properties": {"id": "osm:node:10202183674", "type": "kindergarten", "name": "Kükentreff", "source": "OpenStreetMap/Overpass"}}, {"type": "Feature", "geometry": {"type": "Point", "coordinates": [10.5641752, 52.2798231]}, "properties": {"id": "osm:node:10691493803", "type": "school", "name": "Ricarda-Huch-Schule Außenstelle", "source": "OpenStreetMap/Overpass"}}, {"type": "Feature", "geometry": {"type": "Point", "coordinates": [10.5589545, 52.2332037]}, "properties": {"id": "osm:node:10972148605", "type": "kindergarten", "name": "Roxy Kider- und Jugendzentrum", "source": "OpenStreetMap/Overpass"}}, {"type": "Feature", "geometry": {"type": "Point", "coordinates": [10.5411392, 52.2609226]}, "properties": {"id": "osm:node:11916038817", "type": "kindergarten", "name": "", "source": "OpenStreetMap/Overpass"}}, {"type": "Feature", "geometry": {"type": "Point", "coordinates": [10.4822046, 52.2444504]}, "properties": {"id": "osm:node:11939249002", "type": "childcare", "name": "Ev.-luth. Familienzentrum und Kindertagesstätte Arche Noah", "source": "OpenStreetMap/Overpass"}}, {"type": "Feature", "geometry": {"type": "Point", "coordinates": [10.4823787, 52.2440316]}, "properties": {"id": "osm:node:11939266817", "type": "childcare", "name": "Ev.luth. Familienzentrum Kindertagesstätte Mittenmank", "source": "OpenStreetMap/Overpass"}}, {"type": "Feature", "geometry": {"type": "Point", "coordinates": [10.5491348, 52.2687064]}, "properties": {"id": "osm:node:12033858042", "type": "kindergarten", "name": "Kindergarten an St. Matthäus e.V.", "source": "OpenStreetMap/Overpass"}}, {"type": "Feature", "geometry": {"type": "Point", "coordinates": [10.5600033, 52.31645]}, "properties": {"id": "osm:node:12351490973", "type": "school", "name": "IGF e.V. Flugschule", "source": "OpenStreetMap/Overpass"}}, {"type": "Feature", "geometry": {"type": "Point", "coordinates": [10.548261, 52.2608414]}, "properties": {"id": "osm:node:13097358785", "type": "kindergarten", "name": "Kindergruppe Till Eulenspiegel Hopfengarten", "source": "OpenStreetMap/Overpass"}}, {"type": "Feature", "geometry": {"type": "Point", "coordinates": [10.507362, 52.2621117]}, "properties": {"id": "osm:node:13127414113", "type": "childcare", "name": "Krippe St. Joseph", "source": "OpenStreetMap/Overpass"}}, {"type": "Feature", "geometry": {"type": "Point", "coordinates": [10.4533165, 52.255659]}, "properties": {"id": "osm:node:13351992552", "type": "childcare", "name": "Waldkindergarten", "source": "OpenStreetMap/Overpass"}}, {"type": "Feature", "geometry": {"type": "Point", "coordinates": [10.5483588, 52.2631861]}, "properties": {"id": "osm:node:13615016923", "type": "kindergarten", "name": "Dein Fröhlicher Anfang", "source": "OpenStreetMap/Overpass"}}, {"type": "Feature", "geometry": {"type": "Point", "coordinates": [10.5280612, 52.2328021]}, "properties": {"id": "osm:node:13645174197", "type": "school", "name": "Berufsfachschule Pflege HEH", "source": "OpenStreetMap/Overpass"}}, {"type": "Feature", "geometry": {"type": "Point", "coordinates": [10.5070866, 52.2580141]}, "properties": {"id": "osm:way:9891023", "type": "school", "name": "Hauptschule Sophienstraße", "source": "OpenStreetMap/Overpass"}}, {"type": "Feature", "geometry": {"type": "Point", "coordinates": [10.5337309, 52.2603595]}, "properties": {"id": "osm:way:24843994", "type": "school", "name": "Wilhelm-Gymnasium", "source": "OpenStreetMap/Overpass"}}, {"type": "Feature", "geometry": {"type": "Point", "coordinates": [10.5178147, 52.3065752]}, "properties": {"id": "osm:way:25032245", "type": "school", "name": "Grundschule Rühme", "source": "OpenStreetMap/Overpass"}}, {"type": "Feature", "geometry": {"type": "Point", "coordinates": [10.5186772, 52.3069483]}, "properties": {"id": "osm:way:25032246", "type": "school", "name": "", "source": "OpenStreetMap/Overpass"}}, {"type": "Feature", "geometry": {"type": "Point", "coordinates": [10.548802, 52.2713659]}, "properties": {"id": "osm:way:25645362", "type": "school", "name": "IGS Franzsches Feld", "source": "OpenStreetMap/Overpass"}}, {"type": "Feature", "geometry": {"type": "Point", "coordinates": [10.5624367, 52.2426141]}, "properties": {"id": "osm:way:25662929", "type": "school", "name": "Grundschule Lindenbergsiedlung", "source": "OpenStreetMap/Overpass"}}, {"type": "Feature", "geometry": {"type": "Point", "coordinates": [10.499078, 52.2659118]}, "properties": {"id": "osm:way:26145537", "type": "school", "name": "Gymnasium Hoffmann-von-Fallersleben", "source": "OpenStreetMap/Overpass"}}, {"type": "Feature", "geometry": {"type": "Point", "coordinates": [10.5337948, 52.2605241]}, "properties": {"id": "osm:way:26329437", "type": "school", "name": "Wilhelm-Gymnasium", "source": "OpenStreetMap/Overpass"}}, {"type": "Feature", "geometry": {"type": "Point", "coordinates": [10.5439683, 52.2381312]}, "properties": {"id": "osm:way:26643065", "type": "school", "name": "Deutsche Müllerschule Braunschweig", "source": "OpenStreetMap/Overpass"}}, {"type": "Feature", "geometry": {"type": "Point", "coordinates": [10.5510654, 52.2367617]}, "properties": {"id": "osm:way:26643336", "type": "kindergarten", "name": "Städtische Kita / Betriebs-Kita", "source": "OpenStreetMap/Overpass"}}, {"type": "Feature", "geometry": {"type": "Point", "coordinates": [10.5428565, 52.2492917]}, "properties": {"id": "osm:way:26776058", "type": "kindergarten", "name": "KiTa Ackermäuse", "source": "OpenStreetMap/Overpass"}}, {"type": "Feature", "geometry": {"type": "Point", "coordinates": [10.5061682, 52.2619645]}, "properties": {"id": "osm:way:27008277", "type": "school", "name": "Grundschule Hohestieg", "source": "OpenStreetMap/Overpass"}}, {"type": "Feature", "geometry": {"type": "Point", "coordinates": [10.5327842, 52.2726315]}, "properties": {"id": "osm:way:27058793", "type": "school", "name": "Grundschule Bültenweg und Neue Oberschule Abt. Bültenweg", "source": "OpenStreetMap/Overpass"}}, {"type": "Feature", "geometry": {"type": "Point", "coordinates": [10.5290559, 52.2714183]}, "properties": {"id": "osm:way:27130233", "type": "kindergarten", "name": "KiTa Zwerge", "source": "OpenStreetMap/Overpass"}}, {"type": "Feature", "geometry": {"type": "Point", "coordinates": [10.5163034, 52.2734161]}, "properties": {"id": "osm:way:27176231", "type": "school", "name": "Grund- und Hauptschule Pestalozzistraße", "source": "OpenStreetMap/Overpass"}}, {"type": "Feature", "geometry": {"type": "Point", "coordinates": [10.5372268, 52.2604192]}, "properties": {"id": "osm:way:27329377", "type": "school", "name": "Wilhelm-Gymnasium Abt. Leonhardstraße", "source": "OpenStreetMap/Overpass"}}, {"type": "Feature", "geometry": {"type": "Point", "coordinates": [10.5407492, 52.2621391]}, "properties": {"id": "osm:way:27330018", "type": "school", "name": "Martha-Fuchs-Schule, Berufsbildende Schulen der Stadt Braunschweig", "source": "OpenStreetMap/Overpass"}}, {"type": "Feature", "geometry": {"type": "Point", "coordinates": [10.5502464, 52.2570026]}, "properties": {"id": "osm:way:27351507", "type": "school", "name": "Internationale Schule Braunschweig - Wolfsburg", "source": "OpenStreetMap/Overpass"}}, {"type": "Feature", "geometry": {"type": "Point", "coordinates": [10.5260425, 52.2586055]}, "properties": {"id": "osm:way:27422478", "type": "school", "name": "Realschule John-F.-Kennedy-Platz", "source": "OpenStreetMap/Overpass"}}, {"type": "Feature", "geometry": {"type": "Point", "coordinates": [10.5396214, 52.2970363]}, "properties": {"id": "osm:way:27756101", "type": "school", "name": "Grundschule Schunteraue, Außenstelle Schuntersiedlung, Förderschule Astrid-Lindgren-Schule", "source": "OpenStreetMap/Overpass"}}, {"type": "Feature", "geometry": {"type": "Point", "coordinates": [10.5368217, 52.2974061]}, "properties": {"id": "osm:way:27756135", "type": "kindergarten", "name": "Kindertagesstätte Schuntersiedlung", "source": "OpenStreetMap/Overpass"}}, {"type": "Feature", "geometry": {"type": "Point", "coordinates": [10.5401453, 52.2971623]}, "properties": {"id": "osm:way:27770295", "type": "school", "name": "", "source": "OpenStreetMap/Overpass"}}, {"type": "Feature", "geometry": {"type": "Point", "coordinates": [10.6007422, 52.3148205]}, "properties": {"id": "osm:way:27925741", "type": "school", "name": "Grundschule Hondelage", "source": "OpenStreetMap/Overpass"}}, {"type": "Feature", "geometry": {"type": "Point", "coordinates": [10.6004553, 52.3143999]}, "properties": {"id": "osm:way:27925744", "type": "school", "name": "", "source": "OpenStreetMap/Overpass"}}, {"type": "Feature", "geometry": {"type": "Point", "coordinates": [10.5407356, 52.3235468]}, "properties": {"id": "osm:way:27925770", "type": "school", "name": "Grundschule Waggum", "source": "OpenStreetMap/Overpass"}}, {"type": "Feature", "geometry": {"type": "Point", "coordinates": [10.541007, 52.3233068]}, "properties": {"id": "osm:way:27925810", "type": "school", "name": "Grundschule Waggum", "source": "OpenStreetMap/Overpass"}}, {"type": "Feature", "geometry": {"type": "Point", "coordinates": [10.543493, 52.2392284]}, "properties": {"id": "osm:way:27945834", "type": "school", "name": "Berufsbildende Schulen", "source": "OpenStreetMap/Overpass"}}, {"type": "Feature", "geometry": {"type": "Point", "coordinates": [10.5593047, 52.2912706]}, "properties": {"id": "osm:way:28023205", "type": "school", "name": "IGS Querum", "source": "OpenStreetMap/Overpass"}}, {"type": "Feature", "geometry": {"type": "Point", "coordinates": [10.5265954, 52.2270652]}, "properties": {"id": "osm:way:28023828", "type": "school", "name": "Grundschule Melverode", "source": "OpenStreetMap/Overpass"}}, {"type": "Feature", "geometry": {"type": "Point", "coordinates": [10.5261066, 52.2274618]}, "properties": {"id": "osm:way:28023853", "type": "school", "name": "", "source": "OpenStreetMap/Overpass"}}, {"type": "Feature", "geometry": {"type": "Point", "coordinates": [10.4283841, 52.3551687]}, "properties": {"id": "osm:way:28212856", "type": "school", "name": "Grundschule Schwülper", "source": "OpenStreetMap/Overpass"}}, {"type": "Feature", "geometry": {"type": "Point", "coordinates": [10.5422144, 52.2708727]}, "properties": {"id": "osm:way:28410373", "type": "school", "name": "Grundschule Heinrichstraße", "source": "OpenStreetMap/Overpass"}}, {"type": "Feature", "geometry": {"type": "Point", "coordinates": [10.5305215, 52.2632121]}, "properties": {"id": "osm:way:28576318", "type": "school", "name": "Realschule Georg-Eckert-Straße", "source": "OpenStreetMap/Overpass"}}, {"type": "Feature", "geometry": {"type": "Point", "coordinates": [10.5162509, 52.2735926]}, "properties": {"id": "osm:way:28576455", "type": "school", "name": "Grund- und Hauptschule Pestalozzistraße", "source": "OpenStreetMap/Overpass"}}, {"type": "Feature", "geometry": {"type": "Point", "coordinates": [10.5360011, 52.3068083]}, "properties": {"id": "osm:way:28684062", "type": "kindergarten", "name": "", "source": "OpenStreetMap/Overpass"}}, {"type": "Feature", "geometry": {"type": "Point", "coordinates": [10.552785, 52.2731819]}, "properties": {"id": "osm:way:31861278", "type": "kindergarten", "name": "Städtische Kindertagesstätte Grünewaldstraße", "source": "OpenStreetMap/Overpass"}}, {"type": "Feature", "geometry": {"type": "Point", "coordinates": [10.5473413, 52.2590929]}, "properties": {"id": "osm:way:32232394", "type": "school", "name": "CJD Braunschweig Internat und Gymnasium", "source": "OpenStreetMap/Overpass"}}, {"type": "Feature", "geometry": {"type": "Point", "coordinates": [10.5300322, 52.2745805]}, "properties": {"id": "osm:way:32236340", "type": "kindergarten", "name": "KITA Spatzennest", "source": "OpenStreetMap/Overpass"}}, {"type": "Feature", "geometry": {"type": "Point", "coordinates": [10.547913, 52.2708332]}, "properties": {"id": "osm:way:34063360", "type": "school", "name": "Freie Schule", "source": "OpenStreetMap/Overpass"}}, {"type": "Feature", "geometry": {"type": "Point", "coordinates": [10.4930653, 52.2494856]}, "properties": {"id": "osm:way:34587949", "type": "school", "name": "Freie Waldorfschule", "source": "OpenStreetMap/Overpass"}}, {"type": "Feature", "geometry": {"type": "Point", "coordinates": [10.505485, 52.2618442]}, "properties": {"id": "osm:way:37791824", "type": "school", "name": "Grundschule Hohestieg", "source": "OpenStreetMap/Overpass"}}, {"type": "Feature", "geometry": {"type": "Point", "coordinates": [10.5057485, 52.2618647]}, "properties": {"id": "osm:way:37791825", "type": "school", "name": "", "source": "OpenStreetMap/Overpass"}}, {"type": "Feature", "geometry": {"type": "Point", "coordinates": [10.506972, 52.2590882]}, "properties": {"id": "osm:way:37791827", "type": "kindergarten", "name": "DRK Kita", "source": "OpenStreetMap/Overpass"}}, {"type": "Feature", "geometry": {"type": "Point", "coordinates": [10.508323, 52.2630179]}, "properties": {"id": "osm:way:37791833", "type": "school", "name": "Realschule Sidonienstraße", "source": "OpenStreetMap/Overpass"}}, {"type": "Feature", "geometry": {"type": "Point", "coordinates": [10.5072536, 52.2577079]}, "properties": {"id": "osm:way:37791835", "type": "school", "name": "Hauptschule Sophienstraße", "source": "OpenStreetMap/Overpass"}}, {"type": "Feature", "geometry": {"type": "Point", "coordinates": [10.507315, 52.2572699]}, "properties": {"id": "osm:way:37791838", "type": "school", "name": "Hauptschule Sophienstraße", "source": "OpenStreetMap/Overpass"}}, {"type": "Feature", "geometry": {"type": "Point", "coordinates": [10.5076596, 52.2574049]}, "properties": {"id": "osm:way:37791839", "type": "school", "name": "Hauptschule Sophienstraße", "source": "OpenStreetMap/Overpass"}}, {"type": "Feature", "geometry": {"type": "Point", "coordinates": [10.5051319, 52.2624396]}, "properties": {"id": "osm:way:37796050", "type": "kindergarten", "name": "Evangelischer Kindergarten", "source": "OpenStreetMap/Overpass"}}, {"type": "Feature", "geometry": {"type": "Point", "coordinates": [10.5061996, 52.2617829]}, "properties": {"id": "osm:way:37796051", "type": "school", "name": "Grundschulen Hohestieg und St. Josef", "source": "OpenStreetMap/Overpass"}}, {"type": "Feature", "geometry": {"type": "Point", "coordinates": [10.506711, 52.261574]}, "properties": {"id": "osm:way:37797256", "type": "school", "name": "Katholische Grundschule St. Josef", "source": "OpenStreetMap/Overpass"}}, {"type": "Feature", "geometry": {"type": "Point", "coordinates": [10.5078137, 52.2610859]}, "properties": {"id": "osm:way:37804379", "type": "kindergarten", "name": "Kindergruppe Rübe", "source": "OpenStreetMap/Overpass"}}, {"type": "Feature", "geometry": {"type": "Point", "coordinates": [10.5138903, 52.2697588]}, "properties": {"id": "osm:way:37807331", "type": "school", "name": "Realschule Maschstraße", "source": "OpenStreetMap/Overpass"}}, {"type": "Feature", "geometry": {"type": "Point", "coordinates": [10.5150086, 52.273432]}, "properties": {"id": "osm:way:37810630", "type": "kindergarten", "name": "Kindertagesstätte Quäker-Nachbarschaftsheim", "source": "OpenStreetMap/Overpass"}}, {"type": "Feature", "geometry": {"type": "Point", "coordinates": [10.5163964, 52.2738422]}, "properties": {"id": "osm:way:37810632", "type": "school", "name": "Hauptschule und Offene Ganztagsschule Pestalozzistraße", "source": "OpenStreetMap/Overpass"}}, {"type": "Feature", "geometry": {"type": "Point", "coordinates": [10.5215858, 52.2706864]}, "properties": {"id": "osm:way:37812095", "type": "school", "name": "", "source": "OpenStreetMap/Overpass"}}, {"type": "Feature", "geometry": {"type": "Point", "coordinates": [10.5214469, 52.2707906]}, "properties": {"id": "osm:way:37812096", "type": "school", "name": "Johannes-Selenka-Schule", "source": "OpenStreetMap/Overpass"}}, {"type": "Feature", "geometry": {"type": "Point", "coordinates": [10.5210595, 52.2704272]}, "properties": {"id": "osm:way:37812097", "type": "school", "name": "BBS 1", "source": "OpenStreetMap/Overpass"}}, {"type": "Feature", "geometry": {"type": "Point", "coordinates": [10.5214714, 52.2704033]}, "properties": {"id": "osm:way:37812106", "type": "school", "name": "BBS Johannes-Selenka-Schule", "source": "OpenStreetMap/Overpass"}}, {"type": "Feature", "geometry": {"type": "Point", "coordinates": [10.508325, 52.2666318]}, "properties": {"id": "osm:way:37812963", "type": "school", "name": "Dr. von Morgenstern Schulen", "source": "OpenStreetMap/Overpass"}}, {"type": "Feature", "geometry": {"type": "Point", "coordinates": [10.5190559, 52.267292]}, "properties": {"id": "osm:way:37817979", "type": "school", "name": "BBS3 Otto-Bennemann-Schule", "source": "OpenStreetMap/Overpass"}}, {"type": "Feature", "geometry": {"type": "Point", "coordinates": [10.5131634, 52.2725703]}, "properties": {"id": "osm:way:37821630", "type": "school", "name": "Grundschule Hinter der Masch", "source": "OpenStreetMap/Overpass"}}, {"type": "Feature", "geometry": {"type": "Point", "coordinates": [10.5106952, 52.2712614]}, "properties": {"id": "osm:way:37852642", "type": "school", "name": "Otto-Bennemann-Schule", "source": "OpenStreetMap/Overpass"}}, {"type": "Feature", "geometry": {"type": "Point", "coordinates": [10.5098729, 52.2710862]}, "properties": {"id": "osm:way:37852647", "type": "school", "name": "Otto-Bennemann-Schule", "source": "OpenStreetMap/Overpass"}}, {"type": "Feature", "geometry": {"type": "Point", "coordinates": [10.5103253, 52.2711283]}, "properties": {"id": "osm:way:37852648", "type": "school", "name": "Otto-Bennemann-Schule", "source": "OpenStreetMap/Overpass"}}, {"type": "Feature", "geometry": {"type": "Point", "coordinates": [10.5106914, 52.2709581]}, "properties": {"id": "osm:way:37852673", "type": "school", "name": "Otto Bennemann Schule Außenstelle Blasiusstraße", "source": "OpenStreetMap/Overpass"}}, {"type": "Feature", "geometry": {"type": "Point", "coordinates": [10.5069238, 52.2668982]}, "properties": {"id": "osm:way:37886700", "type": "kindergarten", "name": "AWO-Kindertagesstätte Chemnitzstraße", "source": "OpenStreetMap/Overpass"}}, {"type": "Feature", "geometry": {"type": "Point", "coordinates": [10.5066346, 52.2669579]}, "properties": {"id": "osm:way:37886702", "type": "kindergarten", "name": "Kindertagesstätte Chemnitzstraße", "source": "OpenStreetMap/Overpass"}}, {"type": "Feature", "geometry": {"type": "Point", "coordinates": [10.52913, 52.2904013]}, "properties": {"id": "osm:way:37913281", "type": "school", "name": "Jugendverkehrsschule I", "source": "OpenStreetMap/Overpass"}}, {"type": "Feature", "geometry": {"type": "Point", "coordinates": [10.5292285, 52.2907254]}, "properties": {"id": "osm:way:37913282", "type": "school", "name": "Jugendverkehrsschule I", "source": "OpenStreetMap/Overpass"}}, {"type": "Feature", "geometry": {"type": "Point", "coordinates": [10.5308953, 52.2904103]}, "properties": {"id": "osm:way:37913283", "type": "school", "name": "Nibelungen Realschule", "source": "OpenStreetMap/Overpass"}}, {"type": "Feature", "geometry": {"type": "Point", "coordinates": [10.5314114, 52.2902222]}, "properties": {"id": "osm:way:37913287", "type": "school", "name": "Nibelungen Realschule", "source": "OpenStreetMap/Overpass"}}, {"type": "Feature", "geometry": {"type": "Point", "coordinates": [10.5033577, 52.2632258]}, "properties": {"id": "osm:way:38082494", "type": "school", "name": "Grundschule Bürgerstraße", "source": "OpenStreetMap/Overpass"}}, {"type": "Feature", "geometry": {"type": "Point", "coordinates": [10.5388778, 52.2679318]}, "properties": {"id": "osm:way:38549121", "type": "school", "name": "Oskar Kämmer Schule", "source": "OpenStreetMap/Overpass"}}, {"type": "Feature", "geometry": {"type": "Point", "coordinates": [10.5149377, 52.2925154]}, "properties": {"id": "osm:way:39402898", "type": "school", "name": "GS Am Schwarzen Berge", "source": "OpenStreetMap/Overpass"}}, {"type": "Feature", "geometry": {"type": "Point", "coordinates": [10.5154756, 52.2920978]}, "properties": {"id": "osm:way:39402899", "type": "school", "name": "Grundschule Schwarzer Berg", "source": "OpenStreetMap/Overpass"}}, {"type": "Feature", "geometry": {"type": "Point", "coordinates": [10.4837994, 52.2704231]}, "properties": {"id": "osm:way:40150750", "type": "school", "name": "", "source": "OpenStreetMap/Overpass"}}, {"type": "Feature", "geometry": {"type": "Point", "coordinates": [10.5343232, 52.2685857]}, "properties": {"id": "osm:way:40271685", "type": "kindergarten", "name": "Kindertagesstätte Kasernenstraße", "source": "OpenStreetMap/Overpass"}}, {"type": "Feature", "geometry": {"type": "Point", "coordinates": [10.5017057, 52.2718432]}, "properties": {"id": "osm:way:40803793", "type": "school", "name": "Grundschule Diesterwegstraße", "source": "OpenStreetMap/Overpass"}}, {"type": "Feature", "geometry": {"type": "Point", "coordinates": [10.5278233, 52.2697026]}, "properties": {"id": "osm:way:41392827", "type": "kindergarten", "name": "Kita", "source": "OpenStreetMap/Overpass"}}, {"type": "Feature", "geometry": {"type": "Point", "coordinates": [10.496379, 52.2658362]}, "properties": {"id": "osm:way:41571948", "type": "school", "name": "Oswald-Berkhan-Schule", "source": "OpenStreetMap/Overpass"}}, {"type": "Feature", "geometry": {"type": "Point", "coordinates": [10.4836737, 52.2704942]}, "properties": {"id": "osm:way:41768743", "type": "school", "name": "Hoffmann von Fallersleben Gymnasium", "source": "OpenStreetMap/Overpass"}}, {"type": "Feature", "geometry": {"type": "Point", "coordinates": [10.6332233, 52.2146685]}, "properties": {"id": "osm:way:42179209", "type": "kindergarten", "name": "Kindergarten St. Martin", "source": "OpenStreetMap/Overpass"}}, {"type": "Feature", "geometry": {"type": "Point", "coordinates": [10.5287095, 52.2867011]}, "properties": {"id": "osm:way:42987956", "type": "kindergarten", "name": "Städtische Kindertagesstätte Siegmundstraße", "source": "OpenStreetMap/Overpass"}}, {"type": "Feature", "geometry": {"type": "Point", "coordinates": [10.4657586, 52.2857516]}, "properties": {"id": "osm:way:43032856", "type": "kindergarten", "name": "Städtische Kindertagesstätte Dorothea-Erxleben-Straße", "source": "OpenStreetMap/Overpass"}}, {"type": "Feature", "geometry": {"type": "Point", "coordinates": [10.4451358, 52.2906292]}, "properties": {"id": "osm:way:43112810", "type": "kindergarten", "name": "Kindergarten Krümelkiste", "source": "OpenStreetMap/Overpass"}}, {"type": "Feature", "geometry": {"type": "Point", "coordinates": [10.5994787, 52.2862927]}, "properties": {"id": "osm:way:43871757", "type": "school", "name": "Sally Perel Gesamtschule", "source": "OpenStreetMap/Overpass"}}, {"type": "Feature", "geometry": {"type": "Point", "coordinates": [10.5371783, 52.297249]}, "properties": {"id": "osm:way:43955267", "type": "kindergarten", "name": "", "source": "OpenStreetMap/Overpass"}}, {"type": "Feature", "geometry": {"type": "Point", "coordinates": [10.4788801, 52.2734402]}, "properties": {"id": "osm:way:44032142", "type": "kindergarten", "name": "Wichern Kindergarten", "source": "OpenStreetMap/Overpass"}}, {"type": "Feature", "geometry": {"type": "Point", "coordinates": [10.5555417, 52.2645337]}, "properties": {"id": "osm:way:44047487", "type": "kindergarten", "name": "Städtische Kindertagesstätte Prinzenpark", "source": "OpenStreetMap/Overpass"}}, {"type": "Feature", "geometry": {"type": "Point", "coordinates": [10.5356193, 52.2777486]}, "properties": {"id": "osm:way:44419030", "type": "kindergarten", "name": "Kindergarten St. Albertus Magnus", "source": "OpenStreetMap/Overpass"}}, {"type": "Feature", "geometry": {"type": "Point", "coordinates": [10.5424052, 52.2706842]}, "properties": {"id": "osm:way:45097952", "type": "school", "name": "Grundschule Heinrichstraße", "source": "OpenStreetMap/Overpass"}}, {"type": "Feature", "geometry": {"type": "Point", "coordinates": [10.5210757, 52.2835087]}, "properties": {"id": "osm:way:45417105", "type": "school", "name": "Grundschule Isoldestraße", "source": "OpenStreetMap/Overpass"}}, {"type": "Feature", "geometry": {"type": "Point", "coordinates": [10.5731272, 52.3087553]}, "properties": {"id": "osm:way:45563423", "type": "kindergarten", "name": "Städtische Kindertagesstätte Peterskamp", "source": "OpenStreetMap/Overpass"}}, {"type": "Feature", "geometry": {"type": "Point", "coordinates": [10.5098876, 52.2907434]}, "properties": {"id": "osm:way:47314220", "type": "kindergarten", "name": "Kindergarten der Christuskirche", "source": "OpenStreetMap/Overpass"}}, {"type": "Feature", "geometry": {"type": "Point", "coordinates": [10.5134496, 52.2533504]}, "properties": {"id": "osm:way:49165225", "type": "kindergarten", "name": "KINDER-WERK", "source": "OpenStreetMap/Overpass"}}, {"type": "Feature", "geometry": {"type": "Point", "coordinates": [10.5527399, 52.2873686]}, "properties": {"id": "osm:way:51930620", "type": "kindergarten", "name": "Kindertagesstätte Querum", "source": "OpenStreetMap/Overpass"}}, {"type": "Feature", "geometry": {"type": "Point", "coordinates": [10.5121223, 52.2986412]}, "properties": {"id": "osm:way:53026031", "type": "school", "name": "Oskar Kämmer Schule", "source": "OpenStreetMap/Overpass"}}, {"type": "Feature", "geometry": {"type": "Point", "coordinates": [10.5566653, 52.2796611]}, "properties": {"id": "osm:way:63721379", "type": "school", "name": "Schulkindgruppen-Haus", "source": "OpenStreetMap/Overpass"}}, {"type": "Feature", "geometry": {"type": "Point", "coordinates": [10.4417378, 52.2714135]}, "properties": {"id": "osm:way:66438209", "type": "kindergarten", "name": "", "source": "OpenStreetMap/Overpass"}}, {"type": "Feature", "geometry": {"type": "Point", "coordinates": [10.5161785, 52.263766]}, "properties": {"id": "osm:way:72607228", "type": "school", "name": "Gymnasium Martino-Katharineum", "source": "OpenStreetMap/Overpass"}}, {"type": "Feature", "geometry": {"type": "Point", "coordinates": [10.441085, 52.305564]}, "properties": {"id": "osm:way:75411954", "type": "kindergarten", "name": "Ev. Kindertagesstätte Völkenrode", "source": "OpenStreetMap/Overpass"}}, {"type": "Feature", "geometry": {"type": "Point", "coordinates": [10.4974454, 52.286277]}, "properties": {"id": "osm:way:76369973", "type": "kindergarten", "name": "Villa Kunterbunt", "source": "OpenStreetMap/Overpass"}}, {"type": "Feature", "geometry": {"type": "Point", "coordinates": [10.4666535, 52.2109195]}, "properties": {"id": "osm:way:77348503", "type": "childcare", "name": "Kindertagesstätte", "source": "OpenStreetMap/Overpass"}}, {"type": "Feature", "geometry": {"type": "Point", "coordinates": [10.5174212, 52.2169423]}, "properties": {"id": "osm:way:77643540", "type": "school", "name": "Gymnasium Raabeschule Abt. Stöckheim", "source": "OpenStreetMap/Overpass"}}, {"type": "Feature", "geometry": {"type": "Point", "coordinates": [10.4932638, 52.2486133]}, "properties": {"id": "osm:way:78321404", "type": "kindergarten", "name": "Waldorfkindergarten", "source": "OpenStreetMap/Overpass"}}, {"type": "Feature", "geometry": {"type": "Point", "coordinates": [10.4914261, 52.2690569]}, "properties": {"id": "osm:way:78828690", "type": "school", "name": "Grundschule Schölkestraße", "source": "OpenStreetMap/Overpass"}}, {"type": "Feature", "geometry": {"type": "Point", "coordinates": [10.5069799, 52.3275936]}, "properties": {"id": "osm:way:82173469", "type": "school", "name": "Lessinggymnasium Braunschweig-Wenden", "source": "OpenStreetMap/Overpass"}}, {"type": "Feature", "geometry": {"type": "Point", "coordinates": [10.5089842, 52.3279808]}, "properties": {"id": "osm:way:82173474", "type": "school", "name": "Grundschule Wenden", "source": "OpenStreetMap/Overpass"}}, {"type": "Feature", "geometry": {"type": "Point", "coordinates": [10.4443907, 52.2658131]}, "properties": {"id": "osm:way:85692646", "type": "kindergarten", "name": "Ev. Kinder- und Familienzentrum St. Marien", "source": "OpenStreetMap/Overpass"}}, {"type": "Feature", "geometry": {"type": "Point", "coordinates": [10.4447956, 52.2655247]}, "properties": {"id": "osm:way:85692647", "type": "school", "name": "Grundschule Lamme", "source": "OpenStreetMap/Overpass"}}, {"type": "Feature", "geometry": {"type": "Point", "coordinates": [10.4417994, 52.2714691]}, "properties": {"id": "osm:way:85692660", "type": "kindergarten", "name": "Kita Frankenstraße", "source": "OpenStreetMap/Overpass"}}, {"type": "Feature", "geometry": {"type": "Point", "coordinates": [10.4145989, 52.270151]}, "properties": {"id": "osm:way:96063585", "type": "school", "name": "Grundschule Löwenherz", "source": "OpenStreetMap/Overpass"}}, {"type": "Feature", "geometry": {"type": "Point", "coordinates": [10.5651086, 52.2831799]}, "properties": {"id": "osm:way:100081360", "type": "kindergarten", "name": "Kita Karamba", "source": "OpenStreetMap/Overpass"}}, {"type": "Feature", "geometry": {"type": "Point", "coordinates": [10.4985496, 52.2352677]}, "properties": {"id": "osm:way:100174924", "type": "kindergarten", "name": "Städtische Kindertagesstätte Gartenstadt", "source": "OpenStreetMap/Overpass"}}, {"type": "Feature", "geometry": {"type": "Point", "coordinates": [10.5737426, 52.3089052]}, "properties": {"id": "osm:way:102519658", "type": "school", "name": "Lotte-Lemke-Schule", "source": "OpenStreetMap/Overpass"}}, {"type": "Feature", "geometry": {"type": "Point", "coordinates": [10.5712307, 52.2688591]}, "properties": {"id": "osm:way:105749832", "type": "kindergarten", "name": "KiTa Riddagshausen", "source": "OpenStreetMap/Overpass"}}, {"type": "Feature", "geometry": {"type": "Point", "coordinates": [10.5687475, 52.2733372]}, "properties": {"id": "osm:way:106084408", "type": "kindergarten", "name": "Chancengarten", "source": "OpenStreetMap/Overpass"}}, {"type": "Feature", "geometry": {"type": "Point", "coordinates": [10.5599924, 52.2948543]}, "properties": {"id": "osm:way:106760296", "type": "childcare", "name": "Till Eulenspiegel e.V. Standort Bevenroder Straße", "source": "OpenStreetMap/Overpass"}}, {"type": "Feature", "geometry": {"type": "Point", "coordinates": [10.5596655, 52.2922114]}, "properties": {"id": "osm:way:106760379", "type": "school", "name": "Grundschule Querum", "source": "OpenStreetMap/Overpass"}}, {"type": "Feature", "geometry": {"type": "Point", "coordinates": [10.5623965, 52.2942302]}, "properties": {"id": "osm:way:106987048", "type": "kindergarten", "name": "Kindertagesstätte St. Marien", "source": "OpenStreetMap/Overpass"}}, {"type": "Feature", "geometry": {"type": "Point", "coordinates": [10.4948691, 52.2710431]}, "properties": {"id": "osm:way:108217740", "type": "kindergarten", "name": "Städtische Kindertagesstätte Schölkestraße", "source": "OpenStreetMap/Overpass"}}, {"type": "Feature", "geometry": {"type": "Point", "coordinates": [10.546396, 52.2656003]}, "properties": {"id": "osm:way:111554201", "type": "school", "name": "Grundschule Comeniusstraße", "source": "OpenStreetMap/Overpass"}}, {"type": "Feature", "geometry": {"type": "Point", "coordinates": [10.5304341, 52.2432982]}, "properties": {"id": "osm:way:114233735", "type": "school", "name": "Landesbildungszentrum für Hörgeschädigte Braunschweig", "source": "OpenStreetMap/Overpass"}}, {"type": "Feature", "geometry": {"type": "Point", "coordinates": [10.5309474, 52.2432024]}, "properties": {"id": "osm:way:114233742", "type": "school", "name": "Landesbildungszentrum für Hörgeschädigte Braunschweig", "source": "OpenStreetMap/Overpass"}}, {"type": "Feature", "geometry": {"type": "Point", "coordinates": [10.5357838, 52.3067707]}, "properties": {"id": "osm:way:116557912", "type": "kindergarten", "name": "Kindergarten Dankeskirche", "source": "OpenStreetMap/Overpass"}}, {"type": "Feature", "geometry": {"type": "Point", "coordinates": [10.560608, 52.351804]}, "properties": {"id": "osm:way:117881523", "type": "kindergarten", "name": "Kindergarten Abbesbuettel", "source": "OpenStreetMap/Overpass"}}, {"type": "Feature", "geometry": {"type": "Point", "coordinates": [10.5317563, 52.3196878]}, "properties": {"id": "osm:way:119038934", "type": "kindergarten", "name": "Ev. luth. Kindergarten Liliput, Bienrode", "source": "OpenStreetMap/Overpass"}}, {"type": "Feature", "geometry": {"type": "Point", "coordinates": [10.5569578, 52.3276171]}, "properties": {"id": "osm:way:119547038", "type": "kindergarten", "name": "Waggum Zachäus", "source": "OpenStreetMap/Overpass"}}, {"type": "Feature", "geometry": {"type": "Point", "coordinates": [10.5860991, 52.1967196]}, "properties": {"id": "osm:way:121087791", "type": "kindergarten", "name": "Kindertagesstätte Salzdahlum \"Regenbogen\"", "source": "OpenStreetMap/Overpass"}}, {"type": "Feature", "geometry": {"type": "Point", "coordinates": [10.4816959, 52.1911209]}, "properties": {"id": "osm:way:121274403", "type": "school", "name": "Hauptschule Salzgitter-Thiede", "source": "OpenStreetMap/Overpass"}}, {"type": "Feature", "geometry": {"type": "Point", "coordinates": [10.538029, 52.228597]}, "properties": {"id": "osm:way:122679859", "type": "school", "name": "Schulzentrum Heidberg", "source": "OpenStreetMap/Overpass"}}, {"type": "Feature", "geometry": {"type": "Point", "coordinates": [10.5499707, 52.2682055]}, "properties": {"id": "osm:way:126603941", "type": "kindergarten", "name": "AG Kinderstall e.V.", "source": "OpenStreetMap/Overpass"}}, {"type": "Feature", "geometry": {"type": "Point", "coordinates": [10.5643403, 52.2449678]}, "properties": {"id": "osm:way:126978206", "type": "kindergarten", "name": "Kindertagesstätte Lindenbergsiedlung", "source": "OpenStreetMap/Overpass"}}, {"type": "Feature", "geometry": {"type": "Point", "coordinates": [10.5308054, 52.2626021]}, "properties": {"id": "osm:way:127909413", "type": "kindergarten", "name": "Ev. Kindertagesstätte St. Magni", "source": "OpenStreetMap/Overpass"}}, {"type": "Feature", "geometry": {"type": "Point", "coordinates": [10.5285302, 52.2603493]}, "properties": {"id": "osm:way:128252271", "type": "school", "name": "Grundschule Klint", "source": "OpenStreetMap/Overpass"}}, {"type": "Feature", "geometry": {"type": "Point", "coordinates": [10.5226939, 52.2594573]}, "properties": {"id": "osm:way:129113795", "type": "school", "name": "", "source": "OpenStreetMap/Overpass"}}, {"type": "Feature", "geometry": {"type": "Point", "coordinates": [10.4712138, 52.2511147]}, "properties": {"id": "osm:way:135843313", "type": "kindergarten", "name": "Evangelische Kindertagesstätte", "source": "OpenStreetMap/Overpass"}}, {"type": "Feature", "geometry": {"type": "Point", "coordinates": [10.538406, 52.2639848]}, "properties": {"id": "osm:way:136492128", "type": "kindergarten", "name": "Waldorfkindergarten", "source": "OpenStreetMap/Overpass"}}, {"type": "Feature", "geometry": {"type": "Point", "coordinates": [10.5225983, 52.2632923]}, "properties": {"id": "osm:way:138265366", "type": "school", "name": "Gymnasium Kleine Burg", "source": "OpenStreetMap/Overpass"}}, {"type": "Feature", "geometry": {"type": "Point", "coordinates": [10.4125059, 52.1901212]}, "properties": {"id": "osm:way:139666235", "type": "kindergarten", "name": "Kindergarten »Auepiraten e. V.«", "source": "OpenStreetMap/Overpass"}}, {"type": "Feature", "geometry": {"type": "Point", "coordinates": [10.4862884, 52.2504842]}, "properties": {"id": "osm:way:140486477", "type": "kindergarten", "name": "Städtische Kindertagesstätte Recknitzstraße", "source": "OpenStreetMap/Overpass"}}, {"type": "Feature", "geometry": {"type": "Point", "coordinates": [10.5024725, 52.2228091]}, "properties": {"id": "osm:way:140549276", "type": "school", "name": "Grund- und Hauptschule Rüningen", "source": "OpenStreetMap/Overpass"}}, {"type": "Feature", "geometry": {"type": "Point", "coordinates": [10.5304224, 52.2610875]}, "properties": {"id": "osm:way:141936825", "type": "school", "name": "Gaußschule Gymnasium am Löwenwall", "source": "OpenStreetMap/Overpass"}}, {"type": "Feature", "geometry": {"type": "Point", "coordinates": [10.4865646, 52.1894806]}, "properties": {"id": "osm:way:142339630", "type": "kindergarten", "name": "AWO - Kita Zwergenkuhle", "source": "OpenStreetMap/Overpass"}}, {"type": "Feature", "geometry": {"type": "Point", "coordinates": [10.4671937, 52.190581]}, "properties": {"id": "osm:way:145634408", "type": "childcare", "name": "Ev.-luth. Kita Steterburg", "source": "OpenStreetMap/Overpass"}}, {"type": "Feature", "geometry": {"type": "Point", "coordinates": [10.4910166, 52.2347521]}, "properties": {"id": "osm:way:146668352", "type": "kindergarten", "name": "Kindertagesstätte Farbklecks", "source": "OpenStreetMap/Overpass"}}, {"type": "Feature", "geometry": {"type": "Point", "coordinates": [10.5411577, 52.2625178]}, "properties": {"id": "osm:way:149716388", "type": "school", "name": "Technikerschule", "source": "OpenStreetMap/Overpass"}}, {"type": "Feature", "geometry": {"type": "Point", "coordinates": [10.4777, 52.2342213]}, "properties": {"id": "osm:way:154244719", "type": "school", "name": "Grundschule Broitzem, Abt. Große Grubestraße", "source": "OpenStreetMap/Overpass"}}, {"type": "Feature", "geometry": {"type": "Point", "coordinates": [10.4778227, 52.2341596]}, "properties": {"id": "osm:way:154244767", "type": "school", "name": "Grundschule Broitzem, Abt. Große Grubestraße", "source": "OpenStreetMap/Overpass"}}, {"type": "Feature", "geometry": {"type": "Point", "coordinates": [10.4773982, 52.2342698]}, "properties": {"id": "osm:way:154244794", "type": "school", "name": "Grundschule Broitzem, Abt. Große Grubestraße", "source": "OpenStreetMap/Overpass"}}, {"type": "Feature", "geometry": {"type": "Point", "coordinates": [10.6261384, 52.2754839]}, "properties": {"id": "osm:way:155228781", "type": "school", "name": "Erich-Kästner-Schule", "source": "OpenStreetMap/Overpass"}}, {"type": "Feature", "geometry": {"type": "Point", "coordinates": [10.5377875, 52.2291176]}, "properties": {"id": "osm:way:156812382", "type": "school", "name": "IGS Heidberg", "source": "OpenStreetMap/Overpass"}}, {"type": "Feature", "geometry": {"type": "Point", "coordinates": [10.5377756, 52.2274082]}, "properties": {"id": "osm:way:156812418", "type": "school", "name": "Gymnasium Raabeschule", "source": "OpenStreetMap/Overpass"}}, {"type": "Feature", "geometry": {"type": "Point", "coordinates": [10.542421, 52.2421159]}, "properties": {"id": "osm:way:157214200", "type": "kindergarten", "name": "", "source": "OpenStreetMap/Overpass"}}, {"type": "Feature", "geometry": {"type": "Point", "coordinates": [10.5630068, 52.2422263]}, "properties": {"id": "osm:way:157370398", "type": "school", "name": "", "source": "OpenStreetMap/Overpass"}}, {"type": "Feature", "geometry": {"type": "Point", "coordinates": [10.4974762, 52.259605]}, "properties": {"id": "osm:way:161643817", "type": "kindergarten", "name": "Caritas-Kindertagesstätte St. Kjeld", "source": "OpenStreetMap/Overpass"}}, {"type": "Feature", "geometry": {"type": "Point", "coordinates": [10.5113034, 52.2548796]}, "properties": {"id": "osm:way:162156523", "type": "kindergarten", "name": "Kindertagesstätte Frankfurter Straße", "source": "OpenStreetMap/Overpass"}}, {"type": "Feature", "geometry": {"type": "Point", "coordinates": [10.5069142, 52.2514593]}, "properties": {"id": "osm:way:162323176", "type": "kindergarten", "name": "Städtische Kindertagesstätte Christian-Friedrich-Krull-Straße", "source": "OpenStreetMap/Overpass"}}, {"type": "Feature", "geometry": {"type": "Point", "coordinates": [10.4756999, 52.2337829]}, "properties": {"id": "osm:way:164911241", "type": "kindergarten", "name": "Kindertagesstätte Broitzem", "source": "OpenStreetMap/Overpass"}}, {"type": "Feature", "geometry": {"type": "Point", "coordinates": [10.5615513, 52.2942664]}, "properties": {"id": "osm:way:165709127", "type": "kindergarten", "name": "", "source": "OpenStreetMap/Overpass"}}, {"type": "Feature", "geometry": {"type": "Point", "coordinates": [10.6343741, 52.2179429]}, "properties": {"id": "osm:way:177843171", "type": "kindergarten", "name": "Ev. Kindergarten St. Petri", "source": "OpenStreetMap/Overpass"}}, {"type": "Feature", "geometry": {"type": "Point", "coordinates": [10.5908736, 52.287813]}, "properties": {"id": "osm:way:205452274", "type": "school", "name": "Remenhof - Schule", "source": "OpenStreetMap/Overpass"}}, {"type": "Feature", "geometry": {"type": "Point", "coordinates": [10.5943114, 52.2897847]}, "properties": {"id": "osm:way:205452276", "type": "kindergarten", "name": "AWO Kita Volkmarode", "source": "OpenStreetMap/Overpass"}}, {"type": "Feature", "geometry": {"type": "Point", "coordinates": [10.5854251, 52.1984454]}, "properties": {"id": "osm:way:206678036", "type": "school", "name": "Grundschule Salzdahlum", "source": "OpenStreetMap/Overpass"}}, {"type": "Feature", "geometry": {"type": "Point", "coordinates": [10.5851696, 52.1965746]}, "properties": {"id": "osm:way:206678038", "type": "kindergarten", "name": "Kindertagesstätte Salzdahlum \"Regenbogen\"", "source": "OpenStreetMap/Overpass"}}, {"type": "Feature", "geometry": {"type": "Point", "coordinates": [10.5268772, 52.2423096]}, "properties": {"id": "osm:way:217940824", "type": "school", "name": "Braunschweig-Kolleg", "source": "OpenStreetMap/Overpass"}}, {"type": "Feature", "geometry": {"type": "Point", "coordinates": [10.5445354, 52.2666558]}, "properties": {"id": "osm:way:219062430", "type": "kindergarten", "name": "Kindergruppe Kobold", "source": "OpenStreetMap/Overpass"}}, {"type": "Feature", "geometry": {"type": "Point", "coordinates": [10.4383539, 52.3571851]}, "properties": {"id": "osm:way:219220809", "type": "school", "name": "Oberschule Papenteich", "source": "OpenStreetMap/Overpass"}}, {"type": "Feature", "geometry": {"type": "Point", "coordinates": [10.4849962, 52.2691248]}, "properties": {"id": "osm:way:232650109", "type": "kindergarten", "name": "Kindergarten der Kreuzkirche", "source": "OpenStreetMap/Overpass"}}, {"type": "Feature", "geometry": {"type": "Point", "coordinates": [10.5102616, 52.3282131]}, "properties": {"id": "osm:way:235596916", "type": "kindergarten", "name": "KiTa Schunterzwerge", "source": "OpenStreetMap/Overpass"}}, {"type": "Feature", "geometry": {"type": "Point", "coordinates": [10.4502233, 52.266843]}, "properties": {"id": "osm:way:237632788", "type": "kindergarten", "name": "DRK Kindertagesstätte \"Wilde Wiese\"", "source": "OpenStreetMap/Overpass"}}, {"type": "Feature", "geometry": {"type": "Point", "coordinates": [10.4977536, 52.2670231]}, "properties": {"id": "osm:way:244134849", "type": "kindergarten", "name": "Kinder- und Familienzentrum Spatz 21", "source": "OpenStreetMap/Overpass"}}, {"type": "Feature", "geometry": {"type": "Point", "coordinates": [10.5608013, 52.2808683]}, "properties": {"id": "osm:way:245274209", "type": "kindergarten", "name": "KITA Querumer Straße", "source": "OpenStreetMap/Overpass"}}, {"type": "Feature", "geometry": {"type": "Point", "coordinates": [10.5463724, 52.2787552]}, "properties": {"id": "osm:way:254352976", "type": "school", "name": "Neue Oberschule", "source": "OpenStreetMap/Overpass"}}, {"type": "Feature", "geometry": {"type": "Point", "coordinates": [10.5483128, 52.2794234]}, "properties": {"id": "osm:way:254355080", "type": "school", "name": "Ricarda-Huch-Schule", "source": "OpenStreetMap/Overpass"}}, {"type": "Feature", "geometry": {"type": "Point", "coordinates": [10.4892233, 52.2764507]}, "properties": {"id": "osm:way:263267259", "type": "kindergarten", "name": "", "source": "OpenStreetMap/Overpass"}}, {"type": "Feature", "geometry": {"type": "Point", "coordinates": [10.4892987, 52.2763498]}, "properties": {"id": "osm:way:263267390", "type": "kindergarten", "name": "AWO Kinder- und Familienzentrum Fremersdorfer Straße", "source": "OpenStreetMap/Overpass"}}, {"type": "Feature", "geometry": {"type": "Point", "coordinates": [10.5368435, 52.2646162]}, "properties": {"id": "osm:way:273429780", "type": "school", "name": "Pflegeschule Braunschweig", "source": "OpenStreetMap/Overpass"}}, {"type": "Feature", "geometry": {"type": "Point", "coordinates": [10.5433684, 52.2580954]}, "properties": {"id": "osm:way:273637557", "type": "kindergarten", "name": "Kindergarten St. Johannis", "source": "OpenStreetMap/Overpass"}}, {"type": "Feature", "geometry": {"type": "Point", "coordinates": [10.5158406, 52.3100092]}, "properties": {"id": "osm:way:289148595", "type": "kindergarten", "name": "", "source": "OpenStreetMap/Overpass"}}, {"type": "Feature", "geometry": {"type": "Point", "coordinates": [10.5171137, 52.3050014]}, "properties": {"id": "osm:way:289493820", "type": "kindergarten", "name": "Kindertagesstätte Rühme", "source": "OpenStreetMap/Overpass"}}, {"type": "Feature", "geometry": {"type": "Point", "coordinates": [10.4949445, 52.3070758]}, "properties": {"id": "osm:way:289693570", "type": "school", "name": "Grundschule Veltenhof", "source": "OpenStreetMap/Overpass"}}, {"type": "Feature", "geometry": {"type": "Point", "coordinates": [10.5421326, 52.2965643]}, "properties": {"id": "osm:way:293818356", "type": "kindergarten", "name": "", "source": "OpenStreetMap/Overpass"}}, {"type": "Feature", "geometry": {"type": "Point", "coordinates": [10.6329331, 52.31574]}, "properties": {"id": "osm:way:303413151", "type": "kindergarten", "name": "Kita Mühlennest", "source": "OpenStreetMap/Overpass"}}, {"type": "Feature", "geometry": {"type": "Point", "coordinates": [10.5424584, 52.2582207]}, "properties": {"id": "osm:way:303901602", "type": "school", "name": "CJD Braunschweig Grundschule", "source": "OpenStreetMap/Overpass"}}, {"type": "Feature", "geometry": {"type": "Point", "coordinates": [10.5306963, 52.2640696]}, "properties": {"id": "osm:way:306086419", "type": "school", "name": "Grundschule Edith-Stein-Schule", "source": "OpenStreetMap/Overpass"}}, {"type": "Feature", "geometry": {"type": "Point", "coordinates": [10.5145212, 52.2595525]}, "properties": {"id": "osm:way:306211242", "type": "school", "name": "Gymnasium Martino-Katharineum Abt. Echternstraße (Kleines MK)", "source": "OpenStreetMap/Overpass"}}, {"type": "Feature", "geometry": {"type": "Point", "coordinates": [10.52327, 52.2596199]}, "properties": {"id": "osm:way:306968090", "type": "school", "name": "Gymnasium Kleine Burg (ehem. Lessinggymnasium)", "source": "OpenStreetMap/Overpass"}}, {"type": "Feature", "geometry": {"type": "Point", "coordinates": [10.4670565, 52.1908319]}, "properties": {"id": "osm:way:308175157", "type": "school", "name": "Grundschule Steterburg", "source": "OpenStreetMap/Overpass"}}, {"type": "Feature", "geometry": {"type": "Point", "coordinates": [10.5527265, 52.2731767]}, "properties": {"id": "osm:way:308845048", "type": "school", "name": "Kindertagesstätte Grünewaldstraße", "source": "OpenStreetMap/Overpass"}}, {"type": "Feature", "geometry": {"type": "Point", "coordinates": [10.4422504, 52.3033309]}, "properties": {"id": "osm:way:311867300", "type": "school", "name": "Grundschule Völkenrode", "source": "OpenStreetMap/Overpass"}}, {"type": "Feature", "geometry": {"type": "Point", "coordinates": [10.4636783, 52.1877123]}, "properties": {"id": "osm:way:332896202", "type": "childcare", "name": "Familienzemtrum St. Bernward", "source": "OpenStreetMap/Overpass"}}, {"type": "Feature", "geometry": {"type": "Point", "coordinates": [10.5318147, 52.31955]}, "properties": {"id": "osm:way:335560753", "type": "kindergarten", "name": "Kindergarten Bienrode", "source": "OpenStreetMap/Overpass"}}, {"type": "Feature", "geometry": {"type": "Point", "coordinates": [10.4700664, 52.2511294]}, "properties": {"id": "osm:way:346406615", "type": "kindergarten", "name": "Paritätische Kindertagesstätte Mein Weg", "source": "OpenStreetMap/Overpass"}}, {"type": "Feature", "geometry": {"type": "Point", "coordinates": [10.4766641, 52.2531645]}, "properties": {"id": "osm:way:390845351", "type": "school", "name": "Wilhelm-Bracke-Gesamtschule", "source": "OpenStreetMap/Overpass"}}, {"type": "Feature", "geometry": {"type": "Point", "coordinates": [10.4906177, 52.2431522]}, "properties": {"id": "osm:way:402989964", "type": "school", "name": "Realschule Lebenlernen / Kämmer International", "source": "OpenStreetMap/Overpass"}}, {"type": "Feature", "geometry": {"type": "Point", "coordinates": [10.5423611, 52.243069]}, "properties": {"id": "osm:way:416538291", "type": "school", "name": "Hans-Würtz-Schule FöS KME", "source": "OpenStreetMap/Overpass"}}, {"type": "Feature", "geometry": {"type": "Point", "coordinates": [10.5432243, 52.2437118]}, "properties": {"id": "osm:way:416538292", "type": "school", "name": "Grundschule Bebelhof", "source": "OpenStreetMap/Overpass"}}, {"type": "Feature", "geometry": {"type": "Point", "coordinates": [10.4759679, 52.2522834]}, "properties": {"id": "osm:way:418288529", "type": "school", "name": "Grundschule Rheinring", "source": "OpenStreetMap/Overpass"}}, {"type": "Feature", "geometry": {"type": "Point", "coordinates": [10.6344044, 52.2178978]}, "properties": {"id": "osm:way:439916077", "type": "kindergarten", "name": "", "source": "OpenStreetMap/Overpass"}}, {"type": "Feature", "geometry": {"type": "Point", "coordinates": [10.5269876, 52.2272939]}, "properties": {"id": "osm:way:471915791", "type": "school", "name": "Grundschule Melverode", "source": "OpenStreetMap/Overpass"}}, {"type": "Feature", "geometry": {"type": "Point", "coordinates": [10.5908172, 52.284672]}, "properties": {"id": "osm:way:474048402", "type": "school", "name": "Grundschule Volkmarode", "source": "OpenStreetMap/Overpass"}}, {"type": "Feature", "geometry": {"type": "Point", "coordinates": [10.5991971, 52.2862499]}, "properties": {"id": "osm:way:474049675", "type": "school", "name": "Schulzentrum Volkmarode (Sally-Perel-Gesamtschule)", "source": "OpenStreetMap/Overpass"}}, {"type": "Feature", "geometry": {"type": "Point", "coordinates": [10.51785, 52.2168195]}, "properties": {"id": "osm:way:474050679", "type": "school", "name": "Schulzentrum Stöckheim", "source": "OpenStreetMap/Overpass"}}, {"type": "Feature", "geometry": {"type": "Point", "coordinates": [10.5413291, 52.2308367]}, "properties": {"id": "osm:way:483611289", "type": "school", "name": "Grundschule Heidberg", "source": "OpenStreetMap/Overpass"}}, {"type": "Feature", "geometry": {"type": "Point", "coordinates": [10.5428422, 52.2313233]}, "properties": {"id": "osm:way:483611290", "type": "kindergarten", "name": "Heidberger Kindergarten e.V.", "source": "OpenStreetMap/Overpass"}}, {"type": "Feature", "geometry": {"type": "Point", "coordinates": [10.5343192, 52.2284078]}, "properties": {"id": "osm:way:483611291", "type": "kindergarten", "name": "Caritas Kindertagesstätte St. Bernward", "source": "OpenStreetMap/Overpass"}}, {"type": "Feature", "geometry": {"type": "Point", "coordinates": [10.5242568, 52.2291644]}, "properties": {"id": "osm:way:483611292", "type": "kindergarten", "name": "Ev. Kindertagesstätte Dietrich-Bonhoeffer", "source": "OpenStreetMap/Overpass"}}, {"type": "Feature", "geometry": {"type": "Point", "coordinates": [10.6065619, 52.3035628]}, "properties": {"id": "osm:way:483619832", "type": "kindergarten", "name": "Städtische Kindertagesstätte Hondelage - Außengruppe Dibbesdorf", "source": "OpenStreetMap/Overpass"}}, {"type": "Feature", "geometry": {"type": "Point", "coordinates": [10.5987955, 52.29142]}, "properties": {"id": "osm:way:483619833", "type": "kindergarten", "name": "Ev. Kindertagesstätte St. Thomas, Volkmarode", "source": "OpenStreetMap/Overpass"}}, {"type": "Feature", "geometry": {"type": "Point", "coordinates": [10.6066688, 52.2787213]}, "properties": {"id": "osm:way:483619834", "type": "kindergarten", "name": "Ev. Kindertagesstätte Schapen", "source": "OpenStreetMap/Overpass"}}, {"type": "Feature", "geometry": {"type": "Point", "coordinates": [10.600845, 52.3154636]}, "properties": {"id": "osm:way:483620199", "type": "kindergarten", "name": "Städtische Kindertagesstätte Hondelage", "source": "OpenStreetMap/Overpass"}}, {"type": "Feature", "geometry": {"type": "Point", "coordinates": [10.5045659, 52.203499]}, "properties": {"id": "osm:way:483622325", "type": "kindergarten", "name": "Städtische Kindertagesstätte Leiferde", "source": "OpenStreetMap/Overpass"}}, {"type": "Feature", "geometry": {"type": "Point", "coordinates": [10.5054818, 52.2034737]}, "properties": {"id": "osm:way:483622326", "type": "school", "name": "Grundschule Stöckheim Abt. Leiferde", "source": "OpenStreetMap/Overpass"}}, {"type": "Feature", "geometry": {"type": "Point", "coordinates": [10.5239138, 52.214382]}, "properties": {"id": "osm:way:483624308", "type": "kindergarten", "name": "Ev. Kindertagesstätte Stöckheim", "source": "OpenStreetMap/Overpass"}}, {"type": "Feature", "geometry": {"type": "Point", "coordinates": [10.5172268, 52.211452]}, "properties": {"id": "osm:way:483624309", "type": "kindergarten", "name": "AWO Kita Stöckheim", "source": "OpenStreetMap/Overpass"}}, {"type": "Feature", "geometry": {"type": "Point", "coordinates": [10.5184443, 52.2116101]}, "properties": {"id": "osm:way:483624310", "type": "school", "name": "Grundschule Stöckheim", "source": "OpenStreetMap/Overpass"}}, {"type": "Feature", "geometry": {"type": "Point", "coordinates": [10.560114, 52.2311158]}, "properties": {"id": "osm:way:483680264", "type": "kindergarten", "name": "Städtische Kindertagesstätte Südstadt", "source": "OpenStreetMap/Overpass"}}, {"type": "Feature", "geometry": {"type": "Point", "coordinates": [10.5597106, 52.2308842]}, "properties": {"id": "osm:way:483680265", "type": "school", "name": "Grundschule Mascheroder Holz", "source": "OpenStreetMap/Overpass"}}, {"type": "Feature", "geometry": {"type": "Point", "coordinates": [10.5666667, 52.2447843]}, "properties": {"id": "osm:way:484342773", "type": "kindergarten", "name": "AWO Kindertagesstätte Roseliesstrasse", "source": "OpenStreetMap/Overpass"}}, {"type": "Feature", "geometry": {"type": "Point", "coordinates": [10.5310985, 52.2314738]}, "properties": {"id": "osm:way:485094603", "type": "kindergarten", "name": "Stephanus Kindergarten", "source": "OpenStreetMap/Overpass"}}, {"type": "Feature", "geometry": {"type": "Point", "coordinates": [10.5425317, 52.2421009]}, "properties": {"id": "osm:way:485792680", "type": "kindergarten", "name": "AWO-Kinder- und Familienzentrum Schefflerstraße", "source": "OpenStreetMap/Overpass"}}, {"type": "Feature", "geometry": {"type": "Point", "coordinates": [10.4992852, 52.23366]}, "properties": {"id": "osm:way:485815529", "type": "school", "name": "Grundschule Gartenstadt", "source": "OpenStreetMap/Overpass"}}, {"type": "Feature", "geometry": {"type": "Point", "coordinates": [10.4787222, 52.2439508]}, "properties": {"id": "osm:way:485816438", "type": "school", "name": "Grundschule Ilmenaustraße", "source": "OpenStreetMap/Overpass"}}, {"type": "Feature", "geometry": {"type": "Point", "coordinates": [10.4844519, 52.2427365]}, "properties": {"id": "osm:way:485818805", "type": "school", "name": "Grundschule Altmühlstraße - Stadtteilschule und Offene Ganztagsschule", "source": "OpenStreetMap/Overpass"}}, {"type": "Feature", "geometry": {"type": "Point", "coordinates": [10.4843895, 52.2331494]}, "properties": {"id": "osm:way:485818997", "type": "school", "name": "Grundschule Broitzem", "source": "OpenStreetMap/Overpass"}}, {"type": "Feature", "geometry": {"type": "Point", "coordinates": [10.5813979, 52.2426528]}, "properties": {"id": "osm:way:485824424", "type": "school", "name": "Grundschule Rautheim", "source": "OpenStreetMap/Overpass"}}, {"type": "Feature", "geometry": {"type": "Point", "coordinates": [10.6364364, 52.21542]}, "properties": {"id": "osm:way:518370046", "type": "school", "name": "", "source": "OpenStreetMap/Overpass"}}, {"type": "Feature", "geometry": {"type": "Point", "coordinates": [10.4384216, 52.334974]}, "properties": {"id": "osm:way:531543022", "type": "kindergarten", "name": "Kita Rothemühle", "source": "OpenStreetMap/Overpass"}}, {"type": "Feature", "geometry": {"type": "Point", "coordinates": [10.5191429, 52.2757007]}, "properties": {"id": "osm:way:623180356", "type": "kindergarten", "name": "Lebenshilfe Kindergarten + Therapiezentrum", "source": "OpenStreetMap/Overpass"}}, {"type": "Feature", "geometry": {"type": "Point", "coordinates": [10.5201365, 52.2760316]}, "properties": {"id": "osm:way:623180357", "type": "kindergarten", "name": "St.-Andreas-Kindergarten", "source": "OpenStreetMap/Overpass"}}, {"type": "Feature", "geometry": {"type": "Point", "coordinates": [10.4629146, 52.3470114]}, "properties": {"id": "osm:way:626514953", "type": "kindergarten", "name": "Kita Lagesbüttel", "source": "OpenStreetMap/Overpass"}}, {"type": "Feature", "geometry": {"type": "Point", "coordinates": [10.5133806, 52.3218076]}, "properties": {"id": "osm:way:639344835", "type": "kindergarten", "name": "Kindergarten Sternschnuppe", "source": "OpenStreetMap/Overpass"}}, {"type": "Feature", "geometry": {"type": "Point", "coordinates": [10.5593977, 52.2914351]}, "properties": {"id": "osm:way:679312300", "type": "school", "name": "", "source": "OpenStreetMap/Overpass"}}, {"type": "Feature", "geometry": {"type": "Point", "coordinates": [10.6272057, 52.276589]}, "properties": {"id": "osm:way:679545229", "type": "school", "name": "Schulgelände", "source": "OpenStreetMap/Overpass"}}, {"type": "Feature", "geometry": {"type": "Point", "coordinates": [10.4124933, 52.2550417]}, "properties": {"id": "osm:way:683495419", "type": "kindergarten", "name": "Kindergarten Aussenstelle Denstorf", "source": "OpenStreetMap/Overpass"}}, {"type": "Feature", "geometry": {"type": "Point", "coordinates": [10.4501577, 52.2674335]}, "properties": {"id": "osm:way:711302801", "type": "kindergarten", "name": "AWO-Kindertagesstätte Lammer Busch", "source": "OpenStreetMap/Overpass"}}, {"type": "Feature", "geometry": {"type": "Point", "coordinates": [10.5403885, 52.2598753]}, "properties": {"id": "osm:way:718501556", "type": "school", "name": "Martha-Fuchs-Schule, Berufsbildende Schulen der Stadt Braunschweig - Standort Leonhardstraße", "source": "OpenStreetMap/Overpass"}}, {"type": "Feature", "geometry": {"type": "Point", "coordinates": [10.4504484, 52.3331831]}, "properties": {"id": "osm:way:753209965", "type": "kindergarten", "name": "Kindertagesstätte Pusteblume Walle", "source": "OpenStreetMap/Overpass"}}, {"type": "Feature", "geometry": {"type": "Point", "coordinates": [10.494302, 52.2407386]}, "properties": {"id": "osm:way:808879385", "type": "school", "name": "Oskar Kämmer Schule", "source": "OpenStreetMap/Overpass"}}, {"type": "Feature", "geometry": {"type": "Point", "coordinates": [10.467722, 52.3068914]}, "properties": {"id": "osm:way:815248360", "type": "kindergarten", "name": "Kindergarten Watenbüttel", "source": "OpenStreetMap/Overpass"}}, {"type": "Feature", "geometry": {"type": "Point", "coordinates": [10.4675396, 52.3066434]}, "properties": {"id": "osm:way:815248361", "type": "school", "name": "Grundschule Watenbüttel", "source": "OpenStreetMap/Overpass"}}, {"type": "Feature", "geometry": {"type": "Point", "coordinates": [10.5221046, 52.2085081]}, "properties": {"id": "osm:way:823362383", "type": "kindergarten", "name": "Kindertagesstätte Sterntaler", "source": "OpenStreetMap/Overpass"}}, {"type": "Feature", "geometry": {"type": "Point", "coordinates": [10.5062708, 52.2679423]}, "properties": {"id": "osm:way:842600341", "type": "kindergarten", "name": "Kita Höfenstraße", "source": "OpenStreetMap/Overpass"}}, {"type": "Feature", "geometry": {"type": "Point", "coordinates": [10.5500055, 52.2756043]}, "properties": {"id": "osm:way:849842814", "type": "school", "name": "Oswald-Berkhan-Schule Außenstelle Böcklinstraße", "source": "OpenStreetMap/Overpass"}}, {"type": "Feature", "geometry": {"type": "Point", "coordinates": [10.5500563, 52.3048129]}, "properties": {"id": "osm:way:871380298", "type": "school", "name": "Christliche Schule Braunschweig (Grundschule)", "source": "OpenStreetMap/Overpass"}}, {"type": "Feature", "geometry": {"type": "Point", "coordinates": [10.4759304, 52.2510006]}, "properties": {"id": "osm:way:874131980", "type": "kindergarten", "name": "", "source": "OpenStreetMap/Overpass"}}, {"type": "Feature", "geometry": {"type": "Point", "coordinates": [10.4794571, 52.2507861]}, "properties": {"id": "osm:way:1000327066", "type": "kindergarten", "name": "Städt. Kindertagesstätte Alsterplatz", "source": "OpenStreetMap/Overpass"}}, {"type": "Feature", "geometry": {"type": "Point", "coordinates": [10.4147345, 52.2702507]}, "properties": {"id": "osm:way:1029566812", "type": "school", "name": "", "source": "OpenStreetMap/Overpass"}}, {"type": "Feature", "geometry": {"type": "Point", "coordinates": [10.4136911, 52.2704514]}, "properties": {"id": "osm:way:1029566813", "type": "kindergarten", "name": "", "source": "OpenStreetMap/Overpass"}}, {"type": "Feature", "geometry": {"type": "Point", "coordinates": [10.5852007, 52.1965988]}, "properties": {"id": "osm:way:1044315626", "type": "kindergarten", "name": "", "source": "OpenStreetMap/Overpass"}}, {"type": "Feature", "geometry": {"type": "Point", "coordinates": [10.5851472, 52.1984161]}, "properties": {"id": "osm:way:1044315627", "type": "kindergarten", "name": "", "source": "OpenStreetMap/Overpass"}}, {"type": "Feature", "geometry": {"type": "Point", "coordinates": [10.4776431, 52.2342785]}, "properties": {"id": "osm:way:1059615338", "type": "school", "name": "Grundschule Broitzem", "source": "OpenStreetMap/Overpass"}}, {"type": "Feature", "geometry": {"type": "Point", "coordinates": [10.4909689, 52.234602]}, "properties": {"id": "osm:way:1059615339", "type": "kindergarten", "name": "Paritätische KiTa Farbklecks", "source": "OpenStreetMap/Overpass"}}, {"type": "Feature", "geometry": {"type": "Point", "coordinates": [10.5234604, 52.2046665]}, "properties": {"id": "osm:way:1086273852", "type": "kindergarten", "name": "Kita Schiefer Berg Stöckheim", "source": "OpenStreetMap/Overpass"}}, {"type": "Feature", "geometry": {"type": "Point", "coordinates": [10.4821658, 52.1912728]}, "properties": {"id": "osm:way:1105213232", "type": "school", "name": "", "source": "OpenStreetMap/Overpass"}}, {"type": "Feature", "geometry": {"type": "Point", "coordinates": [10.5342639, 52.2684562]}, "properties": {"id": "osm:way:1115749117", "type": "kindergarten", "name": "Kindertagesstätte Kasernenstraße", "source": "OpenStreetMap/Overpass"}}, {"type": "Feature", "geometry": {"type": "Point", "coordinates": [10.5683043, 52.2898158]}, "properties": {"id": "osm:way:1121653550", "type": "kindergarten", "name": "Kinderkrippe Klitzeklein e.V.", "source": "OpenStreetMap/Overpass"}}, {"type": "Feature", "geometry": {"type": "Point", "coordinates": [10.5624846, 52.2426093]}, "properties": {"id": "osm:way:1133848063", "type": "school", "name": "Grundschule Lindenberg", "source": "OpenStreetMap/Overpass"}}, {"type": "Feature", "geometry": {"type": "Point", "coordinates": [10.5456707, 52.3400186]}, "properties": {"id": "osm:way:1144215960", "type": "kindergarten", "name": "", "source": "OpenStreetMap/Overpass"}}, {"type": "Feature", "geometry": {"type": "Point", "coordinates": [10.5813977, 52.2395849]}, "properties": {"id": "osm:way:1149253898", "type": "kindergarten", "name": "Städtische Kindertagesstätte Rautheim", "source": "OpenStreetMap/Overpass"}}, {"type": "Feature", "geometry": {"type": "Point", "coordinates": [10.5634493, 52.2789936]}, "properties": {"id": "osm:way:1151331299", "type": "kindergarten", "name": "Städtische Kindertagesstätte Gliesmarode", "source": "OpenStreetMap/Overpass"}}, {"type": "Feature", "geometry": {"type": "Point", "coordinates": [10.5324761, 52.2619212]}, "properties": {"id": "osm:way:1151601006", "type": "kindergarten", "name": "Städtische Kindertagesstätte", "source": "OpenStreetMap/Overpass"}}, {"type": "Feature", "geometry": {"type": "Point", "coordinates": [10.5270181, 52.298001]}, "properties": {"id": "osm:way:1168905786", "type": "kindergarten", "name": "Volkswagen Löwenkinder", "source": "OpenStreetMap/Overpass"}}, {"type": "Feature", "geometry": {"type": "Point", "coordinates": [10.4800692, 52.2741798]}, "properties": {"id": "osm:way:1170950456", "type": "school", "name": "Grundschule Lehndorf", "source": "OpenStreetMap/Overpass"}}, {"type": "Feature", "geometry": {"type": "Point", "coordinates": [10.6332042, 52.2144568]}, "properties": {"id": "osm:way:1197022516", "type": "kindergarten", "name": "", "source": "OpenStreetMap/Overpass"}}, {"type": "Feature", "geometry": {"type": "Point", "coordinates": [10.5481427, 52.2631002]}, "properties": {"id": "osm:way:1207443877", "type": "kindergarten", "name": "", "source": "OpenStreetMap/Overpass"}}, {"type": "Feature", "geometry": {"type": "Point", "coordinates": [10.4134749, 52.2546154]}, "properties": {"id": "osm:way:1214376361", "type": "kindergarten", "name": "", "source": "OpenStreetMap/Overpass"}}, {"type": "Feature", "geometry": {"type": "Point", "coordinates": [10.569215, 52.2473476]}, "properties": {"id": "osm:way:1222203646", "type": "kindergarten", "name": "Kinderkrippe Marienkäfer", "source": "OpenStreetMap/Overpass"}}, {"type": "Feature", "geometry": {"type": "Point", "coordinates": [10.572845, 52.2464775]}, "properties": {"id": "osm:way:1222203650", "type": "kindergarten", "name": "Kindergarten Heinrich der Löwe", "source": "OpenStreetMap/Overpass"}}, {"type": "Feature", "geometry": {"type": "Point", "coordinates": [10.5831864, 52.3407588]}, "properties": {"id": "osm:way:1222221903", "type": "kindergarten", "name": "", "source": "OpenStreetMap/Overpass"}}, {"type": "Feature", "geometry": {"type": "Point", "coordinates": [10.5529875, 52.3074626]}, "properties": {"id": "osm:way:1223876647", "type": "kindergarten", "name": "Moosmutzel", "source": "OpenStreetMap/Overpass"}}, {"type": "Feature", "geometry": {"type": "Point", "coordinates": [10.5537795, 52.3078693]}, "properties": {"id": "osm:way:1223876648", "type": "kindergarten", "name": "Wurzelzwerge", "source": "OpenStreetMap/Overpass"}}, {"type": "Feature", "geometry": {"type": "Point", "coordinates": [10.5221407, 52.2603517]}, "properties": {"id": "osm:way:1293461534", "type": "kindergarten", "name": "Volkskindergarten", "source": "OpenStreetMap/Overpass"}}, {"type": "Feature", "geometry": {"type": "Point", "coordinates": [10.6299665, 52.3158921]}, "properties": {"id": "osm:way:1303090010", "type": "kindergarten", "name": "Mühlenknirpse", "source": "OpenStreetMap/Overpass"}}, {"type": "Feature", "geometry": {"type": "Point", "coordinates": [10.4545654, 52.2858441]}, "properties": {"id": "osm:way:1326128597", "type": "kindergarten", "name": "Geschwister-Sperling-Kindergarten", "source": "OpenStreetMap/Overpass"}}, {"type": "Feature", "geometry": {"type": "Point", "coordinates": [10.6255157, 52.2753544]}, "properties": {"id": "osm:way:1331654365", "type": "kindergarten", "name": "AWO Kita Wanneweg", "source": "OpenStreetMap/Overpass"}}, {"type": "Feature", "geometry": {"type": "Point", "coordinates": [10.5144047, 52.2929256]}, "properties": {"id": "osm:way:1348185519", "type": "kindergarten", "name": "", "source": "OpenStreetMap/Overpass"}}, {"type": "Feature", "geometry": {"type": "Point", "coordinates": [10.4839534, 52.2715532]}, "properties": {"id": "osm:way:1382280979", "type": "kindergarten", "name": "Hubeta e.V. Kindergarten Braunschweig", "source": "OpenStreetMap/Overpass"}}, {"type": "Feature", "geometry": {"type": "Point", "coordinates": [10.5226478, 52.2077658]}, "properties": {"id": "osm:way:1426727431", "type": "kindergarten", "name": "Spielwiese Kindertagesstätte Sterntaler", "source": "OpenStreetMap/Overpass"}}, {"type": "Feature", "geometry": {"type": "Point", "coordinates": [10.5425569, 52.2390671]}, "properties": {"id": "osm:way:1462754520", "type": "school", "name": "Helene-Engelbrecht-Schule", "source": "OpenStreetMap/Overpass"}}, {"type": "Feature", "geometry": {"type": "Point", "coordinates": [10.5502646, 52.3053465]}, "properties": {"id": "osm:way:1482882046", "type": "kindergarten", "name": "KITA-Morgenstern", "source": "OpenStreetMap/Overpass"}}, {"type": "Feature", "geometry": {"type": "Point", "coordinates": [10.4987364, 52.2108724]}, "properties": {"id": "osm:way:1490150445", "type": "kindergarten", "name": "Kinderkrippe Sonnenschein e.V.", "source": "OpenStreetMap/Overpass"}}, {"type": "Feature", "geometry": {"type": "Point", "coordinates": [10.5147952, 52.2999172]}, "properties": {"id": "osm:relation:531704", "type": "kindergarten", "name": "Frech Daxe", "source": "OpenStreetMap/Overpass"}}, {"type": "Feature", "geometry": {"type": "Point", "coordinates": [10.5643319, 52.279961]}, "properties": {"id": "osm:relation:916139", "type": "school", "name": "Grundschule Gliesmarode", "source": "OpenStreetMap/Overpass"}}, {"type": "Feature", "geometry": {"type": "Point", "coordinates": [10.549736, 52.2713086]}, "properties": {"id": "osm:relation:8180474", "type": "school", "name": "", "source": "OpenStreetMap/Overpass"}}, {"type": "Feature", "geometry": {"type": "Point", "coordinates": [10.5427241, 52.3046624]}, "properties": {"id": "osm:relation:20014818", "type": "school", "name": "Grundschule Schunteraue", "source": "OpenStreetMap/Overpass"}}, {"type": "Feature", "geometry": {"type": "Point", "coordinates": [10.5420477, 52.3046707]}, "properties": {"id": "osm:relation:20014820", "type": "school", "name": "Grundschule Schunteraue, Hauptstelle Kralenriede", "source": "OpenStreetMap/Overpass"}}, {"type": "Feature", "geometry": {"type": "Point", "coordinates": [10.5436489, 52.2388559]}, "properties": {"id": "osm:relation:20022550", "type": "school", "name": "Heinrich-Büssing-Schule", "source": "OpenStreetMap/Overpass"}}]}
