{
  "type": "FeatureCollection",
  "features": [
    {
      "type": "Feature",
      "geometry": {
        "type": "Point",
        "coordinates": [9.7320, 52.3759]
      },
      "properties": {
        "id": "osm:node:123456",
        "type": "school",
        "name": "Beispiel-Grundschule Hannover",
        "source": "OpenStreetMap/Overpass"
      }
    },
    {
      "type": "Feature",
      "geometry": {
        "type": "Point",
        "coordinates": [9.7350, 52.3770]
      },
      "properties": {
        "id": "osm:node:123457",
        "type": "kindergarten",
        "name": "Kindergarten Sonnenschein",
        "source": "OpenStreetMap/Overpass"
      }
    },
    {
      "type": "Feature",
      "geometry": {
        "type": "Point",
        "coordinates": [9.7400, 52.3800]
      },
      "properties": {
        "id": "osm:node:123458",
        "type": "childcare",
        "name": "Kita Regenbogen",
        "source": "OpenStreetMap/Overpass"
      }
    }
  ]
}
