{
  "type": "FeatureCollection",
  "features": [
    {
      "type": "Feature",
      "geometry": {
        "type": "Point",
        "coordinates": [13.4050, 52.5200]
      },
      "properties": {
        "id": "osm:node:234567",
        "type": "school",
        "name": "Beispiel-Gymnasium Berlin",
        "source": "OpenStreetMap/Overpass"
      }
    },
    {
      "type": "Feature",
      "geometry": {
        "type": "Point",
        "coordinates": [13.4100, 52.5220]
      },
      "properties": {
        "id": "osm:node:234568",
        "type": "kindergarten",
        "name": "Kindergarten Spreeblick",
        "source": "OpenStreetMap/Overpass"
      }
    }
  ]
}
